{"type": "FeatureCollection", "crs": {"type": "name", "properties": {"name": "EPSG:4326"}}, "features": [{"type": "Feature", "geometry": {"type": "Polygon", "coordinates": [[[-81.6579086, 28.521821], [-81.6577071, 28.5218219], [-81.6577062, 28.5216554], [-81.6578047, 28.521655], [-81.6578095, 28.5216693], [-81.6579078, 28.5216689], [-81.6579086, 28.521821]]]}, "properties": {"osm_id": 930260271, "osm_type": "way", "building": "house", "name": null}}, {"type": "Feature", "geometry": {"type": "Polygon", "coordinates": [[[-81.6517809, 28.5152978], [-81.6518512, 28.5152967], [-81.6518502, 28.5152478], [-81.6517799, 28.5152489], [-81.6517809, 28.5152978]]]}, "properties": {"osm_id": 991153271, "osm_type": "way", "building": "yes", "name": null}}, {"type": "Feature", "geometry": {"type": "Polygon", "coordinates": [[[-81.6517586, 28.5151682], [-81.6518737, 28.5151663], [-81.6518722, 28.5150991], [-81.6517572, 28.515101], [-81.6517586, 28.5151682]]]}, "properties": {"osm_id": 991153272, "osm_type": "way", "building": "yes", "name": null}}, {"type": "Feature", "geometry": {"type": "Polygon", "coordinates": [[[-81.648221, 28.5127123], [-81.6481317, 28.512797], [-81.648296, 28.5129307], [-81.6483853, 28.512846], [-81.648221, 28.5127123]]]}, "properties": {"osm_id": 1006817753, "osm_type": "way", "building": "yes", "name": null}}, {"type": "Feature", "geometry": {"type": "Polygon", "coordinates": [[[-81.6482686, 28.512956], [-81.648105, 28.5128205], [-81.6480144, 28.512905], [-81.648178, 28.5130404], [-81.6482686, 28.512956]]]}, "properties": {"osm_id": 1006817754, "osm_type": "way", "building": "yes", "name": null}}, {"type": "Feature", "geometry": {"type": "Polygon", "coordinates": [[[-81.6482349, 28.512676], [-81.648397, 28.5128064], [-81.6484871, 28.51272], [-81.648325, 28.5125896], [-81.6482349, 28.512676]]]}, "properties": {"osm_id": 1006817755, "osm_type": "way", "building": "yes", "name": null}}, {"type": "Feature", "geometry": {"type": "Polygon", "coordinates": [[[-81.648048, 28.5130719], [-81.648071, 28.5130911], [-81.648122, 28.513044], [-81.647989, 28.5129328], [-81.6479, 28.513015], [-81.64801, 28.513107], [-81.648048, 28.5130719]]]}, "properties": {"osm_id": 1006817756, "osm_type": "way", "building": "yes", "name": null}}, {"type": "Feature", "geometry": {"type": "Polygon", "coordinates": [[[-81.647667, 28.51255], [-81.647819, 28.512677], [-81.647911, 28.512592], [-81.647759, 28.512465], [-81.647667, 28.51255]]]}, "properties": {"osm_id": 1006817757, "osm_type": "way", "building": "yes", "name": null}}, {"type": "Feature", "geometry": {"type": "Polygon", "coordinates": [[[-81.647799, 28.512705], [-81.647634, 28.512571], [-81.647545, 28.512656], [-81.647709, 28.51279], [-81.647799, 28.512705]]]}, "properties": {"osm_id": 1006817758, "osm_type": "way", "building": "yes", "name": null}}, {"type": "Feature", "geometry": {"type": "Polygon", "coordinates": [[[-81.6473225, 28.5128851], [-81.647471, 28.513007], [-81.6475613, 28.512922], [-81.6473979, 28.5127879], [-81.6473367, 28.5128455], [-81.6473517, 28.5128578], [-81.6473225, 28.5128851]]]}, "properties": {"osm_id": 1006817759, "osm_type": "way", "building": "yes", "name": null}}, {"type": "Feature", "geometry": {"type": "Polygon", "coordinates": [[[-81.647671, 28.512808], [-81.647534, 28.512693], [-81.647442, 28.512777], [-81.64758, 28.512892], [-81.647671, 28.512808]]]}, "properties": {"osm_id": 1006817760, "osm_type": "way", "building": "yes", "name": null}}, {"type": "Feature", "geometry": {"type": "Polygon", "coordinates": [[[-81.6472708, 28.512981], [-81.6472319, 28.513017], [-81.64735, 28.5131156], [-81.6474383, 28.513034], [-81.647295, 28.5129144], [-81.6472457, 28.51296], [-81.6472708, 28.512981]]]}, "properties": {"osm_id": 1006817761, "osm_type": "way", "building": "yes", "name": null}}, {"type": "Feature", "geometry": {"type": "Polygon", "coordinates": [[[-81.6473245, 28.513142], [-81.6471772, 28.5130197], [-81.647149, 28.5130459], [-81.6471333, 28.5130329], [-81.64707, 28.5130918], [-81.647233, 28.5132271], [-81.6473245, 28.513142]]]}, "properties": {"osm_id": 1006817762, "osm_type": "way", "building": "yes", "name": null}}, {"type": "Feature", "geometry": {"type": "Polygon", "coordinates": [[[-81.64707, 28.513139], [-81.6470176, 28.513187], [-81.6470424, 28.513208], [-81.6470042, 28.513243], [-81.647112, 28.513334], [-81.6472027, 28.513251], [-81.64707, 28.513139]]]}, "properties": {"osm_id": 1006817763, "osm_type": "way", "building": "yes", "name": null}}, {"type": "Feature", "geometry": {"type": "Polygon", "coordinates": [[[-81.6468406, 28.513314], [-81.646995, 28.5134451], [-81.6470874, 28.513361], [-81.646933, 28.5132299], [-81.6468406, 28.513314]]]}, "properties": {"osm_id": 1006817764, "osm_type": "way", "building": "yes", "name": null}}, {"type": "Feature", "geometry": {"type": "Polygon", "coordinates": [[[-81.6480122, 28.51316], [-81.647874, 28.5130446], [-81.6477828, 28.513129], [-81.647921, 28.5132443], [-81.6480122, 28.51316]]]}, "properties": {"osm_id": 1006817765, "osm_type": "way", "building": "yes", "name": null}}, {"type": "Feature", "geometry": {"type": "Polygon", "coordinates": [[[-81.6478967, 28.513273], [-81.647755, 28.5131527], [-81.6476633, 28.513236], [-81.647805, 28.5133563], [-81.6478967, 28.513273]]]}, "properties": {"osm_id": 1006817766, "osm_type": "way", "building": "yes", "name": null}}, {"type": "Feature", "geometry": {"type": "Polygon", "coordinates": [[[-81.6477434, 28.513355], [-81.647636, 28.5132631], [-81.6475463, 28.513344], [-81.647677, 28.5134559], [-81.6477324, 28.513406], [-81.647709, 28.513386], [-81.6477434, 28.513355]]]}, "properties": {"osm_id": 1006817767, "osm_type": "way", "building": "yes", "name": null}}, {"type": "Feature", "geometry": {"type": "Polygon", "coordinates": [[[-81.647661, 28.51349], [-81.647518, 28.513372], [-81.647427, 28.513457], [-81.64757, 28.513575], [-81.647661, 28.51349]]]}, "properties": {"osm_id": 1006817768, "osm_type": "way", "building": "yes", "name": null}}, {"type": "Feature", "geometry": {"type": "Polygon", "coordinates": [[[-81.6475551, 28.51361], [-81.647397, 28.5134791], [-81.6473059, 28.513564], [-81.647464, 28.5136949], [-81.6475551, 28.51361]]]}, "properties": {"osm_id": 1006817769, "osm_type": "way", "building": "yes", "name": null}}, {"type": "Feature", "geometry": {"type": "Polygon", "coordinates": [[[-81.6471919, 28.513677], [-81.647331, 28.5137914], [-81.6474221, 28.513706], [-81.647283, 28.5135915], [-81.6471919, 28.513677]]]}, "properties": {"osm_id": 1006817770, "osm_type": "way", "building": "yes", "name": null}}, {"type": "Feature", "geometry": {"type": "Polygon", "coordinates": [[[-81.6470714, 28.513785], [-81.647182, 28.5138754], [-81.647204, 28.5138546], [-81.647245, 28.5138881], [-81.6473107, 28.513826], [-81.647159, 28.5137022], [-81.6470714, 28.513785]]]}, "properties": {"osm_id": 1006817771, "osm_type": "way", "building": "yes", "name": null}}, {"type": "Feature", "geometry": {"type": "Polygon", "coordinates": [[[-81.6467618, 28.5135159], [-81.6467401, 28.513524], [-81.6467702, 28.5135866], [-81.6469175, 28.5135318], [-81.64683, 28.5133501], [-81.6467044, 28.5133968], [-81.6467618, 28.5135159]]]}, "properties": {"osm_id": 1006817772, "osm_type": "way", "building": "yes", "name": null}}, {"type": "Feature", "geometry": {"type": "Polygon", "coordinates": [[[-81.6471335, 28.5139842], [-81.6470399, 28.5138032], [-81.6469174, 28.5138521], [-81.647011, 28.5140331], [-81.6471335, 28.5139842]]]}, "properties": {"osm_id": 1006817773, "osm_type": "way", "building": "yes", "name": null}}, {"type": "Feature", "geometry": {"type": "Polygon", "coordinates": [[[-81.6467469, 28.5138846], [-81.6467745, 28.5140815], [-81.6469063, 28.5140672], [-81.6468942, 28.5139808], [-81.6468908, 28.5139812], [-81.6468754, 28.5138707], [-81.6467469, 28.5138846]]]}, "properties": {"osm_id": 1006817774, "osm_type": "way", "building": "yes", "name": null}}, {"type": "Feature", "geometry": {"type": "Polygon", "coordinates": [[[-81.64767, 28.517189], [-81.647439, 28.517192], [-81.647439, 28.517234], [-81.647286, 28.517236], [-81.647288, 28.517328], [-81.647452, 28.517326], [-81.647452, 28.517352], [-81.647527, 28.517351], [-81.647527, 28.517354], [-81.647672, 28.517353], [-81.64767, 28.517189]]]}, "properties": {"osm_id": 1006822531, "osm_type": "way", "building": "yes", "name": null}}, {"type": "Feature", "geometry": {"type": "Polygon", "coordinates": [[[-81.647714, 28.516523], [-81.647719, 28.517021], [-81.647941, 28.51702], [-81.647936, 28.516521], [-81.647714, 28.516523]]]}, "properties": {"osm_id": 1006822532, "osm_type": "way", "building": "yes", "name": null}}, {"type": "Feature", "geometry": {"type": "Polygon", "coordinates": [[[-81.648262, 28.516712], [-81.648258, 28.516609], [-81.64828, 28.516608], [-81.648276, 28.516515], [-81.648139, 28.516519], [-81.648142, 28.516588], [-81.648115, 28.516588], [-81.648117, 28.516643], [-81.648144, 28.516642], [-81.648147, 28.516716], [-81.648262, 28.516712]]]}, "properties": {"osm_id": 1006822533, "osm_type": "way", "building": "yes", "name": null}}, {"type": "Feature", "geometry": {"type": "Polygon", "coordinates": [[[-81.647538, 28.516471], [-81.647659, 28.516468], [-81.647655, 28.516351], [-81.647534, 28.516354], [-81.647538, 28.516471]]]}, "properties": {"osm_id": 1006822534, "osm_type": "way", "building": "yes", "name": null}}, {"type": "Feature", "geometry": {"type": "Polygon", "coordinates": [[[-81.648584, 28.517498], [-81.64849, 28.517496], [-81.648486, 28.517638], [-81.64858, 28.51764], [-81.648584, 28.517498]]]}, "properties": {"osm_id": 1006822535, "osm_type": "way", "building": "yes", "name": null}}, {"type": "Feature", "geometry": {"type": "Polygon", "coordinates": [[[-81.647485, 28.514869], [-81.64765, 28.514866], [-81.647651, 28.514897], [-81.647747, 28.514895], [-81.647743, 28.514718], [-81.647649, 28.51472], [-81.647651, 28.514781], [-81.647567, 28.514783], [-81.647567, 28.514755], [-81.647483, 28.514756], [-81.647485, 28.514869]]]}, "properties": {"osm_id": 1059407258, "osm_type": "way", "building": "yes", "name": null}}, {"type": "Feature", "geometry": {"type": "Polygon", "coordinates": [[[-81.647781, 28.515395], [-81.647788, 28.515562], [-81.647946, 28.515557], [-81.647939, 28.51539], [-81.647781, 28.515395]]]}, "properties": {"osm_id": 1059407259, "osm_type": "way", "building": "yes", "name": null}}, {"type": "Feature", "geometry": {"type": "Polygon", "coordinates": [[[-81.649832, 28.514739], [-81.649453, 28.514745], [-81.649456, 28.51487], [-81.649834, 28.514864], [-81.649832, 28.514739]]]}, "properties": {"osm_id": 1059407260, "osm_type": "way", "building": "yes", "name": null}}, {"type": "Feature", "geometry": {"type": "Polygon", "coordinates": [[[-81.65087, 28.514583], [-81.650742, 28.514585], [-81.650746, 28.514816], [-81.650875, 28.514814], [-81.65087, 28.514583]]]}, "properties": {"osm_id": 1059407261, "osm_type": "way", "building": "yes", "name": null}}, {"type": "Feature", "geometry": {"type": "Polygon", "coordinates": [[[-81.650422, 28.51667], [-81.650291, 28.516668], [-81.65029, 28.516724], [-81.650421, 28.516727], [-81.650422, 28.51667]]]}, "properties": {"osm_id": 1059407262, "osm_type": "way", "building": "yes", "name": null}}, {"type": "Feature", "geometry": {"type": "Polygon", "coordinates": [[[-81.649994, 28.517229], [-81.649543, 28.517225], [-81.649541, 28.517365], [-81.649992, 28.517369], [-81.649994, 28.517229]]]}, "properties": {"osm_id": 1059407263, "osm_type": "way", "building": "yes", "name": null}}, {"type": "Feature", "geometry": {"type": "Polygon", "coordinates": [[[-81.655726, 28.521642], [-81.655654, 28.521642], [-81.655652, 28.521748], [-81.655725, 28.521748], [-81.655726, 28.521642]]]}, "properties": {"osm_id": 1059407269, "osm_type": "way", "building": "yes", "name": null}}, {"type": "Feature", "geometry": {"type": "Polygon", "coordinates": [[[-81.656938, 28.521656], [-81.657053, 28.521654], [-81.657054, 28.521686], [-81.657127, 28.521685], [-81.657129, 28.52174], [-81.657177, 28.52174], [-81.657176, 28.521691], [-81.657205, 28.521691], [-81.657204, 28.521636], [-81.657164, 28.521636], [-81.657163, 28.521607], [-81.657051, 28.521608], [-81.657049, 28.521539], [-81.656935, 28.521541], [-81.656938, 28.521656]]]}, "properties": {"osm_id": 1059407270, "osm_type": "way", "building": "yes", "name": null}}, {"type": "Feature", "geometry": {"type": "Polygon", "coordinates": [[[-81.658297, 28.521904], [-81.658212, 28.521905], [-81.658213, 28.521972], [-81.658084, 28.521973], [-81.658086, 28.522125], [-81.658159, 28.522124], [-81.658159, 28.522161], [-81.6583, 28.52216], [-81.658297, 28.521904]]]}, "properties": {"osm_id": 1059407271, "osm_type": "way", "building": "yes", "name": null}}, {"type": "Feature", "geometry": {"type": "Polygon", "coordinates": [[[-81.658772, 28.52206], [-81.658768, 28.52202], [-81.658819, 28.522016], [-81.65881, 28.52192], [-81.658741, 28.521925], [-81.658738, 28.521897], [-81.658639, 28.521904], [-81.658642, 28.521928], [-81.658516, 28.521937], [-81.658529, 28.522066], [-81.658625, 28.522059], [-81.658626, 28.52207], [-81.658772, 28.52206]]]}, "properties": {"osm_id": 1059407272, "osm_type": "way", "building": "yes", "name": null}}, {"type": "Feature", "geometry": {"type": "Polygon", "coordinates": [[[-81.659084, 28.522116], [-81.659066, 28.522012], [-81.6592, 28.521993], [-81.659192, 28.52195], [-81.659209, 28.521947], [-81.659196, 28.521877], [-81.658972, 28.521909], [-81.658965, 28.521876], [-81.658929, 28.521881], [-81.658975, 28.522131], [-81.659084, 28.522116]]]}, "properties": {"osm_id": 1059407273, "osm_type": "way", "building": "yes", "name": null}}, {"type": "Feature", "geometry": {"type": "Polygon", "coordinates": [[[-81.659516, 28.521584], [-81.65937, 28.521623], [-81.659423, 28.521774], [-81.659517, 28.521748], [-81.659524, 28.521768], [-81.659576, 28.521754], [-81.659516, 28.521584]]]}, "properties": {"osm_id": 1059407274, "osm_type": "way", "building": "yes", "name": null}}, {"type": "Feature", "geometry": {"type": "Polygon", "coordinates": [[[-81.659899, 28.521639], [-81.660109, 28.521508], [-81.659977, 28.521343], [-81.659825, 28.521438], [-81.659787, 28.52139], [-81.659724, 28.521429], [-81.659841, 28.521576], [-81.659791, 28.521607], [-81.659885, 28.521723], [-81.659939, 28.521689], [-81.659899, 28.521639]]]}, "properties": {"osm_id": 1059407275, "osm_type": "way", "building": "yes", "name": null}}, {"type": "Feature", "geometry": {"type": "Polygon", "coordinates": [[[-81.660242, 28.521001], [-81.660163, 28.521065], [-81.660229, 28.521128], [-81.660119, 28.521216], [-81.660208, 28.521301], [-81.660242, 28.521274], [-81.660272, 28.521304], [-81.660428, 28.521178], [-81.660242, 28.521001]]]}, "properties": {"osm_id": 1059407276, "osm_type": "way", "building": "yes", "name": null}}, {"type": "Feature", "geometry": {"type": "Polygon", "coordinates": [[[-81.661138, 28.520979], [-81.66134, 28.521088], [-81.661462, 28.520913], [-81.661387, 28.520872], [-81.66136, 28.52091], [-81.661234, 28.520842], [-81.661138, 28.520979]]]}, "properties": {"osm_id": 1059407277, "osm_type": "way", "building": "yes", "name": null}}, {"type": "Feature", "geometry": {"type": "Polygon", "coordinates": [[[-81.666221, 28.521744], [-81.666072, 28.521745], [-81.666071, 28.521725], [-81.665952, 28.521726], [-81.665953, 28.521866], [-81.666, 28.521866], [-81.666001, 28.521894], [-81.666058, 28.521894], [-81.666058, 28.52187], [-81.666157, 28.52187], [-81.666157, 28.521829], [-81.666221, 28.521829], [-81.666221, 28.521744]]]}, "properties": {"osm_id": 1059407278, "osm_type": "way", "building": "yes", "name": null}}, {"type": "Feature", "geometry": {"type": "Polygon", "coordinates": [[[-81.667057, 28.521706], [-81.667185, 28.521709], [-81.667188, 28.521583], [-81.66706, 28.52158], [-81.667057, 28.521706]]]}, "properties": {"osm_id": 1059407279, "osm_type": "way", "building": "yes", "name": null}}, {"type": "Feature", "geometry": {"type": "Polygon", "coordinates": [[[-81.66731, 28.513222], [-81.667067, 28.513217], [-81.667065, 28.51329], [-81.667103, 28.513291], [-81.667101, 28.513362], [-81.667226, 28.513364], [-81.667226, 28.513391], [-81.667305, 28.513393], [-81.66731, 28.513222]]]}, "properties": {"osm_id": 1059434123, "osm_type": "way", "building": "yes", "name": null}}, {"type": "Feature", "geometry": {"type": "Polygon", "coordinates": [[[-81.666191, 28.51321], [-81.666113, 28.51321], [-81.666115, 28.513401], [-81.666286, 28.5134], [-81.666285, 28.513275], [-81.666191, 28.513276], [-81.666191, 28.51321]]]}, "properties": {"osm_id": 1059434124, "osm_type": "way", "building": "yes", "name": null}}, {"type": "Feature", "geometry": {"type": "Polygon", "coordinates": [[[-81.666335, 28.512974], [-81.666185, 28.512971], [-81.666183, 28.513025], [-81.666333, 28.513028], [-81.666335, 28.512974]]]}, "properties": {"osm_id": 1059434125, "osm_type": "way", "building": "yes", "name": null}}, {"type": "Feature", "geometry": {"type": "Polygon", "coordinates": [[[-81.6660805, 28.5128133], [-81.6658387, 28.5128133], [-81.6658387, 28.5127252], [-81.6660805, 28.5127252], [-81.6660805, 28.5128133]]]}, "properties": {"osm_id": 1059434128, "osm_type": "way", "building": "house", "name": null}}, {"type": "Feature", "geometry": {"type": "Polygon", "coordinates": [[[-81.66478, 28.514702], [-81.665007, 28.514699], [-81.665005, 28.514586], [-81.664778, 28.514589], [-81.66478, 28.514702]]]}, "properties": {"osm_id": 1059434480, "osm_type": "way", "building": "yes", "name": null}}, {"type": "Feature", "geometry": {"type": "Polygon", "coordinates": [[[-81.664323, 28.514756], [-81.664325, 28.514841], [-81.664298, 28.514841], [-81.6643, 28.514914], [-81.664487, 28.514911], [-81.664483, 28.514753], [-81.664323, 28.514756]]]}, "properties": {"osm_id": 1059434481, "osm_type": "way", "building": "yes", "name": null}}, {"type": "Feature", "geometry": {"type": "Polygon", "coordinates": [[[-81.662444, 28.515071], [-81.662578, 28.515063], [-81.66258, 28.515089], [-81.66266, 28.515084], [-81.662655, 28.515018], [-81.662612, 28.515021], [-81.662601, 28.514889], [-81.662513, 28.514895], [-81.662512, 28.514881], [-81.662429, 28.514886], [-81.662444, 28.515071]]]}, "properties": {"osm_id": 1059434482, "osm_type": "way", "building": "yes", "name": null}}, {"type": "Feature", "geometry": {"type": "Polygon", "coordinates": [[[-81.664359, 28.515731], [-81.664362, 28.515542], [-81.664183, 28.51554], [-81.664179, 28.515786], [-81.664284, 28.515787], [-81.664283, 28.515825], [-81.664392, 28.515826], [-81.664393, 28.515732], [-81.664359, 28.515731]]]}, "properties": {"osm_id": 1059434483, "osm_type": "way", "building": "yes", "name": null}}, {"type": "Feature", "geometry": {"type": "Polygon", "coordinates": [[[-81.662826, 28.515996], [-81.662824, 28.515916], [-81.6628, 28.515916], [-81.662797, 28.515793], [-81.662674, 28.515795], [-81.662676, 28.515875], [-81.662644, 28.515876], [-81.662646, 28.515968], [-81.662675, 28.515967], [-81.662676, 28.515999], [-81.662826, 28.515996]]]}, "properties": {"osm_id": 1059434484, "osm_type": "way", "building": "yes", "name": null}}, {"type": "Feature", "geometry": {"type": "Polygon", "coordinates": [[[-81.661212, 28.516045], [-81.661354, 28.516047], [-81.661356, 28.515894], [-81.661214, 28.515892], [-81.661212, 28.516045]]]}, "properties": {"osm_id": 1059434485, "osm_type": "way", "building": "yes", "name": null}}, {"type": "Feature", "geometry": {"type": "Polygon", "coordinates": [[[-81.660446, 28.516509], [-81.660254, 28.516512], [-81.660259, 28.516703], [-81.660415, 28.5167], [-81.660412, 28.516574], [-81.660447, 28.516573], [-81.660446, 28.516509]]]}, "properties": {"osm_id": 1059434486, "osm_type": "way", "building": "yes", "name": null}}, {"type": "Feature", "geometry": {"type": "Polygon", "coordinates": [[[-81.661753, 28.51678], [-81.661751, 28.516926], [-81.661866, 28.516927], [-81.661869, 28.516781], [-81.661753, 28.51678]]]}, "properties": {"osm_id": 1059434487, "osm_type": "way", "building": "yes", "name": null}}, {"type": "Feature", "geometry": {"type": "Polygon", "coordinates": [[[-81.662491, 28.516758], [-81.662341, 28.51676], [-81.662343, 28.516873], [-81.662493, 28.516871], [-81.662491, 28.516758]]]}, "properties": {"osm_id": 1059434488, "osm_type": "way", "building": "yes", "name": null}}, {"type": "Feature", "geometry": {"type": "Polygon", "coordinates": [[[-81.662823, 28.516477], [-81.662651, 28.516477], [-81.662651, 28.516578], [-81.66263, 28.516578], [-81.66263, 28.516663], [-81.662844, 28.516663], [-81.662844, 28.516588], [-81.662823, 28.516588], [-81.662823, 28.516477]]]}, "properties": {"osm_id": 1059434489, "osm_type": "way", "building": "yes", "name": null}}, {"type": "Feature", "geometry": {"type": "Polygon", "coordinates": [[[-81.664137, 28.51659], [-81.664178, 28.516592], [-81.664175, 28.516651], [-81.664263, 28.516654], [-81.664266, 28.516588], [-81.664306, 28.51659], [-81.66431, 28.5165], [-81.664142, 28.516493], [-81.664137, 28.51659]]]}, "properties": {"osm_id": 1059434490, "osm_type": "way", "building": "yes", "name": null}}, {"type": "Feature", "geometry": {"type": "Polygon", "coordinates": [[[-81.664642, 28.516846], [-81.664637, 28.516988], [-81.664733, 28.51699], [-81.664737, 28.516849], [-81.664642, 28.516846]]]}, "properties": {"osm_id": 1059434491, "osm_type": "way", "building": "yes", "name": null}}, {"type": "Feature", "geometry": {"type": "Polygon", "coordinates": [[[-81.662449, 28.517398], [-81.662441, 28.517541], [-81.662405, 28.51754], [-81.662403, 28.517592], [-81.662521, 28.517597], [-81.662524, 28.517554], [-81.662571, 28.517556], [-81.662576, 28.517461], [-81.662537, 28.517459], [-81.66254, 28.517402], [-81.662449, 28.517398]]]}, "properties": {"osm_id": 1059434492, "osm_type": "way", "building": "yes", "name": null}}, {"type": "Feature", "geometry": {"type": "Polygon", "coordinates": [[[-81.663907, 28.517654], [-81.664046, 28.517656], [-81.66405, 28.517428], [-81.664016, 28.517428], [-81.664017, 28.517388], [-81.663911, 28.517387], [-81.663907, 28.517654]]]}, "properties": {"osm_id": 1059434493, "osm_type": "way", "building": "yes", "name": null}}, {"type": "Feature", "geometry": {"type": "Polygon", "coordinates": [[[-81.664461, 28.517457], [-81.664348, 28.517458], [-81.664349, 28.517574], [-81.664462, 28.517573], [-81.664461, 28.517457]]]}, "properties": {"osm_id": 1059434494, "osm_type": "way", "building": "yes", "name": null}}, {"type": "Feature", "geometry": {"type": "Polygon", "coordinates": [[[-81.66215, 28.51711], [-81.662084, 28.517108], [-81.662084, 28.517129], [-81.662028, 28.517128], [-81.662023, 28.517296], [-81.662152, 28.517299], [-81.662154, 28.517199], [-81.662148, 28.517199], [-81.66215, 28.51711]]]}, "properties": {"osm_id": 1059434495, "osm_type": "way", "building": "yes", "name": null}}, {"type": "Feature", "geometry": {"type": "Polygon", "coordinates": [[[-81.660283, 28.517647], [-81.660398, 28.517648], [-81.6604, 28.517493], [-81.660427, 28.517493], [-81.660429, 28.517345], [-81.660252, 28.517342], [-81.660251, 28.517423], [-81.660277, 28.517423], [-81.660276, 28.517498], [-81.660245, 28.517498], [-81.660244, 28.517552], [-81.660284, 28.517553], [-81.660283, 28.517647]]]}, "properties": {"osm_id": 1059434496, "osm_type": "way", "building": "yes", "name": null}}, {"type": "Feature", "geometry": {"type": "Polygon", "coordinates": [[[-81.659172, 28.517623], [-81.659171, 28.517514], [-81.659152, 28.517514], [-81.65915, 28.517408], [-81.659062, 28.517409], [-81.659063, 28.517507], [-81.658993, 28.517508], [-81.658995, 28.517624], [-81.659172, 28.517623]]]}, "properties": {"osm_id": 1059434497, "osm_type": "way", "building": "yes", "name": null}}, {"type": "Feature", "geometry": {"type": "Polygon", "coordinates": [[[-81.658442, 28.517414], [-81.658421, 28.517529], [-81.658579, 28.51755], [-81.658599, 28.517435], [-81.658442, 28.517414]]]}, "properties": {"osm_id": 1059434498, "osm_type": "way", "building": "yes", "name": null}}, {"type": "Feature", "geometry": {"type": "Polygon", "coordinates": [[[-81.65859, 28.517612], [-81.658589, 28.517687], [-81.658705, 28.517688], [-81.658705, 28.517613], [-81.65859, 28.517612]]]}, "properties": {"osm_id": 1059434499, "osm_type": "way", "building": "yes", "name": null}}, {"type": "Feature", "geometry": {"type": "Polygon", "coordinates": [[[-81.65873, 28.516842], [-81.658533, 28.51684], [-81.658532, 28.516953], [-81.658728, 28.516955], [-81.65873, 28.516842]]]}, "properties": {"osm_id": 1059434500, "osm_type": "way", "building": "yes", "name": null}}, {"type": "Feature", "geometry": {"type": "Polygon", "coordinates": [[[-81.659012, 28.516705], [-81.65901, 28.516816], [-81.658977, 28.516816], [-81.658977, 28.516886], [-81.659199, 28.516888], [-81.659201, 28.516706], [-81.659012, 28.516705]]]}, "properties": {"osm_id": 1059434501, "osm_type": "way", "building": "yes", "name": null}}, {"type": "Feature", "geometry": {"type": "Polygon", "coordinates": [[[-81.65924, 28.516355], [-81.659243, 28.51628], [-81.659057, 28.516274], [-81.659052, 28.516415], [-81.659159, 28.516418], [-81.659161, 28.516353], [-81.65924, 28.516355]]]}, "properties": {"osm_id": 1059434502, "osm_type": "way", "building": "yes", "name": null}}, {"type": "Feature", "geometry": {"type": "Polygon", "coordinates": [[[-81.658926, 28.515464], [-81.658962, 28.515534], [-81.659022, 28.51551], [-81.659086, 28.515636], [-81.659218, 28.515584], [-81.659189, 28.515528], [-81.659204, 28.515522], [-81.659154, 28.515424], [-81.65907, 28.515457], [-81.659049, 28.515416], [-81.658926, 28.515464]]]}, "properties": {"osm_id": 1059434503, "osm_type": "way", "building": "yes", "name": null}}, {"type": "Feature", "geometry": {"type": "Polygon", "coordinates": [[[-81.658882, 28.515422], [-81.658843, 28.515323], [-81.658759, 28.515348], [-81.658799, 28.515447], [-81.658882, 28.515422]]]}, "properties": {"osm_id": 1059434504, "osm_type": "way", "building": "yes", "name": null}}, {"type": "Feature", "geometry": {"type": "Polygon", "coordinates": [[[-81.658396, 28.515319], [-81.658214, 28.515321], [-81.658215, 28.515389], [-81.658397, 28.515387], [-81.658396, 28.515319]]]}, "properties": {"osm_id": 1059434505, "osm_type": "way", "building": "yes", "name": null}}, {"type": "Feature", "geometry": {"type": "Polygon", "coordinates": [[[-81.658565, 28.51485], [-81.658832, 28.514853], [-81.658834, 28.514735], [-81.658638, 28.514733], [-81.658638, 28.514778], [-81.658566, 28.514777], [-81.658565, 28.51485]]]}, "properties": {"osm_id": 1059434506, "osm_type": "way", "building": "yes", "name": null}}, {"type": "Feature", "geometry": {"type": "Polygon", "coordinates": [[[-81.658212, 28.515008], [-81.658346, 28.515008], [-81.658346, 28.514895], [-81.658212, 28.514895], [-81.658212, 28.515008]]]}, "properties": {"osm_id": 1059434507, "osm_type": "way", "building": "yes", "name": null}}, {"type": "Feature", "geometry": {"type": "Polygon", "coordinates": [[[-81.656422, 28.514936], [-81.656572, 28.514939], [-81.656574, 28.514836], [-81.656424, 28.514834], [-81.656422, 28.514936]]]}, "properties": {"osm_id": 1059434508, "osm_type": "way", "building": "yes", "name": null}}, {"type": "Feature", "geometry": {"type": "Polygon", "coordinates": [[[-81.656788, 28.514787], [-81.656789, 28.514889], [-81.656867, 28.514888], [-81.656868, 28.514959], [-81.657056, 28.514956], [-81.657056, 28.514933], [-81.657107, 28.514932], [-81.657104, 28.5148], [-81.656877, 28.514803], [-81.656876, 28.514786], [-81.656788, 28.514787]]]}, "properties": {"osm_id": 1059434509, "osm_type": "way", "building": "yes", "name": null}}, {"type": "Feature", "geometry": {"type": "Polygon", "coordinates": [[[-81.6559, 28.514987], [-81.656048, 28.514986], [-81.656047, 28.514935], [-81.656133, 28.514934], [-81.656134, 28.514998], [-81.656278, 28.514997], [-81.656277, 28.514834], [-81.656127, 28.514835], [-81.656127, 28.514784], [-81.656052, 28.514785], [-81.656052, 28.514838], [-81.655899, 28.514839], [-81.6559, 28.514987]]]}, "properties": {"osm_id": 1059434510, "osm_type": "way", "building": "yes", "name": null}}, {"type": "Feature", "geometry": {"type": "Polygon", "coordinates": [[[-81.656611, 28.517452], [-81.656379, 28.517461], [-81.656385, 28.517571], [-81.656484, 28.517567], [-81.656483, 28.517543], [-81.656615, 28.517537], [-81.656611, 28.517452]]]}, "properties": {"osm_id": 1059434511, "osm_type": "way", "building": "yes", "name": null}}, {"type": "Feature", "geometry": {"type": "Polygon", "coordinates": [[[-81.65579, 28.517642], [-81.655596, 28.517568], [-81.655558, 28.517645], [-81.655603, 28.517662], [-81.65559, 28.517688], [-81.655683, 28.517723], [-81.655693, 28.517702], [-81.65575, 28.517723], [-81.65579, 28.517642]]]}, "properties": {"osm_id": 1059434512, "osm_type": "way", "building": "yes", "name": null}}, {"type": "Feature", "geometry": {"type": "Polygon", "coordinates": [[[-81.65367, 28.516991], [-81.65363, 28.516896], [-81.653531, 28.516929], [-81.653572, 28.517024], [-81.65367, 28.516991]]]}, "properties": {"osm_id": 1059434513, "osm_type": "way", "building": "yes", "name": null}}, {"type": "Feature", "geometry": {"type": "Polygon", "coordinates": [[[-81.652941, 28.515675], [-81.652942, 28.51577], [-81.653143, 28.515769], [-81.653142, 28.515673], [-81.652941, 28.515675]]]}, "properties": {"osm_id": 1059434514, "osm_type": "way", "building": "yes", "name": null}}, {"type": "Feature", "geometry": {"type": "Polygon", "coordinates": [[[-81.652722, 28.514904], [-81.65269, 28.514904], [-81.652689, 28.514992], [-81.652862, 28.514993], [-81.652863, 28.514897], [-81.652839, 28.514897], [-81.65284, 28.514825], [-81.652858, 28.514825], [-81.652859, 28.514738], [-81.652724, 28.514737], [-81.652722, 28.514904]]]}, "properties": {"osm_id": 1059435239, "osm_type": "way", "building": "yes", "name": null}}, {"type": "Feature", "geometry": {"type": "Polygon", "coordinates": [[[-81.652843, 28.514072], [-81.65302, 28.514069], [-81.653017, 28.513979], [-81.65284, 28.513983], [-81.652843, 28.514072]]]}, "properties": {"osm_id": 1059435240, "osm_type": "way", "building": "yes", "name": null}}, {"type": "Feature", "geometry": {"type": "Polygon", "coordinates": [[[-81.651982, 28.513918], [-81.651786, 28.513923], [-81.651791, 28.51406], [-81.651863, 28.514058], [-81.651863, 28.514053], [-81.651986, 28.51405], [-81.651982, 28.513918]]]}, "properties": {"osm_id": 1059435241, "osm_type": "way", "building": "yes", "name": null}}, {"type": "Feature", "geometry": {"type": "Polygon", "coordinates": [[[-81.651779, 28.514887], [-81.651775, 28.514736], [-81.65159, 28.51474], [-81.651595, 28.514921], [-81.651694, 28.514919], [-81.651693, 28.514889], [-81.651779, 28.514887]]]}, "properties": {"osm_id": 1059435242, "osm_type": "way", "building": "yes", "name": null}}, {"type": "Feature", "geometry": {"type": "Polygon", "coordinates": [[[-81.651817, 28.515719], [-81.651813, 28.515844], [-81.65203, 28.51585], [-81.652035, 28.515725], [-81.651817, 28.515719]]]}, "properties": {"osm_id": 1059435243, "osm_type": "way", "building": "yes", "name": null}}, {"type": "Feature", "geometry": {"type": "Polygon", "coordinates": [[[-81.651915, 28.516211], [-81.651877, 28.516211], [-81.651878, 28.516266], [-81.651915, 28.516266], [-81.651915, 28.516211]]]}, "properties": {"osm_id": 1059435244, "osm_type": "way", "building": "yes", "name": null}}, {"type": "Feature", "geometry": {"type": "Polygon", "coordinates": [[[-81.651989, 28.516196], [-81.651927, 28.516196], [-81.651927, 28.516267], [-81.651989, 28.516267], [-81.651989, 28.516196]]]}, "properties": {"osm_id": 1059435245, "osm_type": "way", "building": "yes", "name": null}}, {"type": "Feature", "geometry": {"type": "Polygon", "coordinates": [[[-81.651402, 28.516167], [-81.651304, 28.51617], [-81.651308, 28.516292], [-81.651406, 28.51629], [-81.651402, 28.516167]]]}, "properties": {"osm_id": 1059435246, "osm_type": "way", "building": "yes", "name": null}}, {"type": "Feature", "geometry": {"type": "Polygon", "coordinates": [[[-81.651423, 28.516006], [-81.65119, 28.51601], [-81.651192, 28.516089], [-81.651425, 28.516086], [-81.651423, 28.516006]]]}, "properties": {"osm_id": 1059435247, "osm_type": "way", "building": "yes", "name": null}}, {"type": "Feature", "geometry": {"type": "Polygon", "coordinates": [[[-81.650088, 28.517339], [-81.650043, 28.517339], [-81.650045, 28.517495], [-81.650091, 28.517494], [-81.650088, 28.517339]]]}, "properties": {"osm_id": 1059435248, "osm_type": "way", "building": "yes", "name": null}}]}