{"type": "FeatureCollection", "crs": {"type": "name", "properties": {"name": "EPSG:4326"}}, "features": [{"type": "Feature", "geometry": {"type": "LineString", "coordinates": [[-81.665639, 28.510367], [-81.665645, 28.510858], [-81.665651, 28.512762], [-81.66564, 28.513756], [-81.6656403, 28.5142907]]}, "properties": {"osm_id": 11007199, "highway": "track", "name": null, "ref": null}}, {"type": "Feature", "geometry": {"type": "LineString", "coordinates": [[-81.6635884, 28.5142883], [-81.6635922, 28.5147704], [-81.663593, 28.514844], [-81.6635917, 28.5149457], [-81.6635848, 28.515478], [-81.6635804, 28.5158216], [-81.663576, 28.516159], [-81.663571, 28.5166839], [-81.6635706, 28.5167259], [-81.663584, 28.516941], [-81.6635849, 28.5171649], [-81.6636109, 28.5173885]]}, "properties": {"osm_id": 11027064, "highway": "residential", "name": "Sadler Court", "ref": null}}, {"type": "Feature", "geometry": {"type": "LineString", "coordinates": [[-81.6594757, 28.5142606], [-81.6594821, 28.5153386], [-81.6594873, 28.515683], [-81.6594809, 28.516174], [-81.659484, 28.5168554], [-81.659468, 28.517458], [-81.6594692, 28.5175465], [-81.659475, 28.51799], [-81.6594662, 28.5180517], [-81.659456, 28.518123], [-81.659423, 28.518237], [-81.659374, 28.518346], [-81.659254, 28.518548], [-81.659203, 28.518675], [-81.659175, 28.51879], [-81.659163, 28.518907], [-81.659158, 28.521435]]}, "properties": {"osm_id": 11028393, "highway": "residential", "name": "Flynn Court", "ref": null}}, {"type": "Feature", "geometry": {"type": "LineString", "coordinates": [[-81.6575912, 28.5214173], [-81.6579099, 28.5215143], [-81.658011, 28.521545], [-81.658134, 28.521576], [-81.658285, 28.521598], [-81.6583425, 28.5216003], [-81.658436, 28.521604], [-81.658588, 28.521593], [-81.658758, 28.521561], [-81.6589904, 28.5214878], [-81.659158, 28.521435], [-81.659481, 28.521331], [-81.6596, 28.521284], [-81.659697, 28.521231], [-81.659799, 28.521158], [-81.660073, 28.520892], [-81.660161, 28.520815], [-81.660274, 28.520735], [-81.660397, 28.520668], [-81.660528, 28.520615], [-81.660646, 28.520581], [-81.660787, 28.520555], [-81.660931, 28.520545], [-81.661076, 28.52055], [-81.661198, 28.520567], [-81.661357, 28.520607], [-81.661489, 28.520658], [-81.661614, 28.520722], [-81.661729, 28.5208], [-81.661818, 28.520875], [-81.6619412, 28.521015]]}, "properties": {"osm_id": 11033501, "highway": "residential", "name": "Champagne Drive", "ref": null}}, {"type": "Feature", "geometry": {"type": "LineString", "coordinates": [[-81.6532073, 28.5142822], [-81.6532375, 28.514557], [-81.6532618, 28.5147774]]}, "properties": {"osm_id": 11183011, "highway": "service", "name": null, "ref": null}}, {"type": "Feature", "geometry": {"type": "LineString", "coordinates": [[-81.6489383, 28.5090228], [-81.6489031, 28.5090937], [-81.6489, 28.5091147], [-81.6488961, 28.5091406], [-81.6489035, 28.509479], [-81.6489586, 28.5119927], [-81.6489676, 28.5124019], [-81.648969, 28.5124681], [-81.6490101, 28.5143425]]}, "properties": {"osm_id": 11193395, "highway": "tertiary", "name": "Williams Road", "ref": null}}, {"type": "Feature", "geometry": {"type": "LineString", "coordinates": [[-81.6490225, 28.5179183], [-81.6489621, 28.5179348], [-81.6489073, 28.5179406], [-81.6480044, 28.5179483], [-81.6479602, 28.5179487], [-81.6470983, 28.5179604], [-81.646189, 28.5179727]]}, "properties": {"osm_id": 11205450, "highway": "residential", "name": "Amber Sweet Lane", "ref": null}}, {"type": "Feature", "geometry": {"type": "LineString", "coordinates": [[-81.6490225, 28.5179183], [-81.6490859, 28.5180224], [-81.6490938, 28.5180712], [-81.6491166, 28.5182115], [-81.6491836, 28.5184613], [-81.6492051, 28.5186027], [-81.6492091, 28.5187653], [-81.6492319, 28.5199083], [-81.6492346, 28.5200309], [-81.6492594, 28.5209624], [-81.6492726, 28.521401], [-81.6492765, 28.5215922]]}, "properties": {"osm_id": 44768319, "highway": "residential", "name": "Williams Road", "ref": null}}, {"type": "Feature", "geometry": {"type": "LineString", "coordinates": [[-81.6490101, 28.5143425], [-81.6490137, 28.5146496], [-81.6490345, 28.5164138], [-81.6490422, 28.5170714], [-81.6490512, 28.5178323], [-81.6490447, 28.5178813], [-81.6490225, 28.5179183]]}, "properties": {"osm_id": 78367444, "highway": "residential", "name": "Williams Road", "ref": null}}, {"type": "Feature", "geometry": {"type": "LineString", "coordinates": [[-81.6451951, 28.5139134], [-81.6452014, 28.5138502], [-81.6452321, 28.5138029], [-81.6452976, 28.5137676], [-81.6453563, 28.5137602], [-81.6467197, 28.5137483], [-81.6468484, 28.51373], [-81.646952, 28.5136799], [-81.6470853, 28.5135637], [-81.6480933, 28.5126332], [-81.6481263, 28.5125534], [-81.6481651, 28.512378]]}, "properties": {"osm_id": 591470229, "highway": "residential", "name": "Bal Harbour Drive", "ref": null}}, {"type": "Feature", "geometry": {"type": "LineString", "coordinates": [[-81.6574052, 28.5142488], [-81.6573521, 28.5142484], [-81.6569886, 28.5142514], [-81.6563435, 28.5142566], [-81.6532073, 28.5142822], [-81.6531554, 28.5142829], [-81.652684, 28.5142897], [-81.6521216, 28.5142978], [-81.6505937, 28.5143197], [-81.6490101, 28.5143425], [-81.6460955, 28.5143911]]}, "properties": {"osm_id": 591470231, "highway": "tertiary", "name": "Marsh Road", "ref": null}}, {"type": "Feature", "geometry": {"type": "LineString", "coordinates": [[-81.6635706, 28.5167259], [-81.6633645, 28.5167235], [-81.663148, 28.5167228], [-81.6630348, 28.5167204]]}, "properties": {"osm_id": 646232207, "highway": "service", "name": null, "ref": null}}, {"type": "Feature", "geometry": {"type": "LineString", "coordinates": [[-81.6480044, 28.5179483], [-81.6478977, 28.5179035], [-81.6477413, 28.5178233], [-81.6476204, 28.5177973], [-81.6474663, 28.5177754], [-81.6473857, 28.5177577], [-81.6473217, 28.5177244], [-81.6472778, 28.517691], [-81.647247, 28.5176338], [-81.6472411, 28.5175682], [-81.6472624, 28.5175067], [-81.6473667, 28.5174234]]}, "properties": {"osm_id": 646704480, "highway": "service", "name": null, "ref": null}}, {"type": "Feature", "geometry": {"type": "LineString", "coordinates": [[-81.6521216, 28.5142978], [-81.6521139, 28.5145745], [-81.6521216, 28.5149003], [-81.6521297, 28.5154018], [-81.6521332, 28.5158192], [-81.6521101, 28.5161417], [-81.6520151, 28.5161507], [-81.6518149, 28.5161395], [-81.6515827, 28.5161435]]}, "properties": {"osm_id": 649403364, "highway": "service", "name": null, "ref": null}}, {"type": "Feature", "geometry": {"type": "LineString", "coordinates": [[-81.6563435, 28.5142566], [-81.6563348, 28.5143849], [-81.6563323, 28.5144213], [-81.6563216, 28.5146575], [-81.6563054, 28.5146917], [-81.6562849, 28.5147246]]}, "properties": {"osm_id": 649473203, "highway": "service", "name": null, "ref": null}}, {"type": "Feature", "geometry": {"type": "LineString", "coordinates": [[-81.6573521, 28.5142484], [-81.6573643, 28.5146051], [-81.6573582, 28.5150141], [-81.6573525, 28.5152524], [-81.6573501, 28.5153535], [-81.657344, 28.5156286], [-81.6573562, 28.5159376], [-81.6573623, 28.5160823], [-81.6573338, 28.5161805], [-81.6573115, 28.5164038], [-81.6573257, 28.5167288], [-81.6573318, 28.516936], [-81.6573135, 28.5170396], [-81.6572525, 28.5170932], [-81.6570283, 28.5170902], [-81.6566055, 28.5170831], [-81.656138, 28.5171009], [-81.6560648, 28.5171259], [-81.6560526, 28.5172152], [-81.6560404, 28.5173331], [-81.6559876, 28.5173688], [-81.6558493, 28.5173724], [-81.6555892, 28.5173831], [-81.6554509, 28.5174403], [-81.6553656, 28.5175296], [-81.6553737, 28.5176439], [-81.655455, 28.5177011]]}, "properties": {"osm_id": 707015207, "highway": "service", "name": null, "ref": null}}, {"type": "Feature", "geometry": {"type": "LineString", "coordinates": [[-81.6594692, 28.5175465], [-81.6595922, 28.5176169], [-81.6597555, 28.517717], [-81.6599399, 28.5177218], [-81.6601745, 28.5177278], [-81.6601745, 28.5174165], [-81.6601653, 28.5173109], [-81.6600698, 28.5172324], [-81.6599866, 28.5172595], [-81.6599342, 28.5173245], [-81.6599399, 28.5177218]]}, "properties": {"osm_id": 729927852, "highway": "service", "name": null, "ref": null}}, {"type": "Feature", "geometry": {"type": "LineString", "coordinates": [[-81.6594809, 28.516174], [-81.6597778, 28.5163457], [-81.6599544, 28.5164491], [-81.6600151, 28.516457], [-81.660181, 28.5164586]]}, "properties": {"osm_id": 741000698, "highway": "service", "name": null, "ref": null}}, {"type": "Feature", "geometry": {"type": "LineString", "coordinates": [[-81.6641593, 28.5154897], [-81.6635848, 28.515478]]}, "properties": {"osm_id": 741007806, "highway": "service", "name": null, "ref": null}}, {"type": "Feature", "geometry": {"type": "LineString", "coordinates": [[-81.6619412, 28.521015], [-81.6619149, 28.5212093], [-81.6618929, 28.5213276], [-81.6618812, 28.5213662], [-81.6617728, 28.5212775], [-81.6616747, 28.5211668], [-81.6616586, 28.5211115], [-81.6617231, 28.5210755], [-81.6618285, 28.5210485], [-81.6619412, 28.521015]]}, "properties": {"osm_id": 749368732, "highway": "service", "name": null, "ref": null}}, {"type": "Feature", "geometry": {"type": "LineString", "coordinates": [[-81.6572525, 28.5170932], [-81.6571242, 28.5171834], [-81.6569041, 28.5173325], [-81.6566099, 28.5176181], [-81.6565968, 28.5176497], [-81.6565972, 28.5176836], [-81.6566227, 28.5177563], [-81.6566582, 28.5177953], [-81.6567155, 28.5178199], [-81.6567878, 28.5178396], [-81.6568628, 28.5178307], [-81.6569174, 28.5178187], [-81.6569665, 28.5177972], [-81.6570252, 28.5177625], [-81.6570593, 28.5177277], [-81.6571009, 28.5176679], [-81.6571262, 28.5176032], [-81.6572389, 28.5171835], [-81.6572566, 28.5171371], [-81.6572525, 28.5170932]]}, "properties": {"osm_id": 749380172, "highway": "service", "name": null, "ref": null}}, {"type": "Feature", "geometry": {"type": "LineString", "coordinates": [[-81.6635917, 28.5149457], [-81.6626861, 28.5149763]]}, "properties": {"osm_id": 756113577, "highway": "service", "name": null, "ref": null}}, {"type": "Feature", "geometry": {"type": "LineString", "coordinates": [[-81.6635804, 28.5158216], [-81.6635239, 28.5158445], [-81.6634173, 28.5159053], [-81.6632758, 28.5159984], [-81.6631723, 28.5160542], [-81.6631031, 28.5160709], [-81.6629997, 28.5160865], [-81.6628886, 28.5160915], [-81.6627693, 28.5160826]]}, "properties": {"osm_id": 756113578, "highway": "service", "name": null, "ref": null}}, {"type": "Feature", "geometry": {"type": "LineString", "coordinates": [[-81.663571, 28.5166839], [-81.6636803, 28.5167069], [-81.6638615, 28.516729], [-81.6640251, 28.5167386], [-81.664179, 28.5167366]]}, "properties": {"osm_id": 756113579, "highway": "service", "name": null, "ref": null}}, {"type": "Feature", "geometry": {"type": "LineString", "coordinates": [[-81.6630348, 28.5167204], [-81.6629216, 28.5168667], [-81.6628819, 28.5168988], [-81.6628175, 28.5169129], [-81.6626617, 28.5169195], [-81.6622787, 28.5169359], [-81.6620045, 28.5169184]]}, "properties": {"osm_id": 756113580, "highway": "service", "name": null, "ref": null}}, {"type": "Feature", "geometry": {"type": "LineString", "coordinates": [[-81.6490422, 28.5170714], [-81.6493199, 28.517072], [-81.6495149, 28.5170725]]}, "properties": {"osm_id": 756222170, "highway": "service", "name": null, "ref": null}}, {"type": "Feature", "geometry": {"type": "LineString", "coordinates": [[-81.6493199, 28.517072], [-81.6493179, 28.5172847]]}, "properties": {"osm_id": 756222171, "highway": "service", "name": null, "ref": null}}, {"type": "Feature", "geometry": {"type": "LineString", "coordinates": [[-81.6495149, 28.5170725], [-81.6495668, 28.5170734], [-81.6500667, 28.5170919]]}, "properties": {"osm_id": 756222172, "highway": "service", "name": null, "ref": null}}, {"type": "Feature", "geometry": {"type": "LineString", "coordinates": [[-81.6470983, 28.5179604], [-81.6470989, 28.5180202], [-81.6471434, 28.5180374], [-81.6472166, 28.5180529], [-81.6486789, 28.5180483], [-81.6488255, 28.5180726], [-81.6490938, 28.5180712]]}, "properties": {"osm_id": 756222173, "highway": "service", "name": null, "ref": null}}, {"type": "Feature", "geometry": {"type": "LineString", "coordinates": [[-81.6583374, 28.5220081], [-81.6583425, 28.5216003]]}, "properties": {"osm_id": 756223257, "highway": "service", "name": null, "ref": null}}, {"type": "Feature", "geometry": {"type": "LineString", "coordinates": [[-81.658437, 28.5142501], [-81.658441, 28.5144498], [-81.6584531, 28.5147269], [-81.6584521, 28.514863]]}, "properties": {"osm_id": 756816222, "highway": "service", "name": null, "ref": null}}, {"type": "Feature", "geometry": {"type": "LineString", "coordinates": [[-81.6645149, 28.514284], [-81.6645168, 28.5144498], [-81.6645495, 28.5145504], [-81.6646966, 28.5146345]]}, "properties": {"osm_id": 765291887, "highway": "service", "name": null, "ref": null}}, {"type": "Feature", "geometry": {"type": "LineString", "coordinates": [[-81.6661817, 28.5142888], [-81.6661994, 28.5141334], [-81.6662171, 28.5136513], [-81.6661321, 28.5135163], [-81.666069, 28.5134256], [-81.6660458, 28.5133294], [-81.6660443, 28.5132266]]}, "properties": {"osm_id": 765291888, "highway": "service", "name": null, "ref": null}}, {"type": "Feature", "geometry": {"type": "LineString", "coordinates": [[-81.6692202, 28.5176121], [-81.6669649, 28.518991], [-81.6662473, 28.5194202], [-81.6661419, 28.5194488], [-81.6659904, 28.5194499], [-81.6656497, 28.519437], [-81.6650945, 28.5194348], [-81.6624257, 28.5194388]]}, "properties": {"osm_id": 765697123, "highway": "residential", "name": "Sailing Pier Avenue", "ref": null}}, {"type": "Feature", "geometry": {"type": "LineString", "coordinates": [[-81.6642777, 28.5150161], [-81.6642396, 28.515019], [-81.6641767, 28.5150125], [-81.6641386, 28.5149812], [-81.6640947, 28.514899], [-81.6640716, 28.5148488], [-81.664056, 28.5148247], [-81.6640266, 28.5148026], [-81.6639899, 28.5147813], [-81.6639524, 28.5147725], [-81.663892, 28.5147675], [-81.6637807, 28.5147725], [-81.6635922, 28.5147704]]}, "properties": {"osm_id": 776715583, "highway": "service", "name": null, "ref": null}}, {"type": "Feature", "geometry": {"type": "LineString", "coordinates": [[-81.6594821, 28.5153386], [-81.6590804, 28.5153548], [-81.6589849, 28.5153561], [-81.6589201, 28.5153227], [-81.6588833, 28.5153037], [-81.6588195, 28.5152958], [-81.6586309, 28.5152856], [-81.6582779, 28.5152872], [-81.6581149, 28.5152922], [-81.658027, 28.5153212], [-81.6579843, 28.5153368], [-81.6579334, 28.5153436], [-81.6578842, 28.5153436], [-81.6577662, 28.5153202], [-81.6577236, 28.5153108], [-81.6575541, 28.5152999], [-81.6574545, 28.5152936], [-81.6574302, 28.5152858], [-81.6573525, 28.5152524]]}, "properties": {"osm_id": 791754991, "highway": "service", "name": null, "ref": null}}, {"type": "Feature", "geometry": {"type": "LineString", "coordinates": [[-81.6684165, 28.5191006], [-81.6688804, 28.5197238], [-81.6688662, 28.5202183], [-81.668803, 28.5203886], [-81.6687439, 28.5205395], [-81.6687322, 28.5205609], [-81.6686526, 28.5207284], [-81.6685334, 28.5208954], [-81.6685134, 28.5209234], [-81.6683469, 28.5212077], [-81.6683071, 28.5212639], [-81.6683008, 28.5213043], [-81.6683071, 28.5213798], [-81.6682788, 28.5214598], [-81.668239, 28.5215086], [-81.6681846, 28.5215518], [-81.6681071, 28.5215721], [-81.6680296, 28.5215776], [-81.6679497, 28.5215578], [-81.6679017, 28.521543], [-81.6675266, 28.5215069], [-81.666976, 28.5215057], [-81.6669258, 28.5215112], [-81.6668413, 28.5215205], [-81.6659656, 28.5215395], [-81.6658694, 28.5215332], [-81.6658068, 28.5215036], [-81.6657251, 28.5214402], [-81.6656545, 28.5213378], [-81.6656386, 28.5212151], [-81.6656402, 28.5205499], [-81.6656152, 28.5200881], [-81.6656089, 28.5198083], [-81.6656497, 28.519437], [-81.6656792, 28.5192944], [-81.6656953, 28.5189715], [-81.6657758, 28.5186993], [-81.6657677, 28.5184778], [-81.6657677, 28.5182822], [-81.6657582, 28.5179772], [-81.6658265, 28.51783], [-81.6658962, 28.5176079], [-81.6659348, 28.5173746], [-81.6659542, 28.5171152], [-81.6659671, 28.5167482], [-81.6659503, 28.516371], [-81.6659439, 28.5162452], [-81.6658665, 28.5160515], [-81.6658485, 28.5159643], [-81.665842, 28.5158239], [-81.6658626, 28.515458], [-81.6658536, 28.5153787], [-81.6658137, 28.515151], [-81.6657827, 28.5148112], [-81.6657923, 28.5145689], [-81.6658055, 28.5144833], [-81.6658469, 28.5142877]]}, "properties": {"osm_id": 795753859, "highway": "residential", "name": "Eddy Drive", "ref": null}}, {"type": "Feature", "geometry": {"type": "LineString", "coordinates": [[-81.6680972, 28.5192926], [-81.6674987, 28.5196526], [-81.6668989, 28.5200134]]}, "properties": {"osm_id": 795811364, "highway": "residential", "name": "Current Avenue", "ref": null}}, {"type": "Feature", "geometry": {"type": "LineString", "coordinates": [[-81.6492765, 28.5215922], [-81.6492639, 28.5216918], [-81.6488986, 28.524584], [-81.6488642, 28.5248328], [-81.6487698, 28.5250666], [-81.6482977, 28.5257604], [-81.6480231, 28.5263561], [-81.6478343, 28.5270424], [-81.6477012, 28.5283761], [-81.647628, 28.5284299], [-81.6474429, 28.5284865], [-81.6467294, 28.5286561], [-81.6433223, 28.5293927]]}, "properties": {"osm_id": 800605553, "highway": "track", "name": "Williams Road", "ref": null}}, {"type": "Feature", "geometry": {"type": "LineString", "coordinates": [[-81.6674987, 28.5196526], [-81.6669649, 28.518991], [-81.6665802, 28.5184674], [-81.6665745, 28.5183408], [-81.6667128, 28.5181939], [-81.6680904, 28.5172671], [-81.6681422, 28.5166948], [-81.6682849, 28.5160881], [-81.6687255, 28.5153573], [-81.6690285, 28.5150171], [-81.6690476, 28.5148547]]}, "properties": {"osm_id": 806236500, "highway": "residential", "name": "Hanging Tide Street", "ref": null}}, {"type": "Feature", "geometry": {"type": "LineString", "coordinates": [[-81.6691409, 28.5163517], [-81.6682849, 28.5160881], [-81.6676421, 28.5158629], [-81.6671431, 28.5157721], [-81.6667115, 28.5157405], [-81.6665227, 28.5156298], [-81.6664778, 28.5151598], [-81.6665767, 28.5150294], [-81.6667475, 28.5149504], [-81.6679208, 28.514986], [-81.6682175, 28.5150729], [-81.6687255, 28.5153573]]}, "properties": {"osm_id": 806236501, "highway": "residential", "name": "Gliding Wave Street", "ref": null}}, {"type": "Feature", "geometry": {"type": "LineString", "coordinates": [[-81.6490859, 28.5180224], [-81.6524086, 28.5179871], [-81.6531007, 28.5179753], [-81.6531389, 28.517911], [-81.6531277, 28.5165913], [-81.6529746, 28.5165843], [-81.65232, 28.5165751]]}, "properties": {"osm_id": 815189097, "highway": "service", "name": null, "ref": null}}, {"type": "Feature", "geometry": {"type": "LineString", "coordinates": [[-81.6635849, 28.5171649], [-81.6634968, 28.5171814], [-81.6634297, 28.5171853], [-81.6630993, 28.5171632], [-81.6629251, 28.5171592], [-81.6628231, 28.5171587], [-81.6627005, 28.5171677], [-81.6626037, 28.5171825], [-81.6625308, 28.5172182], [-81.6625082, 28.517263]]}, "properties": {"osm_id": 815230338, "highway": "service", "name": null, "ref": null}}, {"type": "Feature", "geometry": {"type": "LineString", "coordinates": [[-81.6687322, 28.5205609], [-81.668419, 28.5207696], [-81.6679369, 28.5209937], [-81.667262, 28.521297], [-81.6670598, 28.5214118], [-81.6669258, 28.5215112]]}, "properties": {"osm_id": 816057832, "highway": "service", "name": null, "ref": null}}, {"type": "Feature", "geometry": {"type": "LineString", "coordinates": [[-81.6656402, 28.5205499], [-81.6659852, 28.520572], [-81.6672603, 28.5205547], [-81.6681017, 28.5205749], [-81.6682595, 28.5205576], [-81.6685158, 28.5205576], [-81.6687322, 28.5205609]]}, "properties": {"osm_id": 816057833, "highway": "service", "name": null, "ref": null}}, {"type": "Feature", "geometry": {"type": "LineString", "coordinates": [[-81.6569886, 28.5142514], [-81.6569955, 28.5146956]]}, "properties": {"osm_id": 816141081, "highway": "service", "name": null, "ref": null}}, {"type": "Feature", "geometry": {"type": "LineString", "coordinates": [[-81.6575912, 28.5214173], [-81.65736, 28.52139], [-81.657249, 28.5213985], [-81.6571746, 28.5214129], [-81.6571457, 28.5214358], [-81.6571341, 28.521463], [-81.6571343, 28.5215377]]}, "properties": {"osm_id": 821415889, "highway": "service", "name": null, "ref": null}}, {"type": "Feature", "geometry": {"type": "LineString", "coordinates": [[-81.6532618, 28.5147774], [-81.6532737, 28.5161296], [-81.6532752, 28.5167396]]}, "properties": {"osm_id": 821741192, "highway": "service", "name": null, "ref": null}}, {"type": "Feature", "geometry": {"type": "LineString", "coordinates": [[-81.6490345, 28.5164138], [-81.648947, 28.5164417], [-81.6489005, 28.5164566], [-81.6488053, 28.5164622], [-81.6484245, 28.5164622]]}, "properties": {"osm_id": 830601850, "highway": "service", "name": null, "ref": null}}, {"type": "Feature", "geometry": {"type": "LineString", "coordinates": [[-81.6490137, 28.5146496], [-81.6491939, 28.5146525], [-81.649396, 28.5146385], [-81.6495472, 28.5146358], [-81.6497256, 28.5146593], [-81.6499335, 28.5147235], [-81.6501485, 28.5148074], [-81.6502889, 28.5148345], [-81.6504566, 28.5148407], [-81.6505436, 28.5148247], [-81.650577, 28.5148005], [-81.6505921, 28.5147704], [-81.6506004, 28.514504], [-81.6505937, 28.5143197]]}, "properties": {"osm_id": 830601851, "highway": "service", "name": null, "ref": null}}, {"type": "Feature", "geometry": {"type": "LineString", "coordinates": [[-81.6532375, 28.514557], [-81.6531828, 28.5147053], [-81.6531322, 28.5147271], [-81.6530198, 28.5147557], [-81.6529028, 28.5147824]]}, "properties": {"osm_id": 831594905, "highway": "service", "name": null, "ref": null}}, {"type": "Feature", "geometry": {"type": "LineString", "coordinates": [[-81.6531554, 28.5142829], [-81.6531265, 28.5142128], [-81.6530854, 28.5141694], [-81.65301, 28.514138], [-81.6528916, 28.5141354], [-81.6528108, 28.5141535], [-81.6527379, 28.5142132], [-81.652684, 28.5142897]]}, "properties": {"osm_id": 831594906, "highway": "service", "name": null, "ref": null}}, {"type": "Feature", "geometry": {"type": "LineString", "coordinates": [[-81.6571864, 28.5070021], [-81.6574151, 28.5070384], [-81.6574647, 28.5074944], [-81.6574037, 28.5091506], [-81.6574724, 28.5096233], [-81.6574419, 28.5106928], [-81.6574529, 28.5113073], [-81.6574533, 28.5116081], [-81.6573808, 28.5127814], [-81.657335, 28.5140017], [-81.6573521, 28.5142484]]}, "properties": {"osm_id": 836799899, "highway": "track", "name": null, "ref": null}}, {"type": "Feature", "geometry": {"type": "LineString", "coordinates": [[-81.6492726, 28.521401], [-81.6482496, 28.5214137], [-81.6473396, 28.5214331], [-81.6468635, 28.5214402], [-81.6463633, 28.5214484], [-81.6460463, 28.5214549], [-81.6458971, 28.5214651], [-81.6458064, 28.5214831]]}, "properties": {"osm_id": 837803958, "highway": "residential", "name": "Salty Dog Road", "ref": null}}, {"type": "Feature", "geometry": {"type": "LineString", "coordinates": [[-81.6482496, 28.5214137], [-81.6482469, 28.5209794], [-81.6482318, 28.5204724], [-81.6482239, 28.520051], [-81.648222, 28.519922], [-81.6482159, 28.5195048], [-81.6482053, 28.5187715]]}, "properties": {"osm_id": 837803959, "highway": "residential", "name": "Roxy Lane", "ref": null}}, {"type": "Feature", "geometry": {"type": "LineString", "coordinates": [[-81.6472809, 28.5187798], [-81.6473012, 28.5195201], [-81.6473128, 28.5199428], [-81.647314, 28.5200628], [-81.6473153, 28.5201889], [-81.6473219, 28.5204774], [-81.6473338, 28.5209944], [-81.6473396, 28.5214331]]}, "properties": {"osm_id": 837803960, "highway": "residential", "name": "Waverunner Lane", "ref": null}}, {"type": "Feature", "geometry": {"type": "LineString", "coordinates": [[-81.6492319, 28.5199083], [-81.6487049, 28.5199147], [-81.648222, 28.519922], [-81.6479843, 28.5199283], [-81.6475499, 28.5199346], [-81.6473128, 28.5199428], [-81.6471352, 28.5199537], [-81.64698, 28.5199773], [-81.6468359, 28.5200179], [-81.6466832, 28.5200609], [-81.6463374, 28.5201745], [-81.6461613, 28.5202247], [-81.6459213, 28.5202865], [-81.6457415, 28.5203463], [-81.6446755, 28.5206527], [-81.6442162, 28.5208003]]}, "properties": {"osm_id": 837803963, "highway": "residential", "name": null, "ref": null}}, {"type": "Feature", "geometry": {"type": "LineString", "coordinates": [[-81.6487125, 28.5200419], [-81.6487256, 28.5209688]]}, "properties": {"osm_id": 837803964, "highway": "residential", "name": null, "ref": null}}, {"type": "Feature", "geometry": {"type": "LineString", "coordinates": [[-81.6492594, 28.5209624], [-81.6487256, 28.5209688], [-81.6482469, 28.5209794], [-81.6477883, 28.5209878], [-81.6473338, 28.5209944]]}, "properties": {"osm_id": 837803965, "highway": "residential", "name": null, "ref": null}}, {"type": "Feature", "geometry": {"type": "LineString", "coordinates": [[-81.6477883, 28.5209878], [-81.6477806, 28.5204741]]}, "properties": {"osm_id": 837803966, "highway": "residential", "name": null, "ref": null}}, {"type": "Feature", "geometry": {"type": "LineString", "coordinates": [[-81.6482318, 28.5204724], [-81.6477806, 28.5204741], [-81.6473219, 28.5204774]]}, "properties": {"osm_id": 837803967, "highway": "residential", "name": null, "ref": null}}, {"type": "Feature", "geometry": {"type": "LineString", "coordinates": [[-81.6468184, 28.520171], [-81.6468287, 28.520216], [-81.6468334, 28.5202559], [-81.6468365, 28.5203027], [-81.6468635, 28.5214402]]}, "properties": {"osm_id": 837803968, "highway": "residential", "name": null, "ref": null}}, {"type": "Feature", "geometry": {"type": "LineString", "coordinates": [[-81.6443286, 28.5210866], [-81.6447781, 28.5209255], [-81.6457816, 28.5205607], [-81.6461738, 28.5204141], [-81.646344, 28.5203446], [-81.6466268, 28.5202412], [-81.6468184, 28.520171], [-81.6469118, 28.5201418], [-81.6471136, 28.5200857], [-81.6472303, 28.5200682], [-81.647314, 28.5200628], [-81.6473689, 28.5200591], [-81.6474599, 28.5200573], [-81.6482239, 28.520051], [-81.6487125, 28.5200419], [-81.6492346, 28.5200309]]}, "properties": {"osm_id": 837803969, "highway": "residential", "name": null, "ref": null}}, {"type": "Feature", "geometry": {"type": "LineString", "coordinates": [[-81.6486798, 28.5187672], [-81.6487049, 28.5199147]]}, "properties": {"osm_id": 837803972, "highway": "service", "name": null, "ref": null}}, {"type": "Feature", "geometry": {"type": "LineString", "coordinates": [[-81.6477406, 28.5187757], [-81.6477548, 28.5195117]]}, "properties": {"osm_id": 837803973, "highway": "service", "name": null, "ref": null}}, {"type": "Feature", "geometry": {"type": "LineString", "coordinates": [[-81.6473012, 28.5195201], [-81.6477548, 28.5195117], [-81.6482159, 28.5195048]]}, "properties": {"osm_id": 837803974, "highway": "service", "name": null, "ref": null}}, {"type": "Feature", "geometry": {"type": "LineString", "coordinates": [[-81.646812, 28.5187841], [-81.6468298, 28.5199449], [-81.6468324, 28.519984], [-81.6468359, 28.5200179]]}, "properties": {"osm_id": 837803975, "highway": "service", "name": "Waverunner Lane", "ref": null}}, {"type": "Feature", "geometry": {"type": "LineString", "coordinates": [[-81.6636109, 28.5173885], [-81.6636206, 28.517604]]}, "properties": {"osm_id": 839219816, "highway": "service", "name": "Sadler Court", "ref": null}}, {"type": "Feature", "geometry": {"type": "LineString", "coordinates": [[-81.6636206, 28.517604], [-81.6636286, 28.5177835], [-81.6636488, 28.51787], [-81.663723, 28.5179111], [-81.6639122, 28.517948], [-81.6641405, 28.5179436], [-81.6644555, 28.5179497], [-81.6645285, 28.5179095], [-81.6645445, 28.5178012]]}, "properties": {"osm_id": 839219817, "highway": "service", "name": null, "ref": null}}, {"type": "Feature", "geometry": {"type": "LineString", "coordinates": [[-81.6492091, 28.5187653], [-81.6486798, 28.5187672], [-81.6482053, 28.5187715], [-81.6477406, 28.5187757], [-81.6472809, 28.5187798], [-81.646812, 28.5187841], [-81.6464023, 28.5187878], [-81.6462681, 28.5187959]]}, "properties": {"osm_id": 848696388, "highway": "residential", "name": null, "ref": null}}, {"type": "Feature", "geometry": {"type": "LineString", "coordinates": [[-81.6589904, 28.5214878], [-81.6590476, 28.5216741], [-81.6590539, 28.5216847], [-81.6590622, 28.5216945], [-81.6590817, 28.5217115], [-81.6591712, 28.5217922], [-81.6592299, 28.5218421], [-81.6592409, 28.5218591], [-81.6592564, 28.5219163]]}, "properties": {"osm_id": 915377416, "highway": "service", "name": null, "ref": null}}, {"type": "Feature", "geometry": {"type": "LineString", "coordinates": [[-81.6575912, 28.5214173], [-81.657572, 28.5215295], [-81.6575668, 28.5215815], [-81.6575694, 28.5216335], [-81.6578321, 28.5216209], [-81.6578633, 28.5215981], [-81.6578881, 28.5215626], [-81.6579099, 28.5215143]]}, "properties": {"osm_id": 930263864, "highway": "service", "name": null, "ref": null}}, {"type": "Feature", "geometry": {"type": "LineString", "coordinates": [[-81.6657907, 28.5142875], [-81.6658, 28.5141414], [-81.6658644, 28.5131275], [-81.6658683, 28.5130655]]}, "properties": {"osm_id": 960802150, "highway": "service", "name": null, "ref": null}}, {"type": "Feature", "geometry": {"type": "LineString", "coordinates": [[-81.6492639, 28.5216918], [-81.650396, 28.5216447]]}, "properties": {"osm_id": 1059407267, "highway": "track", "name": null, "ref": null}}, {"type": "Feature", "geometry": {"type": "LineString", "coordinates": [[-81.650396, 28.5216447], [-81.6515814, 28.5216447], [-81.6526649, 28.5216164], [-81.6548372, 28.5215975]]}, "properties": {"osm_id": 1059407268, "highway": "track", "name": null, "ref": null}}, {"type": "Feature", "geometry": {"type": "LineString", "coordinates": [[-81.6642763, 28.5203553], [-81.6641698, 28.5202765], [-81.6626, 28.5202751], [-81.6625311, 28.5202715], [-81.6624784, 28.5202502], [-81.6624216, 28.520186], [-81.6624229, 28.5199474]]}, "properties": {"osm_id": 1149582905, "highway": "residential", "name": "Weatherbell Road", "ref": null}}, {"type": "Feature", "geometry": {"type": "LineString", "coordinates": [[-81.6624229, 28.5199474], [-81.6610797, 28.5199581], [-81.6609418, 28.5200222]]}, "properties": {"osm_id": 1149582906, "highway": "residential", "name": "Fair Winds Court", "ref": null}}, {"type": "Feature", "geometry": {"type": "LineString", "coordinates": [[-81.6594662, 28.5180517], [-81.6595901, 28.5180601], [-81.6598479, 28.5180963], [-81.6599973, 28.5181089], [-81.6601373, 28.5181089], [-81.660213, 28.518114], [-81.6603222, 28.5181443], [-81.6604535, 28.5181586]]}, "properties": {"osm_id": 1150345584, "highway": "service", "name": null, "ref": null}}, {"type": "Feature", "geometry": {"type": "LineString", "coordinates": [[-81.6649939, 28.5183293], [-81.6650945, 28.5184919], [-81.6650945, 28.5194348]]}, "properties": {"osm_id": 1189282954, "highway": "residential", "name": "Mainsail Court", "ref": null}}, {"type": "Feature", "geometry": {"type": "LineString", "coordinates": [[-81.6624229, 28.5199474], [-81.6624257, 28.5194388], [-81.6624338, 28.5183265], [-81.66245, 28.518266], [-81.6625027, 28.5181734]]}, "properties": {"osm_id": 1189282955, "highway": "residential", "name": "Windbeam Court", "ref": null}}, {"type": "Feature", "geometry": {"type": "LineString", "coordinates": [[-81.6637539, 28.5140373], [-81.6637099, 28.5140813], [-81.6636712, 28.514129], [-81.663638, 28.5141798], [-81.6636107, 28.5142334], [-81.6635884, 28.5142883]]}, "properties": {"osm_id": 1362253968, "highway": "residential", "name": "Sadler Court", "ref": null}}, {"type": "Feature", "geometry": {"type": "LineString", "coordinates": [[-81.6656403, 28.5142907], [-81.6657907, 28.5142875], [-81.6658469, 28.5142877], [-81.6661817, 28.5142888], [-81.6673333, 28.5142926], [-81.6679777, 28.514296], [-81.6683593, 28.5143875], [-81.6684913, 28.5144315]]}, "properties": {"osm_id": 1362253969, "highway": "tertiary", "name": "Hartwood Marsh Road", "ref": null}}, {"type": "Feature", "geometry": {"type": "LineString", "coordinates": [[-81.6629035, 28.5118951], [-81.6626476, 28.5124651], [-81.6625961, 28.5125988], [-81.6625506, 28.5127342], [-81.6625112, 28.5128711], [-81.662478, 28.5130092]]}, "properties": {"osm_id": 1362254015, "highway": "residential", "name": "Whisper Rose Court", "ref": null}}, {"type": "Feature", "geometry": {"type": "LineString", "coordinates": [[-81.6639095, 28.5118974], [-81.6639181, 28.5119681], [-81.6639191, 28.5120392], [-81.6639125, 28.51211], [-81.6638983, 28.51218], [-81.6638767, 28.5122486], [-81.663848, 28.512315], [-81.6637058, 28.5126382], [-81.6636843, 28.5126918], [-81.6636692, 28.512747], [-81.6636607, 28.5128033], [-81.6636589, 28.5128601], [-81.6636639, 28.5129167], [-81.6636755, 28.5129726], [-81.6636937, 28.5130271], [-81.6637182, 28.5130796]]}, "properties": {"osm_id": 1362254021, "highway": "residential", "name": "Half Moon Court", "ref": null}}, {"type": "Feature", "geometry": {"type": "LineString", "coordinates": [[-81.6584011, 28.5121049], [-81.6583302, 28.5121396], [-81.6582558, 28.5121681], [-81.6581785, 28.5121899], [-81.6581447, 28.5122105], [-81.658115, 28.5122356], [-81.6580902, 28.5122645], [-81.6580709, 28.5122966], [-81.6580575, 28.5123309], [-81.6580505, 28.5123667], [-81.6580501, 28.512403], [-81.6580487, 28.5131317], [-81.6580507, 28.5131532], [-81.6580567, 28.5131741], [-81.6580666, 28.5131939], [-81.6580803, 28.5132118], [-81.6580971, 28.5132274], [-81.6581167, 28.5132403], [-81.6581386, 28.5132501], [-81.6581619, 28.5132564], [-81.6581862, 28.5132591], [-81.6582106, 28.5132582], [-81.6588973, 28.5132474]]}, "properties": {"osm_id": 1362254055, "highway": "residential", "name": "Bourbon Rose Circle", "ref": null}}, {"type": "Feature", "geometry": {"type": "LineString", "coordinates": [[-81.6588973, 28.5132474], [-81.658926, 28.5132467], [-81.6589543, 28.5132419], [-81.6589812, 28.5132331], [-81.6590063, 28.5132207], [-81.6590288, 28.5132049], [-81.6590481, 28.5131861], [-81.659283, 28.5128934], [-81.6593044, 28.5128569], [-81.6593184, 28.5128177], [-81.6593245, 28.5127769], [-81.6593226, 28.5127358], [-81.6593126, 28.5126956], [-81.6592949, 28.5126576], [-81.65927, 28.5126228], [-81.6592387, 28.5125923], [-81.6591604, 28.5125273], [-81.6590783, 28.5124661], [-81.6589924, 28.5124089], [-81.6589032, 28.512356], [-81.6588108, 28.5123074], [-81.6587156, 28.5122633], [-81.6586333, 28.5122298], [-81.6585532, 28.5121921], [-81.6584757, 28.5121505], [-81.6584011, 28.5121049]]}, "properties": {"osm_id": 1362254056, "highway": "residential", "name": "Bourbon Rose Circle", "ref": null}}, {"type": "Feature", "geometry": {"type": "LineString", "coordinates": [[-81.660487, 28.512675], [-81.660521, 28.5126617], [-81.6605522, 28.5126438], [-81.6605797, 28.5126217], [-81.660603, 28.5125961], [-81.6606214, 28.5125676], [-81.6606345, 28.5125369], [-81.6606419, 28.5125047], [-81.6606435, 28.5124719], [-81.6606392, 28.5124393]]}, "properties": {"osm_id": 1362254806, "highway": "residential", "name": "Hartwood Marsh Road", "ref": null}}, {"type": "Feature", "geometry": {"type": "LineString", "coordinates": [[-81.6637539, 28.5140373], [-81.6607891, 28.5126511]]}, "properties": {"osm_id": 1362254808, "highway": "tertiary", "name": "Hartwood Marsh Road", "ref": null}}, {"type": "Feature", "geometry": {"type": "LineString", "coordinates": [[-81.6601857, 28.5125264], [-81.6601975, 28.5125772], [-81.6602015, 28.512629], [-81.6601977, 28.5126808], [-81.660186, 28.5127316], [-81.6601667, 28.5127807]]}, "properties": {"osm_id": 1362254809, "highway": "tertiary", "name": "Hartwood Marsh Road", "ref": null}}, {"type": "Feature", "geometry": {"type": "LineString", "coordinates": [[-81.6656403, 28.5142907], [-81.6655183, 28.5142916], [-81.6653813, 28.5142916], [-81.6652508, 28.5142912], [-81.6651203, 28.5142912], [-81.6649897, 28.5142911], [-81.6648592, 28.5142911], [-81.6647286, 28.514291], [-81.6645981, 28.514291], [-81.6645149, 28.514284], [-81.664433, 28.5142692], [-81.6643524, 28.5142496], [-81.664274, 28.5142242], [-81.6641981, 28.5141933], [-81.6637539, 28.5140373]]}, "properties": {"osm_id": 1362254810, "highway": "tertiary", "name": "Hartwood Marsh Road", "ref": null}}, {"type": "Feature", "geometry": {"type": "LineString", "coordinates": [[-81.6601667, 28.5127807], [-81.6602427, 28.5127453], [-81.6603218, 28.5127158], [-81.6604034, 28.5126923], [-81.660487, 28.512675]]}, "properties": {"osm_id": 1362254811, "highway": "tertiary", "name": "Hartwood Marsh Road", "ref": null}}, {"type": "Feature", "geometry": {"type": "LineString", "coordinates": [[-81.659235, 28.5139173], [-81.6591365, 28.5139851], [-81.6590333, 28.5140473], [-81.6589258, 28.5141035], [-81.6588145, 28.5141534], [-81.6586997, 28.5141969], [-81.658581, 28.514219], [-81.658437, 28.5142501], [-81.6583405, 28.5142462], [-81.6582193, 28.5142512], [-81.6580906, 28.5142511], [-81.657962, 28.5142514], [-81.6578341, 28.5142517], [-81.6577054, 28.514252], [-81.6575774, 28.5142522], [-81.6574052, 28.5142488]]}, "properties": {"osm_id": 1362254813, "highway": "tertiary", "name": "Hartwood Marsh Road", "ref": null}}, {"type": "Feature", "geometry": {"type": "LineString", "coordinates": [[-81.6607891, 28.5126511], [-81.6607479, 28.5126158], [-81.6607118, 28.5125764], [-81.6606814, 28.5125334], [-81.6606571, 28.5124875], [-81.6606392, 28.5124393]]}, "properties": {"osm_id": 1362254814, "highway": "tertiary", "name": "Hartwood Marsh Road", "ref": null}}, {"type": "Feature", "geometry": {"type": "LineString", "coordinates": [[-81.6601857, 28.5125264], [-81.6601974, 28.5125607], [-81.6602157, 28.5125927], [-81.6602399, 28.5126214], [-81.6602694, 28.5126461], [-81.6603017, 28.5126639], [-81.660337, 28.5126768], [-81.6603741, 28.5126845], [-81.6604122, 28.5126861], [-81.6604495, 28.5126817], [-81.660487, 28.512675]]}, "properties": {"osm_id": 1362254816, "highway": "residential", "name": "Hartwood Marsh Road", "ref": null}}, {"type": "Feature", "geometry": {"type": "LineString", "coordinates": [[-81.660487, 28.512675], [-81.6605458, 28.5126599], [-81.660606, 28.5126498], [-81.660667, 28.512645], [-81.6607282, 28.5126454], [-81.6607891, 28.5126511]]}, "properties": {"osm_id": 1362254817, "highway": "tertiary", "name": "Hartwood Marsh Road", "ref": null}}, {"type": "Feature", "geometry": {"type": "LineString", "coordinates": [[-81.6601667, 28.5127807], [-81.6598303, 28.5132978], [-81.6597735, 28.513387], [-81.6597113, 28.5134734], [-81.6596438, 28.5135566], [-81.6595712, 28.5136365], [-81.6594938, 28.5137127], [-81.6594118, 28.513785], [-81.6593254, 28.5138533], [-81.659235, 28.5139173]]}, "properties": {"osm_id": 1362254819, "highway": "tertiary", "name": "Hartwood Marsh Road", "ref": null}}, {"type": "Feature", "geometry": {"type": "LineString", "coordinates": [[-81.659235, 28.5139173], [-81.6592854, 28.5139454], [-81.6593313, 28.5139791], [-81.6593718, 28.5140178], [-81.6594064, 28.5140608], [-81.6594343, 28.5141074], [-81.6594552, 28.5141568], [-81.6594687, 28.5142081], [-81.6594757, 28.5142606]]}, "properties": {"osm_id": 1362254823, "highway": "residential", "name": "Flynn Court", "ref": null}}]}