{"type": "FeatureCollection", "features": [{"type": "Feature", "id": 251417, "geometry": {"type": "LineString", "coordinates": [[-81.2900206721642, 28.715734876530004], [-81.28976480592013, 28.715756876828603]]}, "properties": {"OBJECTID": 251417, "id3dhp": "15DCW", "featuredate": 1694649600000, "mainstemid": "https://geoconnex.us/usgs/mainstems/3357393", "gnisid": 282997, "gnisidlabel": "Gee Creek", "featuretype": 5, "featuretypelabel": "Waterbody Connector", "lengthkm": 0.025162260000000002, "waterbodyid3dhp": "IP9V4", "flowdirection": 1, "flowdirectionlabel": "Flow direction is in digitized direction, and z-values on vertices flow downslope", "onsurface": 1, "onsurfacelabel": "Feature is on the land surface", "catchmentid3dhp": "", "flowpathid3dhp": null, "streamlevel": 4, "startflag": 0, "terminalflag": 0, "streamorder": 2, "streamcalculator": 2, "hydrosequence": 9774840, "dnhydrosequence": 9760932, "uphydrosequence": 9788627, "dnlevelpath": 9719304, "uplevelpath": 9774840, "pathlength": 302.04795984000003, "arbolatesum": 18.65109016, "divergence": 0, "divergencelabel": "No divergence", "rtrndivergence": 0, "levelpath": 9774840, "terminalpath": 52, "workunitid": "NHD", "Shape__Length": 28.61946276131782}}, {"type": "Feature", "id": 716667, "geometry": {"type": "LineString", "coordinates": [[-81.30038275783112, 28.69705799183833], [-81.300358875221, 28.697072004413766], [-81.30019040876587, 28.69714900459755], [-81.29999700867172, 28.69727547140007], [-81.29991580905487, 28.697341472108132], [-81.29974740907508, 28.697374604826077], [-81.29964760894195, 28.697363404569177], [-81.29947900863786, 28.697286471520947], [-81.29911080806752, 28.69714887142971], [-81.29886747421999, 28.697121271804235], [-81.29826840841827, 28.69713227194131], [-81.29813727414971, 28.697121271804235], [-81.29793140813436, 28.69705520476731], [-81.2977004737327, 28.6970222051162], [-81.29753827392501, 28.69703320447577], [-81.29713267379444, 28.696912005007196], [-81.29700147394887, 28.69688447150936], [-81.29688920789457, 28.696884604677543], [-81.29662087393267, 28.69693400453628], [-81.29636500768862, 28.69701100482159], [-81.29600307376569, 28.697203604965676], [-81.29575340769372, 28.69735207193141]]}, "properties": {"OBJECTID": 716667, "id3dhp": "1FBFX", "featuredate": 1694649600000, "mainstemid": "https://geoconnex.us/usgs/mainstems/3357393", "gnisid": 282997, "gnisidlabel": "Gee Creek", "featuretype": 1, "featuretypelabel": "Channel Line", "lengthkm": 0.48617622000000005, "waterbodyid3dhp": null, "flowdirection": 1, "flowdirectionlabel": "Flow direction is in digitized direction, and z-values on vertices flow downslope", "onsurface": 1, "onsurfacelabel": "Feature is on the land surface", "catchmentid3dhp": "", "flowpathid3dhp": null, "streamlevel": 4, "startflag": 0, "terminalflag": 0, "streamorder": 2, "streamcalculator": 2, "hydrosequence": 9955052, "dnhydrosequence": 9941198, "uphydrosequence": 9968980, "dnlevelpath": 9774840, "uplevelpath": 9774840, "pathlength": 305.39265317, "arbolatesum": 9.43133137, "divergence": 0, "divergencelabel": "No divergence", "rtrndivergence": 0, "levelpath": 9774840, "terminalpath": 52, "workunitid": "NHD", "Shape__Length": 553.4317634456991}}, {"type": "Feature", "id": 1395666, "geometry": {"type": "LineString", "coordinates": [[-81.2924506724999, 28.704983473807527], [-81.292456872672, 28.7050054740036], [-81.29244447322614, 28.705038606658903], [-81.29238827282533, 28.705137673637488], [-81.29223220671439, 28.70523120699951], [-81.29217600631358, 28.705280606857983], [-81.29200127231273, 28.705506206891023], [-81.29197000644928, 28.70563827431111], [-81.29196987260028, 28.706408673858448], [-81.29193867231382, 28.70656267461188], [-81.29191367309778, 28.706634274610813], [-81.29186367286908, 28.706705807588868], [-81.29176380626063, 28.707355007174232], [-81.29157640691258, 28.70804280793136], [-81.29153260685595, 28.708422474873977], [-81.29141400678058, 28.708609474973784], [-81.2912330061323, 28.70875260751421], [-81.29102700626797, 28.7088736081157], [-81.29073980678679, 28.70897807478675], [-81.29059627217407, 28.70904400823454], [-81.29055260596641, 28.709093607991317], [-81.29053380602416, 28.70966580814563], [-81.29062107286244, 28.70999600777127], [-81.29073327244141, 28.710656275472466], [-81.29072080652023, 28.710914874951467], [-81.29072700669231, 28.71101387569971], [-81.29077687217372, 28.71133307557854], [-81.29074560631027, 28.711503675748673], [-81.29065807267237, 28.712219008638403], [-81.29055187204284, 28.71263160867933], [-81.2904582720818, 28.712901275812907], [-81.29036447269478, 28.713110275852323], [-81.29023967244731, 28.713302875514366], [-81.29010227242966, 28.713754008980732], [-81.29008360633637, 28.714062209232143], [-81.29009587283157, 28.714507876509376], [-81.29009587283157, 28.714623476088025], [-81.29010820670042, 28.715179209298896], [-81.29008947233517, 28.7154322764302], [-81.2900206721642, 28.715734876530004]]}, "properties": {"OBJECTID": 1395666, "id3dhp": "1TTKL", "featuredate": 1694649600000, "mainstemid": "https://geoconnex.us/usgs/mainstems/3357393", "gnisid": 282997, "gnisidlabel": "Gee Creek", "featuretype": 1, "featuretypelabel": "Channel Line", "lengthkm": 1.27579393, "waterbodyid3dhp": null, "flowdirection": 1, "flowdirectionlabel": "Flow direction is in digitized direction, and z-values on vertices flow downslope", "onsurface": 1, "onsurfacelabel": "Feature is on the land surface", "catchmentid3dhp": "", "flowpathid3dhp": null, "streamlevel": 4, "startflag": 0, "terminalflag": 0, "streamorder": 2, "streamcalculator": 2, "hydrosequence": 9788627, "dnhydrosequence": 9774840, "uphydrosequence": 9802301, "dnlevelpath": 9774840, "uplevelpath": 9774840, "pathlength": 302.07312210000003, "arbolatesum": 18.6259279, "divergence": 0, "divergencelabel": "No divergence", "rtrndivergence": 0, "levelpath": 9774840, "terminalpath": 52, "workunitid": "NHD", "Shape__Length": 1462.262442403862}}, {"type": "Feature", "id": 1869011, "geometry": {"type": "LineString", "coordinates": [[-81.271469372789, 28.683660339288803], [-81.27147073283834, 28.683725469087435], [-81.27143858752422, 28.68390017757838]]}, "properties": {"OBJECTID": 1869011, "id3dhp": "23FYM", "featuredate": 1694649600000, "mainstemid": "https://geoconnex.us/usgs/mainstems/1310786", "gnisid": null, "gnisidlabel": null, "featuretype": 1, "featuretypelabel": "Channel Line", "lengthkm": 0.026787520000000002, "waterbodyid3dhp": null, "flowdirection": 1, "flowdirectionlabel": "Flow direction is in digitized direction, and z-values on vertices flow downslope", "onsurface": 1, "onsurfacelabel": "Feature is on the land surface", "catchmentid3dhp": "", "flowpathid3dhp": null, "streamlevel": 5, "startflag": 0, "terminalflag": 0, "streamorder": 1, "streamcalculator": 1, "hydrosequence": 9871611, "dnhydrosequence": 9857577, "uphydrosequence": 9885626, "dnlevelpath": 9843613, "uplevelpath": 9843613, "pathlength": 307.28583715999997, "arbolatesum": 2.17630655, "divergence": 0, "divergencelabel": "No divergence", "rtrndivergence": 0, "levelpath": 9843613, "terminalpath": 52, "workunitid": "NHD", "Shape__Length": 30.721732599151892}}, {"type": "Feature", "id": 3275191, "geometry": {"type": "LineString", "coordinates": [[-81.28504347009427, 28.701510206345684], [-81.28522287084303, 28.70162893895994], [-81.28763407123648, 28.701403806484976]]}, "properties": {"OBJECTID": 3275191, "id3dhp": "2RG4S", "featuredate": 1694649600000, "mainstemid": "https://geoconnex.us/usgs/mainstems/1310786", "gnisid": null, "gnisidlabel": null, "featuretype": 2, "featuretypelabel": "Canal", "lengthkm": 0.259, "waterbodyid3dhp": null, "flowdirection": 1, "flowdirectionlabel": "Flow direction is in digitized direction, and z-values on vertices flow downslope", "onsurface": 1, "onsurfacelabel": "Feature is on the land surface", "catchmentid3dhp": "", "flowpathid3dhp": null, "streamlevel": 5, "startflag": 0, "terminalflag": 0, "streamorder": 1, "streamcalculator": 1, "hydrosequence": 9843613, "dnhydrosequence": 9829798, "uphydrosequence": 9857577, "dnlevelpath": 9774840, "uplevelpath": 9843613, "pathlength": 304.03209770999996, "arbolatesum": 5.430046, "divergence": 0, "divergencelabel": "No divergence", "rtrndivergence": 0, "levelpath": 9843613, "terminalpath": 52, "workunitid": "NHD", "Shape__Length": 294.94801385320125}}, {"type": "Feature", "id": 3966839, "geometry": {"type": "LineString", "coordinates": [[-81.31129247805484, 28.686166601567354], [-81.31039387710645, 28.686034468597736]]}, "properties": {"OBJECTID": 3966839, "id3dhp": "368H3", "featuredate": 1694649600000, "mainstemid": "https://geoconnex.us/usgs/mainstems/3357393", "gnisid": 282997, "gnisidlabel": "Gee Creek", "featuretype": 5, "featuretypelabel": "Waterbody Connector", "lengthkm": 0.08919202, "waterbodyid3dhp": "LUSHS", "flowdirection": 1, "flowdirectionlabel": "Flow direction is in digitized direction, and z-values on vertices flow downslope", "onsurface": 1, "onsurfacelabel": "Feature is on the land surface", "catchmentid3dhp": "", "flowpathid3dhp": null, "streamlevel": 4, "startflag": 0, "terminalflag": 0, "streamorder": 2, "streamcalculator": 2, "hydrosequence": 10023534, "dnhydrosequence": 10009932, "uphydrosequence": 10037122, "dnlevelpath": 9774840, "uplevelpath": 9774840, "pathlength": 307.71631584, "arbolatesum": 6.5756687, "divergence": 0, "divergencelabel": "No divergence", "rtrndivergence": 0, "levelpath": 9774840, "terminalpath": 52, "workunitid": "NHD", "Shape__Length": 101.4272643175815}}, {"type": "Feature", "id": 4872968, "geometry": {"type": "LineString", "coordinates": [[-81.25955529116189, 28.667135671633233], [-81.259491862018, 28.667183998597256], [-81.2591921957173, 28.66737099827125], [-81.25865453695178, 28.667844835061118]]}, "properties": {"OBJECTID": 4872968, "id3dhp": "3PLDG", "featuredate": 1694649600000, "mainstemid": "https://geoconnex.us/ref/mainstems/2502017", "gnisid": 284357, "gnisidlabel": "Howell Creek", "featuretype": 1, "featuretypelabel": "Channel Line", "lengthkm": 0.11839802, "waterbodyid3dhp": null, "flowdirection": 1, "flowdirectionlabel": "Flow direction is in digitized direction, and z-values on vertices flow downslope", "onsurface": 1, "onsurfacelabel": "Feature is on the land surface", "catchmentid3dhp": "", "flowpathid3dhp": null, "streamlevel": 2, "startflag": 0, "terminalflag": 0, "streamorder": 3, "streamcalculator": 3, "hydrosequence": 9941203, "dnhydrosequence": 9927441, "uphydrosequence": 9955057, "dnlevelpath": 9442006, "uplevelpath": 9442006, "pathlength": 304.08905328, "arbolatesum": 46.94477338, "divergence": 0, "divergencelabel": "No divergence", "rtrndivergence": 0, "levelpath": 9442006, "terminalpath": 52, "workunitid": "NHD", "Shape__Length": 135.11709458981628}}, {"type": "Feature", "id": 5325543, "geometry": {"type": "LineString", "coordinates": [[-81.25865453695178, 28.667844835061118], [-81.25864910304261, 28.667849624138633], [-81.25846826139613, 28.668008998774138]]}, "properties": {"OBJECTID": 5325543, "id3dhp": "3Z9I2", "featuredate": 1694649600000, "mainstemid": "https://geoconnex.us/ref/mainstems/2502017", "gnisid": 284357, "gnisidlabel": "Howell Creek", "featuretype": 1, "featuretypelabel": "Channel Line", "lengthkm": 0.025740620000000002, "waterbodyid3dhp": null, "flowdirection": 1, "flowdirectionlabel": "Flow direction is in digitized direction, and z-values on vertices flow downslope", "onsurface": 1, "onsurfacelabel": "Feature is on the land surface", "catchmentid3dhp": "", "flowpathid3dhp": null, "streamlevel": 2, "startflag": 0, "terminalflag": 0, "streamorder": 3, "streamcalculator": 3, "hydrosequence": 9927441, "dnhydrosequence": 9913534, "uphydrosequence": 9941203, "dnlevelpath": 9442006, "uplevelpath": 9442006, "pathlength": 304.06331266, "arbolatesum": 46.970514, "divergence": 0, "divergencelabel": "No divergence", "rtrndivergence": 0, "levelpath": 9442006, "terminalpath": 52, "workunitid": "NHD", "Shape__Length": 29.39018707578479}}, {"type": "Feature", "id": 5550375, "geometry": {"type": "LineString", "coordinates": [[-81.29575340769372, 28.69735207193141], [-81.29551000737086, 28.69754467223592], [-81.29543821401336, 28.697587973668302]]}, "properties": {"OBJECTID": 5550375, "id3dhp": "442D2", "featuredate": 1694649600000, "mainstemid": "https://geoconnex.us/usgs/mainstems/3357393", "gnisid": 282997, "gnisidlabel": "Gee Creek", "featuretype": 1, "featuretypelabel": "Channel Line", "lengthkm": 0.04047155, "waterbodyid3dhp": null, "flowdirection": 1, "flowdirectionlabel": "Flow direction is in digitized direction, and z-values on vertices flow downslope", "onsurface": 1, "onsurfacelabel": "Feature is on the land surface", "catchmentid3dhp": "", "flowpathid3dhp": null, "streamlevel": 4, "startflag": 0, "terminalflag": 0, "streamorder": 2, "streamcalculator": 2, "hydrosequence": 9941198, "dnhydrosequence": 9927436, "uphydrosequence": 9955052, "dnlevelpath": 9774840, "uplevelpath": 9774840, "pathlength": 305.35218162, "arbolatesum": 9.47180292, "divergence": 0, "divergencelabel": "No divergence", "rtrndivergence": 0, "levelpath": 9774840, "terminalpath": 52, "workunitid": "NHD", "Shape__Length": 46.18988736787946}}, {"type": "Feature", "id": 5658586, "geometry": {"type": "LineString", "coordinates": [[-81.26612019991948, 28.716356876955818], [-81.25700499652815, 28.713878676750447]]}, "properties": {"OBJECTID": 5658586, "id3dhp": "46D2A", "featuredate": 1694649600000, "mainstemid": "https://geoconnex.us/ref/mainstems/2502587", "gnisid": null, "gnisidlabel": null, "featuretype": 5, "featuretypelabel": "Waterbody Connector", "lengthkm": 0.933, "waterbodyid3dhp": "IP9V4", "flowdirection": 1, "flowdirectionlabel": "Flow direction is in digitized direction, and z-values on vertices flow downslope", "onsurface": 1, "onsurfacelabel": "Feature is on the land surface", "catchmentid3dhp": "", "flowpathid3dhp": null, "streamlevel": 3, "startflag": 0, "terminalflag": 0, "streamorder": 3, "streamcalculator": 3, "hydrosequence": 9733146, "dnhydrosequence": 9719304, "uphydrosequence": 9747028, "dnlevelpath": 9719304, "uplevelpath": 9719304, "pathlength": 298.79989528, "arbolatesum": 47.244176470000006, "divergence": 0, "divergencelabel": "No divergence", "rtrndivergence": 0, "levelpath": 9719304, "terminalpath": 52, "workunitid": "NHD", "Shape__Length": 1062.3376817135418}}, {"type": "Feature", "id": 6683826, "geometry": {"type": "LineString", "coordinates": [[-81.2953156200282, 28.697661913779477], [-81.29527280722009, 28.697687737963275], [-81.29521660771759, 28.69773180524415], [-81.29513547367776, 28.69774820528082], [-81.29496382628822, 28.69773307624114], [-81.29479841141013, 28.697729230943228], [-81.29458628323894, 28.697688734746873]]}, "properties": {"OBJECTID": 6683826, "id3dhp": "4SA45", "featuredate": 1694649600000, "mainstemid": "https://geoconnex.us/usgs/mainstems/3357393", "gnisid": 282997, "gnisidlabel": "Gee Creek", "featuretype": 1, "featuretypelabel": "Channel Line", "lengthkm": 0.07490395000000001, "waterbodyid3dhp": null, "flowdirection": 1, "flowdirectionlabel": "Flow direction is in digitized direction, and z-values on vertices flow downslope", "onsurface": 1, "onsurfacelabel": "Feature is on the land surface", "catchmentid3dhp": "", "flowpathid3dhp": null, "streamlevel": 4, "startflag": 0, "terminalflag": 0, "streamorder": 2, "streamcalculator": 2, "hydrosequence": 9913530, "dnhydrosequence": 9899642, "uphydrosequence": 9927436, "dnlevelpath": 9774840, "uplevelpath": 9774840, "pathlength": 305.26275323, "arbolatesum": 9.56123131, "divergence": 0, "divergencelabel": "No divergence", "rtrndivergence": 0, "levelpath": 9774840, "terminalpath": 52, "workunitid": "NHD", "Shape__Length": 85.23491831065368}}, {"type": "Feature", "id": 7590068, "geometry": {"type": "LineString", "coordinates": [[-81.30847213727029, 28.71892759181642], [-81.30830881187353, 28.718961009976567], [-81.30807161172275, 28.718977476800802], [-81.30782187737883, 28.718961009976567], [-81.30772201166869, 28.718939009564256], [-81.30748481151792, 28.718917009935087], [-81.30735361167237, 28.718872876734974], [-81.30702921115865, 28.718801409587606], [-81.30653607739016, 28.71879041015304], [-81.30611787748943, 28.718757409478975], [-81.3059556112064, 28.718718876773014], [-81.30588067733866, 28.71868580990008], [-81.30565601138105, 28.71846567657583], [-81.30559361080816, 28.718421676325942], [-81.3055124111913, 28.718388676323343], [-81.30537507675065, 28.718388676323343], [-81.30510667721175, 28.718405209414183], [-81.30496941104309, 28.718394076797196], [-81.30482527725407, 28.718382410040146], [-81.30470587677976, 28.718381876689154], [-81.30450361031374, 28.718326076499864], [-81.30437041081836, 28.71827347639021], [-81.3041112109263, 28.71816040973867], [-81.30355501003497, 28.717829809676793], [-81.30336067659125, 28.717695076695186], [-81.30273361030211, 28.717282476145787], [-81.3023174100512, 28.717043009784042], [-81.3020134758546, 28.716924409685742], [-81.30135367585483, 28.71665100916456], [-81.30099089122734, 28.716343230940762], [-81.30017711549628, 28.71627898568921], [-81.29947041535385, 28.71621474039813], [-81.29806415308222, 28.716136217184157], [-81.29683635012492, 28.716014865731854], [-81.29568707070325, 28.71583640639211], [-81.29344561866084, 28.715615116041146]]}, "properties": {"OBJECTID": 7590068, "id3dhp": "5BN2I", "featuredate": 1694649600000, "mainstemid": "https://geoconnex.us/ref/mainstems/2502587", "gnisid": 291323, "gnisidlabel": "Soldier Creek", "featuretype": 1, "featuretypelabel": "Channel Line", "lengthkm": 1.56105816, "waterbodyid3dhp": null, "flowdirection": 1, "flowdirectionlabel": "Flow direction is in digitized direction, and z-values on vertices flow downslope", "onsurface": 1, "onsurfacelabel": "Feature is on the land surface", "catchmentid3dhp": "", "flowpathid3dhp": null, "streamlevel": 3, "startflag": 0, "terminalflag": 0, "streamorder": 2, "streamcalculator": 2, "hydrosequence": 9802303, "dnhydrosequence": 9788628, "uphydrosequence": 9816088, "dnlevelpath": 9719304, "uplevelpath": 9719304, "pathlength": 302.47386381999996, "arbolatesum": 10.73624608, "divergence": 0, "divergencelabel": "No divergence", "rtrndivergence": 0, "levelpath": 9719304, "terminalpath": 52, "workunitid": "NHD", "Shape__Length": 1777.0709124271136}}, {"type": "Feature", "id": 8044440, "geometry": {"type": "LineString", "coordinates": [[-81.29070796150997, 28.703911464880726], [-81.29078460666834, 28.704025873798045], [-81.29080327186331, 28.704086406790697], [-81.2908594066871, 28.704158006908315], [-81.29114653969293, 28.704317606791683], [-81.2913586723557, 28.704416673664994], [-81.2915022060701, 28.70451567347136], [-81.2915832727363, 28.704554206682264], [-81.29182047288705, 28.704614807130337], [-81.2919638727525, 28.70463120687629], [-81.29226967274995, 28.70477440710482], [-81.29232587315074, 28.704812874035348], [-81.2924506724999, 28.704983473807527]]}, "properties": {"OBJECTID": 8044440, "id3dhp": "5LCI4", "featuredate": 1694649600000, "mainstemid": "https://geoconnex.us/usgs/mainstems/3357393", "gnisid": 282997, "gnisidlabel": "Gee Creek", "featuretype": 1, "featuretypelabel": "Channel Line", "lengthkm": 0.21642428, "waterbodyid3dhp": null, "flowdirection": 1, "flowdirectionlabel": "Flow direction is in digitized direction, and z-values on vertices flow downslope", "onsurface": 1, "onsurfacelabel": "Feature is on the land surface", "catchmentid3dhp": "", "flowpathid3dhp": null, "streamlevel": 4, "startflag": 0, "terminalflag": 0, "streamorder": 2, "streamcalculator": 2, "hydrosequence": 9802301, "dnhydrosequence": 9788627, "uphydrosequence": 9816086, "dnlevelpath": 9774840, "uplevelpath": 9774840, "pathlength": 303.34891603, "arbolatesum": 16.90511451, "divergence": 0, "divergencelabel": "No divergence", "rtrndivergence": 0, "levelpath": 9774840, "terminalpath": 52, "workunitid": "NHD", "Shape__Length": 246.86521100053264}}, {"type": "Feature", "id": 8244853, "geometry": {"type": "LineString", "coordinates": [[-81.29000470461, 28.715881786439567], [-81.28976480592013, 28.715756876828603]]}, "properties": {"OBJECTID": 8244853, "id3dhp": "5PMG2", "featuredate": 1694649600000, "mainstemid": "https://geoconnex.us/ref/mainstems/2502587", "gnisid": 291323, "gnisidlabel": "Soldier Creek", "featuretype": 5, "featuretypelabel": "Waterbody Connector", "lengthkm": 0.027245830000000002, "waterbodyid3dhp": "IP9V4", "flowdirection": 1, "flowdirectionlabel": "Flow direction is in digitized direction, and z-values on vertices flow downslope", "onsurface": 1, "onsurfacelabel": "Feature is on the land surface", "catchmentid3dhp": "", "flowpathid3dhp": null, "streamlevel": 3, "startflag": 0, "terminalflag": 0, "streamorder": 2, "streamcalculator": 2, "hydrosequence": 9774841, "dnhydrosequence": 9760932, "uphydrosequence": 9788628, "dnlevelpath": 9719304, "uplevelpath": 9719304, "pathlength": 302.04795984000003, "arbolatesum": 14.29481168, "divergence": 0, "divergencelabel": "No divergence", "rtrndivergence": 0, "levelpath": 9719304, "terminalpath": 52, "workunitid": "NHD", "Shape__Length": 31.057254743338724}}, {"type": "Feature", "id": 8271188, "geometry": {"type": "LineString", "coordinates": [[-81.28837062868402, 28.696512326522658], [-81.28810880481298, 28.696762204946182], [-81.28786540538844, 28.69714180486721], [-81.28779040504536, 28.6972794049678], [-81.28778420487329, 28.69743347195117], [-81.28781527131076, 28.69765907235453], [-81.28780900556166, 28.69769207180483], [-81.28771540560062, 28.697818671906127], [-81.28768420531418, 28.697884605294224], [-81.28769660476003, 28.698132205578357], [-81.28779640489316, 28.698429405361], [-81.28781507098644, 28.698545005370868], [-81.28780880523733, 28.69861100527836], [-81.28774640556276, 28.698721072796577], [-81.28773017031062, 28.698773529085134]]}, "properties": {"OBJECTID": 8271188, "id3dhp": "5Q73B", "featuredate": 1694649600000, "mainstemid": "https://geoconnex.us/usgs/mainstems/3357393", "gnisid": 282997, "gnisidlabel": "Gee Creek", "featuretype": 1, "featuretypelabel": "Channel Line", "lengthkm": 0.27502931, "waterbodyid3dhp": null, "flowdirection": 1, "flowdirectionlabel": "Flow direction is in digitized direction, and z-values on vertices flow downslope", "onsurface": 1, "onsurfacelabel": "Feature is on the land surface", "catchmentid3dhp": "", "flowpathid3dhp": null, "streamlevel": 4, "startflag": 0, "terminalflag": 0, "streamorder": 2, "streamcalculator": 2, "hydrosequence": 9871612, "dnhydrosequence": 9857578, "uphydrosequence": 9885627, "dnlevelpath": 9774840, "uplevelpath": 9774840, "pathlength": 304.3322524, "arbolatesum": 10.49173214, "divergence": 0, "divergencelabel": "No divergence", "rtrndivergence": 0, "levelpath": 9774840, "terminalpath": 52, "workunitid": "NHD", "Shape__Length": 315.04847263400654}}, {"type": "Feature", "id": 8272656, "geometry": {"type": "LineString", "coordinates": [[-81.3080040763797, 28.686722269200963], [-81.30771081057541, 28.687003001942127], [-81.30723027657712, 28.687404602533437], [-81.30664367669658, 28.68782820223914], [-81.30657501037459, 28.68786666909375], [-81.30641900984065, 28.687927269747618], [-81.30628167629834, 28.688026402570046], [-81.30610701056943, 28.68819686973217], [-81.30577627603466, 28.688340002610165], [-81.30550801034472, 28.68841700212458], [-81.30488401000567, 28.688516002880558], [-81.30475287573712, 28.688521469515656], [-81.30465940962507, 28.688549002849086], [-81.3045844101803, 28.68858200280722], [-81.30446587568193, 28.68871946994841], [-81.30443460981847, 28.688780069320703], [-81.30439720935992, 28.68886266988321], [-81.30434107543445, 28.68906066967077], [-81.30437431848985, 28.68921465339835], [-81.30431434606318, 28.689389121837124], [-81.30422165968879, 28.689525424782456], [-81.30406354901226, 28.689607206779687], [-81.30386591336155, 28.689601366674072], [-81.3038168096515, 28.68970446958929], [-81.30355467586169, 28.690144670045793], [-81.30343607578631, 28.690254670028036], [-81.30323020977096, 28.690403269781786], [-81.30268100945065, 28.6909038700135], [-81.30227345997592, 28.691365092135044]]}, "properties": {"OBJECTID": 8272656, "id3dhp": "5Q88D", "featuredate": 1694649600000, "mainstemid": "https://geoconnex.us/usgs/mainstems/3357393", "gnisid": 282997, "gnisidlabel": "Gee Creek", "featuretype": 1, "featuretypelabel": "Channel Line", "lengthkm": 0.80856133, "waterbodyid3dhp": null, "flowdirection": 1, "flowdirectionlabel": "Flow direction is in digitized direction, and z-values on vertices flow downslope", "onsurface": 1, "onsurfacelabel": "Feature is on the land surface", "catchmentid3dhp": "", "flowpathid3dhp": null, "streamlevel": 4, "startflag": 0, "terminalflag": 0, "streamorder": 2, "streamcalculator": 2, "hydrosequence": 9996345, "dnhydrosequence": 9982736, "uphydrosequence": 10009932, "dnlevelpath": 9774840, "uplevelpath": 9774840, "pathlength": 306.63854183, "arbolatesum": 7.653442709999999, "divergence": 0, "divergencelabel": "No divergence", "rtrndivergence": 0, "levelpath": 9774840, "terminalpath": 52, "workunitid": "NHD", "Shape__Length": 923.1160517627617}}, {"type": "Feature", "id": 8378405, "geometry": {"type": "LineString", "coordinates": [[-81.30718674332013, 28.693935737112092], [-81.30466701027068, 28.694209870733303]]}, "properties": {"OBJECTID": 8378405, "id3dhp": "5SHBJ", "featuredate": 1694649600000, "mainstemid": "https://geoconnex.us/usgs/mainstems/6248637", "gnisid": null, "gnisidlabel": null, "featuretype": 2, "featuretypelabel": "Canal", "lengthkm": 0.249, "waterbodyid3dhp": null, "flowdirection": 1, "flowdirectionlabel": "Flow direction is in digitized direction, and z-values on vertices flow downslope", "onsurface": 1, "onsurfacelabel": "Feature is on the land surface", "catchmentid3dhp": "", "flowpathid3dhp": null, "streamlevel": 5, "startflag": 1, "terminalflag": 0, "streamorder": 1, "streamcalculator": 1, "hydrosequence": 9996344, "dnhydrosequence": 9982735, "uphydrosequence": 0, "dnlevelpath": 9982735, "uplevelpath": 0, "pathlength": 306.45554436, "arbolatesum": 0.249, "divergence": 0, "divergencelabel": "No divergence", "rtrndivergence": 0, "levelpath": 9982735, "terminalpath": 52, "workunitid": "NHD", "Shape__Length": 282.64450483192917}}, {"type": "Feature", "id": 8954451, "geometry": {"type": "LineString", "coordinates": [[-81.29543821401336, 28.697587973668302], [-81.2953156200282, 28.697661913779477]]}, "properties": {"OBJECTID": 8954451, "id3dhp": "64SXP", "featuredate": 1694649600000, "mainstemid": "https://geoconnex.us/usgs/mainstems/3357393", "gnisid": 282997, "gnisidlabel": "Gee Creek", "featuretype": 1, "featuretypelabel": "Channel Line", "lengthkm": 0.014524440000000001, "waterbodyid3dhp": null, "flowdirection": 1, "flowdirectionlabel": "Flow direction is in digitized direction, and z-values on vertices flow downslope", "onsurface": 1, "onsurfacelabel": "Feature is on the land surface", "catchmentid3dhp": "", "flowpathid3dhp": null, "streamlevel": 4, "startflag": 0, "terminalflag": 0, "streamorder": 2, "streamcalculator": 2, "hydrosequence": 9927436, "dnhydrosequence": 9913530, "uphydrosequence": 9941198, "dnlevelpath": 9774840, "uplevelpath": 9774840, "pathlength": 305.33765718, "arbolatesum": 9.48632736, "divergence": 0, "divergencelabel": "No divergence", "rtrndivergence": 0, "levelpath": 9774840, "terminalpath": 52, "workunitid": "NHD", "Shape__Length": 16.561862435985788}}, {"type": "Feature", "id": 9181479, "geometry": {"type": "LineString", "coordinates": [[-81.279242601842, 28.671487666050883], [-81.2788791344949, 28.67204059939209], [-81.27814146762799, 28.672468932669197], [-81.27748226770281, 28.672640266120258], [-81.27698540143435, 28.673025932449985], [-81.27677773429684, 28.673507999573108], [-81.27647553384874, 28.674094132482193], [-81.27618693389405, 28.674575267043338], [-81.27560960103398, 28.67503226728636], [-81.27560960103398, 28.675465267510553], [-81.27560960103398, 28.675874200233874], [-81.27558546689558, 28.676187000454878], [-81.27524880078495, 28.676788333197255], [-81.27510446667164, 28.6773416003119], [-81.2748638663975, 28.677894933858934], [-81.27459920025693, 28.67840006802497], [-81.27459920025693, 28.67890526832086], [-81.27459920115525, 28.67941046775632], [-81.2744548670419, 28.679723134473008], [-81.27411813355765, 28.680011868685348], [-81.2735167330345, 28.68022833469227], [-81.2729393336991, 28.68056506833509], [-81.27212153261728, 28.68095000171881]]}, "properties": {"OBJECTID": 9181479, "id3dhp": "69NKK", "featuredate": 1694649600000, "mainstemid": "https://geoconnex.us/usgs/mainstems/1310786", "gnisid": null, "gnisidlabel": null, "featuretype": 1, "featuretypelabel": "Channel Line", "lengthkm": 1.36268192, "waterbodyid3dhp": null, "flowdirection": 1, "flowdirectionlabel": "Flow direction is in digitized direction, and z-values on vertices flow downslope", "onsurface": 1, "onsurfacelabel": "Feature is on the land surface", "catchmentid3dhp": "", "flowpathid3dhp": null, "streamlevel": 5, "startflag": 0, "terminalflag": 0, "streamorder": 1, "streamcalculator": 1, "hydrosequence": 9899641, "dnhydrosequence": 9885626, "uphydrosequence": 9913529, "dnlevelpath": 9843613, "uplevelpath": 9843613, "pathlength": 307.62687207, "arbolatesum": 1.83527164, "divergence": 0, "divergencelabel": "No divergence", "rtrndivergence": 0, "levelpath": 9843613, "terminalpath": 52, "workunitid": "NHD", "Shape__Length": 1557.9866389313488}}, {"type": "Feature", "id": 10545902, "geometry": {"type": "LineString", "coordinates": [[-81.28773017031062, 28.698773529085134], [-81.2877276711975, 28.69878160570604], [-81.2877214054484, 28.69886407230292], [-81.28773380489427, 28.69932620568969], [-81.28761242453308, 28.69958564161678]]}, "properties": {"OBJECTID": 10545902, "id3dhp": "72TL7", "featuredate": 1694649600000, "mainstemid": "https://geoconnex.us/usgs/mainstems/3357393", "gnisid": 282997, "gnisidlabel": "Gee Creek", "featuretype": 1, "featuretypelabel": "Channel Line", "lengthkm": 0.09227235, "waterbodyid3dhp": null, "flowdirection": 1, "flowdirectionlabel": "Flow direction is in digitized direction, and z-values on vertices flow downslope", "onsurface": 1, "onsurfacelabel": "Feature is on the land surface", "catchmentid3dhp": "", "flowpathid3dhp": null, "streamlevel": 4, "startflag": 0, "terminalflag": 0, "streamorder": 2, "streamcalculator": 2, "hydrosequence": 9857578, "dnhydrosequence": 9843614, "uphydrosequence": 9871612, "dnlevelpath": 9774840, "uplevelpath": 9774840, "pathlength": 304.23998005, "arbolatesum": 10.58400449, "divergence": 0, "divergencelabel": "No divergence", "rtrndivergence": 0, "levelpath": 9774840, "terminalpath": 52, "workunitid": "NHD", "Shape__Length": 105.80647517112885}}, {"type": "Feature", "id": 11790195, "geometry": {"type": "LineString", "coordinates": [[-81.25700499652815, 28.713878676750447], [-81.25231259543757, 28.711166809201494]]}, "properties": {"OBJECTID": 11790195, "id3dhp": "7TEYH", "featuredate": 1694649600000, "mainstemid": "https://geoconnex.us/ref/mainstems/2502587", "gnisid": null, "gnisidlabel": null, "featuretype": 5, "featuretypelabel": "Waterbody Connector", "lengthkm": 0.549, "waterbodyid3dhp": "IP9V4", "flowdirection": 1, "flowdirectionlabel": "Flow direction is in digitized direction, and z-values on vertices flow downslope", "onsurface": 1, "onsurfacelabel": "Feature is on the land surface", "catchmentid3dhp": "", "flowpathid3dhp": null, "streamlevel": 3, "startflag": 0, "terminalflag": 0, "streamorder": 3, "streamcalculator": 3, "hydrosequence": 9719304, "dnhydrosequence": 9705356, "uphydrosequence": 9733146, "dnlevelpath": 9442006, "uplevelpath": 9719304, "pathlength": 298.25089528, "arbolatesum": 50.211176470000005, "divergence": 0, "divergencelabel": "No divergence", "rtrndivergence": 0, "levelpath": 9719304, "terminalpath": 52, "workunitid": "NHD", "Shape__Length": 625.5668918462836}}, {"type": "Feature", "id": 11900191, "geometry": {"type": "LineString", "coordinates": [[-81.27143858752422, 28.68390017757838], [-81.27142447588942, 28.686477742139736], [-81.27124601747337, 28.688321824065433], [-81.27198959884812, 28.692872544717588], [-81.27490443970564, 28.699862213344048], [-81.27829517296635, 28.70126014621187], [-81.27945516030621, 28.701141172855873], [-81.28070437730325, 28.70027861907157], [-81.28213205451294, 28.699862212556134], [-81.28481980396155, 28.700464539263603], [-81.28504347009427, 28.701510206345684]]}, "properties": {"OBJECTID": 11900191, "id3dhp": "7VRQH", "featuredate": 1694649600000, "mainstemid": "https://geoconnex.us/usgs/mainstems/1310786", "gnisid": null, "gnisidlabel": null, "featuretype": 4, "featuretypelabel": "Surface Connector", "lengthkm": 2.99473945, "waterbodyid3dhp": null, "flowdirection": 1, "flowdirectionlabel": "Flow direction is in digitized direction, and z-values on vertices flow downslope", "onsurface": 1, "onsurfacelabel": "Feature is on the land surface", "catchmentid3dhp": "", "flowpathid3dhp": null, "streamlevel": 5, "startflag": 0, "terminalflag": 0, "streamorder": 1, "streamcalculator": 1, "hydrosequence": 9857577, "dnhydrosequence": 9843613, "uphydrosequence": 9871611, "dnlevelpath": 9843613, "uplevelpath": 9843613, "pathlength": 304.29109771, "arbolatesum": 5.1710460000000005, "divergence": 0, "divergencelabel": "No divergence", "rtrndivergence": 0, "levelpath": 9843613, "terminalpath": 52, "workunitid": "NHD", "Shape__Length": 3425.2089028246864}}, {"type": "Feature", "id": 12017633, "geometry": {"type": "LineString", "coordinates": [[-81.28305580469602, 28.71596080933108], [-81.26612019991948, 28.716356876955818]]}, "properties": {"OBJECTID": 12017633, "id3dhp": "7Y9YC", "featuredate": 1694649600000, "mainstemid": "https://geoconnex.us/ref/mainstems/2502587", "gnisid": null, "gnisidlabel": null, "featuretype": 5, "featuretypelabel": "Waterbody Connector", "lengthkm": 1.658, "waterbodyid3dhp": "IP9V4", "flowdirection": 1, "flowdirectionlabel": "Flow direction is in digitized direction, and z-values on vertices flow downslope", "onsurface": 1, "onsurfacelabel": "Feature is on the land surface", "catchmentid3dhp": "", "flowpathid3dhp": null, "streamlevel": 3, "startflag": 0, "terminalflag": 0, "streamorder": 3, "streamcalculator": 3, "hydrosequence": 9747028, "dnhydrosequence": 9733146, "uphydrosequence": 9760932, "dnlevelpath": 9719304, "uplevelpath": 9719304, "pathlength": 299.73289528, "arbolatesum": 35.2609664, "divergence": 0, "divergencelabel": "No divergence", "rtrndivergence": 0, "levelpath": 9719304, "terminalpath": 52, "workunitid": "NHD", "Shape__Length": 1885.9330811832335}}, {"type": "Feature", "id": 13720148, "geometry": {"type": "LineString", "coordinates": [[-81.28976480592013, 28.715756876828603], [-81.28305580469602, 28.71596080933108]]}, "properties": {"OBJECTID": 13720148, "id3dhp": "8YO2R", "featuredate": 1694649600000, "mainstemid": "https://geoconnex.us/ref/mainstems/2502587", "gnisid": null, "gnisidlabel": null, "featuretype": 5, "featuretypelabel": "Waterbody Connector", "lengthkm": 0.65706456, "waterbodyid3dhp": "IP9V4", "flowdirection": 1, "flowdirectionlabel": "Flow direction is in digitized direction, and z-values on vertices flow downslope", "onsurface": 1, "onsurfacelabel": "Feature is on the land surface", "catchmentid3dhp": "", "flowpathid3dhp": null, "streamlevel": 3, "startflag": 0, "terminalflag": 0, "streamorder": 3, "streamcalculator": 3, "hydrosequence": 9760932, "dnhydrosequence": 9747028, "uphydrosequence": 9774841, "dnlevelpath": 9719304, "uplevelpath": 9719304, "pathlength": 301.39089528, "arbolatesum": 33.6029664, "divergence": 0, "divergencelabel": "No divergence", "rtrndivergence": 0, "levelpath": 9719304, "terminalpath": 52, "workunitid": "NHD", "Shape__Length": 747.291049560084}}, {"type": "Feature", "id": 13731748, "geometry": {"type": "LineString", "coordinates": [[-81.29374900668174, 28.70393280659758], [-81.29366787354023, 28.704163806805624], [-81.29351180742927, 28.70438400647396]]}, "properties": {"OBJECTID": 13731748, "id3dhp": "8YXAO", "featuredate": 1694649600000, "mainstemid": "https://geoconnex.us/usgs/mainstems/12755636", "gnisid": null, "gnisidlabel": null, "featuretype": 4, "featuretypelabel": "Surface Connector", "lengthkm": 0.05551595, "waterbodyid3dhp": null, "flowdirection": 1, "flowdirectionlabel": "Flow direction is in digitized direction, and z-values on vertices flow downslope", "onsurface": 1, "onsurfacelabel": "Feature is on the land surface", "catchmentid3dhp": "", "flowpathid3dhp": null, "streamlevel": 5, "startflag": 0, "terminalflag": 0, "streamorder": 1, "streamcalculator": 1, "hydrosequence": 9816087, "dnhydrosequence": 9802302, "uphydrosequence": 9829799, "dnlevelpath": 9802302, "uplevelpath": 9802302, "pathlength": 303.47338530999997, "arbolatesum": 0.32055018, "divergence": 0, "divergencelabel": "No divergence", "rtrndivergence": 0, "levelpath": 9802302, "terminalpath": 52, "workunitid": "NHD", "Shape__Length": 63.58404073354741}}, {"type": "Feature", "id": 13958839, "geometry": {"type": "LineString", "coordinates": [[-81.29632080608505, 28.703546217181795], [-81.29622802269262, 28.703558914626264], [-81.29595880658512, 28.703600332789165], [-81.29574757493258, 28.703691451744344], [-81.29559018739987, 28.70373701119218], [-81.2953830978791, 28.7037701466129], [-81.29519671632227, 28.703803280447325], [-81.29503932878953, 28.703873690204556], [-81.29491921774783, 28.70395238414818], [-81.29478253817905, 28.704006227711858], [-81.29465828410727, 28.703993802155324], [-81.29448432804745, 28.703919250360972], [-81.2943310835448, 28.703910967700438], [-81.29412813525751, 28.70395238414818], [-81.293966605593, 28.703960668381242], [-81.29386720251524, 28.703960668381242], [-81.29374900668174, 28.70393280659758]]}, "properties": {"OBJECTID": 13958839, "id3dhp": "93RYE", "featuredate": 1694649600000, "mainstemid": "https://geoconnex.us/usgs/mainstems/12755636", "gnisid": null, "gnisidlabel": null, "featuretype": 1, "featuretypelabel": "Channel Line", "lengthkm": 0.26503423000000004, "waterbodyid3dhp": null, "flowdirection": 1, "flowdirectionlabel": "Flow direction is in digitized direction, and z-values on vertices flow downslope", "onsurface": 1, "onsurfacelabel": "Feature is on the land surface", "catchmentid3dhp": "", "flowpathid3dhp": null, "streamlevel": 5, "startflag": 1, "terminalflag": 0, "streamorder": 1, "streamcalculator": 1, "hydrosequence": 9829799, "dnhydrosequence": 9816087, "uphydrosequence": 0, "dnlevelpath": 9802302, "uplevelpath": 0, "pathlength": 303.52890126, "arbolatesum": 0.26503423000000004, "divergence": 0, "divergencelabel": "No divergence", "rtrndivergence": 0, "levelpath": 9802302, "terminalpath": 52, "workunitid": "NHD", "Shape__Length": 301.6363400602348}}, {"type": "Feature", "id": 13958886, "geometry": {"type": "LineString", "coordinates": [[-81.31914107216691, 28.684771980334563], [-81.31893627963835, 28.6846862684006], [-81.31875527988836, 28.68470280130049], [-81.3184058792603, 28.684713801166364], [-81.31780687903559, 28.684867868517152], [-81.3175698136321, 28.684906468066515], [-81.31738887945914, 28.68491746869903], [-81.31715787948046, 28.684884401388377], [-81.31649027940908, 28.68490100124268], [-81.31624067891414, 28.68492300171967], [-81.31598340321341, 28.68500018421411], [-81.31564528093371, 28.685056350501938]]}, "properties": {"OBJECTID": 13958886, "id3dhp": "93RZO", "featuredate": 1694649600000, "mainstemid": "https://geoconnex.us/usgs/mainstems/3357393", "gnisid": 282997, "gnisidlabel": "Gee Creek", "featuretype": 1, "featuretypelabel": "Channel Line", "lengthkm": 0.3498221, "waterbodyid3dhp": null, "flowdirection": 1, "flowdirectionlabel": "Flow direction is in digitized direction, and z-values on vertices flow downslope", "onsurface": 1, "onsurfacelabel": "Feature is on the land surface", "catchmentid3dhp": "", "flowpathid3dhp": null, "streamlevel": 4, "startflag": 0, "terminalflag": 0, "streamorder": 2, "streamcalculator": 2, "hydrosequence": 10064318, "dnhydrosequence": 10050713, "uphydrosequence": 10077964, "dnlevelpath": 9774840, "uplevelpath": 9774840, "pathlength": 308.32704899, "arbolatesum": 5.96493555, "divergence": 0, "divergencelabel": "No divergence", "rtrndivergence": 0, "levelpath": 9774840, "terminalpath": 52, "workunitid": "NHD", "Shape__Length": 397.85799813290424}}, {"type": "Feature", "id": 14640895, "geometry": {"type": "LineString", "coordinates": [[-81.28761242453308, 28.69958564161678], [-81.28739653781075, 28.700047072902603], [-81.28738407099122, 28.700245072810223], [-81.28741527127767, 28.700421272903288], [-81.28762107081768, 28.701235605683213], [-81.28763407123648, 28.701403806484976]]}, "properties": {"OBJECTID": 14640895, "id3dhp": "9ICS4", "featuredate": 1694649600000, "mainstemid": "https://geoconnex.us/usgs/mainstems/3357393", "gnisid": 282997, "gnisidlabel": "Gee Creek", "featuretype": 1, "featuretypelabel": "Channel Line", "lengthkm": 0.20788234, "waterbodyid3dhp": null, "flowdirection": 1, "flowdirectionlabel": "Flow direction is in digitized direction, and z-values on vertices flow downslope", "onsurface": 1, "onsurfacelabel": "Feature is on the land surface", "catchmentid3dhp": "", "flowpathid3dhp": null, "streamlevel": 4, "startflag": 0, "terminalflag": 0, "streamorder": 2, "streamcalculator": 2, "hydrosequence": 9843614, "dnhydrosequence": 9829798, "uphydrosequence": 9857578, "dnlevelpath": 9774840, "uplevelpath": 9774840, "pathlength": 304.03209770999996, "arbolatesum": 10.791886830000001, "divergence": 0, "divergencelabel": "No divergence", "rtrndivergence": 0, "levelpath": 9774840, "terminalpath": 52, "workunitid": "NHD", "Shape__Length": 238.3498412552176}}, {"type": "Feature", "id": 16007801, "geometry": {"type": "LineString", "coordinates": [[-81.29351180742927, 28.70438400647396], [-81.29334327270219, 28.704527006909203], [-81.29301247259039, 28.70466447359626], [-81.29276280651843, 28.70484600675164], [-81.29250687290072, 28.704967074116777], [-81.2924506724999, 28.704983473807527]]}, "properties": {"OBJECTID": 16007801, "id3dhp": "ABKUF", "featuredate": 1694649600000, "mainstemid": "https://geoconnex.us/usgs/mainstems/12755636", "gnisid": null, "gnisidlabel": null, "featuretype": 1, "featuretypelabel": "Channel Line", "lengthkm": 0.12446928000000002, "waterbodyid3dhp": null, "flowdirection": 1, "flowdirectionlabel": "Flow direction is in digitized direction, and z-values on vertices flow downslope", "onsurface": 1, "onsurfacelabel": "Feature is on the land surface", "catchmentid3dhp": "", "flowpathid3dhp": null, "streamlevel": 5, "startflag": 0, "terminalflag": 0, "streamorder": 1, "streamcalculator": 1, "hydrosequence": 9802302, "dnhydrosequence": 9788627, "uphydrosequence": 9816087, "dnlevelpath": 9774840, "uplevelpath": 9802302, "pathlength": 303.34891603, "arbolatesum": 0.44501946000000003, "divergence": 0, "divergencelabel": "No divergence", "rtrndivergence": 0, "levelpath": 9802302, "terminalpath": 52, "workunitid": "NHD", "Shape__Length": 141.9153105814669}}, {"type": "Feature", "id": 16461433, "geometry": {"type": "LineString", "coordinates": [[-81.30214400915023, 28.694975671381748], [-81.30187560961132, 28.695294804354035], [-81.30146987473346, 28.69569640465812], [-81.30127647463931, 28.695856004050547], [-81.30117660892918, 28.695999004319514], [-81.30103307521476, 28.696147604587075], [-81.30060240849451, 28.696554804943286], [-81.30055247474112, 28.696653804307477], [-81.30052747462679, 28.696890404978017], [-81.300452609031, 28.697017004473025], [-81.30038275783112, 28.69705799183833]]}, "properties": {"OBJECTID": 16461433, "id3dhp": "AL9XD", "featuredate": 1694649600000, "mainstemid": "https://geoconnex.us/usgs/mainstems/3357393", "gnisid": 282997, "gnisidlabel": "Gee Creek", "featuretype": 1, "featuretypelabel": "Channel Line", "lengthkm": 0.29371497, "waterbodyid3dhp": null, "flowdirection": 1, "flowdirectionlabel": "Flow direction is in digitized direction, and z-values on vertices flow downslope", "onsurface": 1, "onsurfacelabel": "Feature is on the land surface", "catchmentid3dhp": "", "flowpathid3dhp": null, "streamlevel": 4, "startflag": 0, "terminalflag": 0, "streamorder": 2, "streamcalculator": 2, "hydrosequence": 9968980, "dnhydrosequence": 9955052, "uphydrosequence": 9982736, "dnlevelpath": 9774840, "uplevelpath": 9774840, "pathlength": 305.87882939, "arbolatesum": 8.94515515, "divergence": 0, "divergencelabel": "No divergence", "rtrndivergence": 0, "levelpath": 9774840, "terminalpath": 52, "workunitid": "NHD", "Shape__Length": 335.8229972969136}}, {"type": "Feature", "id": 18053123, "geometry": {"type": "LineString", "coordinates": [[-81.26696067717403, 28.660905175923553], [-81.26678139769783, 28.661073396577173], [-81.2665317981012, 28.661271396869484], [-81.26598886353, 28.66162886389123], [-81.26568306353255, 28.661870864316665], [-81.26546459774703, 28.662145864587693], [-81.26518366311666, 28.662530997282133], [-81.26500886353878, 28.66281706419795], [-81.2645468635814, 28.66357619740314], [-81.26431599745172, 28.66387326430881], [-81.26409746339424, 28.66420886503194], [-81.26392266291805, 28.664406864918874], [-81.26384766347327, 28.664582865204977], [-81.2637226629015, 28.665023064834333], [-81.26369766278715, 28.66513859767847], [-81.26368519686594, 28.665336665171857], [-81.26365386273052, 28.665452265456704], [-81.26360386340012, 28.665529265244295], [-81.26348539717371, 28.665639265067878], [-81.26334806273307, 28.665727265001344], [-81.26321706321183, 28.665782197825678], [-81.26299859652798, 28.66587566545617], [-81.26272406239401, 28.665974665448303], [-81.26219999693535, 28.66610646508734], [-81.26173199623189, 28.666260465221086], [-81.26116419629362, 28.66641979813381], [-81.26070246223759, 28.66656266519425], [-81.26027179641565, 28.666821065413917], [-81.26008466207061, 28.666881598635815], [-81.2598187832044, 28.66698758587893]]}, "properties": {"OBJECTID": 18053123, "id3dhp": "BJBEM", "featuredate": 1694649600000, "mainstemid": "https://geoconnex.us/ref/mainstems/2502017", "gnisid": 284357, "gnisidlabel": "Howell Creek", "featuretype": 1, "featuretypelabel": "Channel Line", "lengthkm": 1.0315283000000002, "waterbodyid3dhp": null, "flowdirection": 1, "flowdirectionlabel": "Flow direction is in digitized direction, and z-values on vertices flow downslope", "onsurface": 1, "onsurfacelabel": "Feature is on the land surface", "catchmentid3dhp": "", "flowpathid3dhp": null, "streamlevel": 2, "startflag": 0, "terminalflag": 0, "streamorder": 3, "streamcalculator": 3, "hydrosequence": 9968985, "dnhydrosequence": 9955057, "uphydrosequence": 9982740, "dnlevelpath": 9442006, "uplevelpath": 9442006, "pathlength": 304.23810849, "arbolatesum": 46.795718169999994, "divergence": 0, "divergencelabel": "No divergence", "rtrndivergence": 0, "levelpath": 9442006, "terminalpath": 52, "workunitid": "NHD", "Shape__Length": 1177.576365218598}}, {"type": "Feature", "id": 18053169, "geometry": {"type": "LineString", "coordinates": [[-81.31564528093371, 28.685056350501938], [-81.31558606488849, 28.685166328247533], [-81.3155423196291, 28.685276982825155], [-81.31548348357126, 28.685365236569965], [-81.31544916343583, 28.6854485869104], [-81.31531144810951, 28.685593964794293], [-81.3151893077736, 28.685723149394423], [-81.31492139242663, 28.686293031989976], [-81.3148866788291, 28.686326202091298], [-81.31476187858162, 28.686381202132594], [-81.31467447879268, 28.68640320151054]]}, "properties": {"OBJECTID": 18053169, "id3dhp": "BJBFV", "featuredate": 1694649600000, "mainstemid": "https://geoconnex.us/usgs/mainstems/3357393", "gnisid": 282997, "gnisidlabel": "Gee Creek", "featuretype": 1, "featuretypelabel": "Channel Line", "lengthkm": 0.18304973, "waterbodyid3dhp": null, "flowdirection": 1, "flowdirectionlabel": "Flow direction is in digitized direction, and z-values on vertices flow downslope", "onsurface": 1, "onsurfacelabel": "Feature is on the land surface", "catchmentid3dhp": "", "flowpathid3dhp": null, "streamlevel": 4, "startflag": 0, "terminalflag": 0, "streamorder": 2, "streamcalculator": 2, "hydrosequence": 10050713, "dnhydrosequence": 10037122, "uphydrosequence": 10064318, "dnlevelpath": 9774840, "uplevelpath": 9774840, "pathlength": 308.14399926, "arbolatesum": 6.14798528, "divergence": 0, "divergencelabel": "No divergence", "rtrndivergence": 0, "levelpath": 9774840, "terminalpath": 52, "workunitid": "NHD", "Shape__Length": 209.40475185492085}}, {"type": "Feature", "id": 19643867, "geometry": {"type": "LineString", "coordinates": [[-81.27212153261728, 28.68095000171881], [-81.27166439973213, 28.68162360198566], [-81.27144793269811, 28.68263386895735], [-81.271469372789, 28.683660339288803]]}, "properties": {"OBJECTID": 19643867, "id3dhp": "CHC3Z", "featuredate": 1694649600000, "mainstemid": "https://geoconnex.us/usgs/mainstems/1310786", "gnisid": null, "gnisidlabel": null, "featuretype": 1, "featuretypelabel": "Channel Line", "lengthkm": 0.31424739, "waterbodyid3dhp": null, "flowdirection": 1, "flowdirectionlabel": "Flow direction is in digitized direction, and z-values on vertices flow downslope", "onsurface": 1, "onsurfacelabel": "Feature is on the land surface", "catchmentid3dhp": "", "flowpathid3dhp": null, "streamlevel": 5, "startflag": 0, "terminalflag": 0, "streamorder": 1, "streamcalculator": 1, "hydrosequence": 9885626, "dnhydrosequence": 9871611, "uphydrosequence": 9899641, "dnlevelpath": 9843613, "uplevelpath": 9843613, "pathlength": 307.31262468, "arbolatesum": 2.14951903, "divergence": 0, "divergencelabel": "No divergence", "rtrndivergence": 0, "levelpath": 9843613, "terminalpath": 52, "workunitid": "NHD", "Shape__Length": 360.1822997544947}}, {"type": "Feature", "id": 19645158, "geometry": {"type": "LineString", "coordinates": [[-81.29864612124913, 28.72577947384898], [-81.29830240875344, 28.724429811536478], [-81.2982962750567, 28.724330811671503], [-81.29821507543984, 28.72375301110512], [-81.29807787484819, 28.723318278200445], [-81.29804040881262, 28.722955077957952], [-81.29808407502027, 28.72259741063369], [-81.29811534178205, 28.722140811048018], [-81.29802187477169, 28.72166207806799], [-81.29788460860301, 28.721205410586403], [-81.29781587490737, 28.72085321088891], [-81.29770360885304, 28.720363410508142], [-81.29762880883428, 28.720159943516265], [-81.29739787443262, 28.719857210476757], [-81.29730414152093, 28.71976907720268], [-81.29721054155989, 28.71970321038881], [-81.29711694159887, 28.719620610534626], [-81.29702334163784, 28.71951040980552], [-81.29676120874636, 28.719257410052716], [-81.29637427470908, 28.718921676929327], [-81.29626200865476, 28.7188392773499], [-81.29616840869373, 28.718751077041613], [-81.2958564085242, 28.718371409773738], [-81.29418347417395, 28.718316076753645], [-81.29409620733568, 28.718310610099284], [-81.29402747364004, 28.718288677302294], [-81.29396500749013, 28.71825007667139], [-81.29390887356465, 28.71812907667503], [-81.29390475568738, 28.718039757854058], [-81.29368832278935, 28.71780660051107], [-81.29353841732463, 28.71729977596382], [-81.29340992589964, 28.71683578076017], [-81.29341706481121, 28.716550245863292], [-81.29344561866084, 28.716029142844057], [-81.29344561866084, 28.715615116041146]]}, "properties": {"OBJECTID": 19645158, "id3dhp": "CHD4A", "featuredate": 1694649600000, "mainstemid": "https://geoconnex.us/usgs/mainstems/10115732", "gnisid": null, "gnisidlabel": null, "featuretype": 1, "featuretypelabel": "Channel Line", "lengthkm": 1.3886656800000001, "waterbodyid3dhp": null, "flowdirection": 1, "flowdirectionlabel": "Flow direction is in digitized direction, and z-values on vertices flow downslope", "onsurface": 1, "onsurfacelabel": "Feature is on the land surface", "catchmentid3dhp": "", "flowpathid3dhp": null, "streamlevel": 4, "startflag": 0, "terminalflag": 0, "streamorder": 1, "streamcalculator": 1, "hydrosequence": 9802304, "dnhydrosequence": 9788628, "uphydrosequence": 9816089, "dnlevelpath": 9719304, "uplevelpath": 9802304, "pathlength": 302.47386381999996, "arbolatesum": 3.13266162, "divergence": 0, "divergencelabel": "No divergence", "rtrndivergence": 0, "levelpath": 9802304, "terminalpath": 52, "workunitid": "NHD", "Shape__Length": 1589.8529796351345}}, {"type": "Feature", "id": 19778653, "geometry": {"type": "LineString", "coordinates": [[-81.28221098768032, 28.6681193372828], [-81.279242601842, 28.671487666050883]]}, "properties": {"OBJECTID": 19778653, "id3dhp": "CK7C", "featuredate": 1694649600000, "mainstemid": "https://geoconnex.us/usgs/mainstems/1310786", "gnisid": null, "gnisidlabel": null, "featuretype": 5, "featuretypelabel": "Waterbody Connector", "lengthkm": 0.47258972000000005, "waterbodyid3dhp": "IP98V", "flowdirection": 1, "flowdirectionlabel": "Flow direction is in digitized direction, and z-values on vertices flow downslope", "onsurface": 1, "onsurfacelabel": "Feature is on the land surface", "catchmentid3dhp": "", "flowpathid3dhp": null, "streamlevel": 5, "startflag": 1, "terminalflag": 0, "streamorder": 1, "streamcalculator": 1, "hydrosequence": 9913529, "dnhydrosequence": 9899641, "uphydrosequence": 0, "dnlevelpath": 9843613, "uplevelpath": 0, "pathlength": 308.98955399000005, "arbolatesum": 0.47258972000000005, "divergence": 0, "divergencelabel": "No divergence", "rtrndivergence": 0, "levelpath": 9843613, "terminalpath": 52, "workunitid": "NHD", "Shape__Length": 540.2056131775281}}, {"type": "Feature", "id": 19829798, "geometry": {"type": "LineString", "coordinates": [[-81.29458628323894, 28.697688734746873], [-81.2943621104564, 28.697627005852286], [-81.29410544830502, 28.697510046363806], [-81.29386827959527, 28.697406082001613], [-81.29370908465219, 28.69728912226626], [-81.29348166356161, 28.697110433988932], [-81.29326398919186, 28.69696098564948], [-81.29303331799655, 28.69686676802276], [-81.29262395841654, 28.69682128359367], [-81.29236404885539, 28.696857021529897], [-81.29208863616905, 28.69700049321704], [-81.29197153897513, 28.69703247165794], [-81.29090447246995, 28.69699380487328], [-81.2905364057486, 28.69695520505231], [-81.29021807155797, 28.696894537918414], [-81.2899310059258, 28.696801071962778], [-81.28964400587061, 28.696680004605913], [-81.28953167154435, 28.696685404624485], [-81.28905753894075, 28.69649820513101], [-81.28883900578158, 28.696426671478765]]}, "properties": {"OBJECTID": 19829798, "id3dhp": "CLB0", "featuredate": 1694649600000, "mainstemid": "https://geoconnex.us/usgs/mainstems/3357393", "gnisid": 282997, "gnisidlabel": "Gee Creek", "featuretype": 1, "featuretypelabel": "Channel Line", "lengthkm": 0.60691174, "waterbodyid3dhp": null, "flowdirection": 1, "flowdirectionlabel": "Flow direction is in digitized direction, and z-values on vertices flow downslope", "onsurface": 1, "onsurfacelabel": "Feature is on the land surface", "catchmentid3dhp": "", "flowpathid3dhp": null, "streamlevel": 4, "startflag": 0, "terminalflag": 0, "streamorder": 2, "streamcalculator": 2, "hydrosequence": 9899642, "dnhydrosequence": 9885627, "uphydrosequence": 9913530, "dnlevelpath": 9774840, "uplevelpath": 9774840, "pathlength": 304.65584149, "arbolatesum": 10.168143050000001, "divergence": 0, "divergencelabel": "No divergence", "rtrndivergence": 0, "levelpath": 9774840, "terminalpath": 52, "workunitid": "NHD", "Shape__Length": 690.9207432057011}}, {"type": "Feature", "id": 19872201, "geometry": {"type": "LineString", "coordinates": [[-81.25846826139613, 28.668008998774138], [-81.25807486128545, 28.668564598791903], [-81.25798126132442, 28.668652598633454], [-81.25735099523625, 28.669004466421516], [-81.25708259569734, 28.66923539945889], [-81.25667686081948, 28.669642466437473], [-81.25637099524504, 28.66986246600431], [-81.25610266128315, 28.669999866286908], [-81.25597786103565, 28.670082399690386], [-81.25537239473752, 28.67057186634749], [-81.254873721957, 28.670720276493388], [-81.254690616556, 28.670829018460694], [-81.2545021913319, 28.671071279807578], [-81.25458586041748, 28.671380399431698]]}, "properties": {"OBJECTID": 19872201, "id3dhp": "CM7YU", "featuredate": 1694649600000, "mainstemid": "https://geoconnex.us/ref/mainstems/2502017", "gnisid": 284357, "gnisidlabel": "Howell Creek", "featuretype": 1, "featuretypelabel": "Channel Line", "lengthkm": 0.5609085300000001, "waterbodyid3dhp": null, "flowdirection": 1, "flowdirectionlabel": "Flow direction is in digitized direction, and z-values on vertices flow downslope", "onsurface": 1, "onsurfacelabel": "Feature is on the land surface", "catchmentid3dhp": "", "flowpathid3dhp": null, "streamlevel": 2, "startflag": 0, "terminalflag": 0, "streamorder": 3, "streamcalculator": 3, "hydrosequence": 9913534, "dnhydrosequence": 9899646, "uphydrosequence": 9927441, "dnlevelpath": 9442006, "uplevelpath": 9442006, "pathlength": 303.50240413, "arbolatesum": 47.53142253, "divergence": 0, "divergencelabel": "No divergence", "rtrndivergence": 0, "levelpath": 9442006, "terminalpath": 52, "workunitid": "NHD", "Shape__Length": 640.286749315611}}, {"type": "Feature", "id": 21010172, "geometry": {"type": "LineString", "coordinates": [[-81.29056067283767, 28.703608472859553], [-81.29070796150997, 28.703911464880726]]}, "properties": {"OBJECTID": 21010172, "id3dhp": "DAJMI", "featuredate": 1694649600000, "mainstemid": "https://geoconnex.us/usgs/mainstems/3357393", "gnisid": 282997, "gnisidlabel": "Gee Creek", "featuretype": 4, "featuretypelabel": "Surface Connector", "lengthkm": 0.03648922, "waterbodyid3dhp": null, "flowdirection": 1, "flowdirectionlabel": "Flow direction is in digitized direction, and z-values on vertices flow downslope", "onsurface": 1, "onsurfacelabel": "Feature is on the land surface", "catchmentid3dhp": "", "flowpathid3dhp": null, "streamlevel": 4, "startflag": 0, "terminalflag": 0, "streamorder": 2, "streamcalculator": 2, "hydrosequence": 9816086, "dnhydrosequence": 9802301, "uphydrosequence": 9829798, "dnlevelpath": 9774840, "uplevelpath": 9774840, "pathlength": 303.56534030999995, "arbolatesum": 16.688690230000002, "divergence": 0, "divergencelabel": "No divergence", "rtrndivergence": 0, "levelpath": 9774840, "terminalpath": 52, "workunitid": "NHD", "Shape__Length": 41.80398276220243}}, {"type": "Feature", "id": 21238143, "geometry": {"type": "LineString", "coordinates": [[-81.28763407123648, 28.701403806484976], [-81.28765207167814, 28.70163727301728], [-81.2877706052782, 28.702066473315195], [-81.2878952716767, 28.70263880645369], [-81.28803880539111, 28.702765406086453], [-81.28828847146308, 28.70284807361858], [-81.28855880776973, 28.703044642071635], [-81.28895918060365, 28.703072254317757], [-81.28941477647136, 28.703210313863284], [-81.28973231475462, 28.703334568716762], [-81.29016029910544, 28.70340359755127], [-81.29042133335733, 28.7034576044984], [-81.29056067283767, 28.703608472859553]]}, "properties": {"OBJECTID": 21238143, "id3dhp": "DFF6Q", "featuredate": 1694649600000, "mainstemid": "https://geoconnex.us/usgs/mainstems/3357393", "gnisid": 282997, "gnisidlabel": "Gee Creek", "featuretype": 1, "featuretypelabel": "Channel Line", "lengthkm": 0.43026818, "waterbodyid3dhp": null, "flowdirection": 1, "flowdirectionlabel": "Flow direction is in digitized direction, and z-values on vertices flow downslope", "onsurface": 1, "onsurfacelabel": "Feature is on the land surface", "catchmentid3dhp": "", "flowpathid3dhp": null, "streamlevel": 4, "startflag": 0, "terminalflag": 0, "streamorder": 2, "streamcalculator": 2, "hydrosequence": 9829798, "dnhydrosequence": 9816086, "uphydrosequence": 9843614, "dnlevelpath": 9774840, "uplevelpath": 9774840, "pathlength": 303.60182953000003, "arbolatesum": 16.65220101, "divergence": 0, "divergencelabel": "No divergence", "rtrndivergence": 0, "levelpath": 9774840, "terminalpath": 52, "workunitid": "NHD", "Shape__Length": 491.16212364218325}}, {"type": "Feature", "id": 21664048, "geometry": {"type": "LineString", "coordinates": [[-81.29344561866084, 28.715615116041146], [-81.29338781566555, 28.715454004988505], [-81.29325662031157, 28.715273612123212], [-81.29309262656825, 28.71511508544745], [-81.29294503246875, 28.715038553856658], [-81.29273730694077, 28.715076820052936], [-81.29257878034427, 28.715169750497562], [-81.2925133425674, 28.715344207180983], [-81.29239838695712, 28.715410274487745], [-81.29222345981847, 28.71545947258011], [-81.29207012997588, 28.715523646641945], [-81.29194327258641, 28.715515209696292], [-81.29096522104103, 28.71562370975816], [-81.29042600819007, 28.715827656701332], [-81.29000470461, 28.715881786439567]]}, "properties": {"OBJECTID": 21664048, "id3dhp": "DOITK", "featuredate": 1694649600000, "mainstemid": "https://geoconnex.us/ref/mainstems/2502587", "gnisid": 291323, "gnisidlabel": "Soldier Creek", "featuretype": 1, "featuretypelabel": "Channel Line", "lengthkm": 0.39865815, "waterbodyid3dhp": null, "flowdirection": 1, "flowdirectionlabel": "Flow direction is in digitized direction, and z-values on vertices flow downslope", "onsurface": 1, "onsurfacelabel": "Feature is on the land surface", "catchmentid3dhp": "", "flowpathid3dhp": null, "streamlevel": 3, "startflag": 0, "terminalflag": 0, "streamorder": 2, "streamcalculator": 2, "hydrosequence": 9788628, "dnhydrosequence": 9774841, "uphydrosequence": 9802303, "dnlevelpath": 9719304, "uplevelpath": 9719304, "pathlength": 302.07520567, "arbolatesum": 14.26756585, "divergence": 0, "divergencelabel": "No divergence", "rtrndivergence": 0, "levelpath": 9719304, "terminalpath": 52, "workunitid": "NHD", "Shape__Length": 454.3554637645102}}, {"type": "Feature", "id": 21918745, "geometry": {"type": "LineString", "coordinates": [[-81.31039387710645, 28.686034468597736], [-81.31021301120548, 28.686018069090096], [-81.30985741130361, 28.686040068544376], [-81.30968261082742, 28.68606206878206], [-81.3093268770766, 28.686078601464743], [-81.3088900766596, 28.686023468870587], [-81.3087840772527, 28.686034468597736], [-81.30867801047215, 28.686067468560285], [-81.30852187698756, 28.68613906918355], [-81.3083846763959, 28.68624906864572], [-81.30820987681804, 28.686491202128412], [-81.3080040763797, 28.686722269200963]]}, "properties": {"OBJECTID": 21918745, "id3dhp": "DTZ7O", "featuredate": 1694649600000, "mainstemid": "https://geoconnex.us/usgs/mainstems/3357393", "gnisid": 282997, "gnisidlabel": "Gee Creek", "featuretype": 1, "featuretypelabel": "Channel Line", "lengthkm": 0.26921268, "waterbodyid3dhp": null, "flowdirection": 1, "flowdirectionlabel": "Flow direction is in digitized direction, and z-values on vertices flow downslope", "onsurface": 1, "onsurfacelabel": "Feature is on the land surface", "catchmentid3dhp": "", "flowpathid3dhp": null, "streamlevel": 4, "startflag": 0, "terminalflag": 0, "streamorder": 2, "streamcalculator": 2, "hydrosequence": 10009932, "dnhydrosequence": 9996345, "uphydrosequence": 10023534, "dnlevelpath": 9774840, "uplevelpath": 9774840, "pathlength": 307.44710316, "arbolatesum": 6.84488138, "divergence": 0, "divergencelabel": "No divergence", "rtrndivergence": 0, "levelpath": 9774840, "terminalpath": 52, "workunitid": "NHD", "Shape__Length": 306.65486008616733}}, {"type": "Feature", "id": 22147182, "geometry": {"type": "LineString", "coordinates": [[-81.2598187832044, 28.66698758587893], [-81.25975386195881, 28.6670134657078], [-81.25955529116189, 28.667135671633233]]}, "properties": {"OBJECTID": 22147182, "id3dhp": "DYV3H", "featuredate": 1694649600000, "mainstemid": "https://geoconnex.us/ref/mainstems/2502017", "gnisid": 284357, "gnisidlabel": "Howell Creek", "featuretype": 1, "featuretypelabel": "Channel Line", "lengthkm": 0.03065719, "waterbodyid3dhp": null, "flowdirection": 1, "flowdirectionlabel": "Flow direction is in digitized direction, and z-values on vertices flow downslope", "onsurface": 1, "onsurfacelabel": "Feature is on the land surface", "catchmentid3dhp": "", "flowpathid3dhp": null, "streamlevel": 2, "startflag": 0, "terminalflag": 0, "streamorder": 3, "streamcalculator": 3, "hydrosequence": 9955057, "dnhydrosequence": 9941203, "uphydrosequence": 9968985, "dnlevelpath": 9442006, "uplevelpath": 9442006, "pathlength": 304.2074513, "arbolatesum": 46.82637536, "divergence": 0, "divergencelabel": "No divergence", "rtrndivergence": 0, "levelpath": 9442006, "terminalpath": 52, "workunitid": "NHD", "Shape__Length": 34.93805855704935}}, {"type": "Feature", "id": 22253071, "geometry": {"type": "LineString", "coordinates": [[-81.30466701027068, 28.694209870733303], [-81.30434067568416, 28.694249004252647], [-81.30410567550751, 28.69430127129936], [-81.30380541003055, 28.694353471340325], [-81.30346587559923, 28.694405604375586], [-81.30313947543569, 28.694418737114777], [-81.30234307491887, 28.69453627135395], [-81.30214400915023, 28.694975671381748]]}, "properties": {"OBJECTID": 22253071, "id3dhp": "E144S", "featuredate": 1694649600000, "mainstemid": "https://geoconnex.us/usgs/mainstems/6248637", "gnisid": null, "gnisidlabel": null, "featuretype": 1, "featuretypelabel": "Channel Line", "lengthkm": 0.28300000000000003, "waterbodyid3dhp": null, "flowdirection": 1, "flowdirectionlabel": "Flow direction is in digitized direction, and z-values on vertices flow downslope", "onsurface": 1, "onsurfacelabel": "Feature is on the land surface", "catchmentid3dhp": "", "flowpathid3dhp": null, "streamlevel": 5, "startflag": 0, "terminalflag": 0, "streamorder": 1, "streamcalculator": 1, "hydrosequence": 9982735, "dnhydrosequence": 9968980, "uphydrosequence": 9996344, "dnlevelpath": 9774840, "uplevelpath": 9982735, "pathlength": 306.17254436, "arbolatesum": 0.532, "divergence": 0, "divergencelabel": "No divergence", "rtrndivergence": 0, "levelpath": 9982735, "terminalpath": 52, "workunitid": "NHD", "Shape__Length": 322.3776575641166}}, {"type": "Feature", "id": 22708125, "geometry": {"type": "LineString", "coordinates": [[-81.25682319727758, 28.723913212097486], [-81.25700499652815, 28.713878676750447]]}, "properties": {"OBJECTID": 22708125, "id3dhp": "EAUHA", "featuredate": 1694649600000, "mainstemid": "https://geoconnex.us/usgs/mainstems/3339300", "gnisid": null, "gnisidlabel": null, "featuretype": 5, "featuretypelabel": "Waterbody Connector", "lengthkm": 1.11, "waterbodyid3dhp": "IP9V4", "flowdirection": 1, "flowdirectionlabel": "Flow direction is in digitized direction, and z-values on vertices flow downslope", "onsurface": 1, "onsurfacelabel": "Feature is on the land surface", "catchmentid3dhp": "", "flowpathid3dhp": null, "streamlevel": 4, "startflag": 0, "terminalflag": 0, "streamorder": 1, "streamcalculator": 1, "hydrosequence": 9733147, "dnhydrosequence": 9719304, "uphydrosequence": 9747030, "dnlevelpath": 9719304, "uplevelpath": 9733147, "pathlength": 298.79989528, "arbolatesum": 2.418, "divergence": 0, "divergencelabel": "No divergence", "rtrndivergence": 0, "levelpath": 9733147, "terminalpath": 52, "workunitid": "NHD", "Shape__Length": 1273.883666015621}}, {"type": "Feature", "id": 23741572, "geometry": {"type": "LineString", "coordinates": [[-81.31467447879268, 28.68640320151054], [-81.3143812120901, 28.686359201961903], [-81.31391947803405, 28.686232668383614], [-81.31359501194332, 28.686221668677327], [-81.31341407866869, 28.68624366887686], [-81.31323307802039, 28.68619966847311], [-81.31308341240586, 28.686144602139652], [-81.31297727825168, 28.686128201861234], [-81.31253421208555, 28.686155601854068], [-81.3121224117829, 28.686249201827415], [-81.31194147760995, 28.686260201530864], [-81.31174167791771, 28.686254668580883], [-81.31157327793792, 28.686232669171677], [-81.31129247805484, 28.686166601567354]]}, "properties": {"OBJECTID": 23741572, "id3dhp": "EWYAW", "featuredate": 1694649600000, "mainstemid": "https://geoconnex.us/usgs/mainstems/3357393", "gnisid": 282997, "gnisidlabel": "Gee Creek", "featuretype": 1, "featuretypelabel": "Channel Line", "lengthkm": 0.33849140000000005, "waterbodyid3dhp": null, "flowdirection": 1, "flowdirectionlabel": "Flow direction is in digitized direction, and z-values on vertices flow downslope", "onsurface": 1, "onsurfacelabel": "Feature is on the land surface", "catchmentid3dhp": "", "flowpathid3dhp": null, "streamlevel": 4, "startflag": 0, "terminalflag": 0, "streamorder": 2, "streamcalculator": 2, "hydrosequence": 10037122, "dnhydrosequence": 10023534, "uphydrosequence": 10050713, "dnlevelpath": 9774840, "uplevelpath": 9774840, "pathlength": 307.80550786, "arbolatesum": 6.48647668, "divergence": 0, "divergencelabel": "No divergence", "rtrndivergence": 0, "levelpath": 9774840, "terminalpath": 52, "workunitid": "NHD", "Shape__Length": 384.9796923661832}}, {"type": "Feature", "id": 25669598, "geometry": {"type": "LineString", "coordinates": [[-81.26502486522894, 28.724939679326273], [-81.26617066547551, 28.72416981251851], [-81.26612019991948, 28.716356876955818]]}, "properties": {"OBJECTID": 25669598, "id3dhp": "G26JH", "featuredate": 1694649600000, "mainstemid": "https://geoconnex.us/usgs/mainstems/4375070", "gnisid": null, "gnisidlabel": null, "featuretype": 5, "featuretypelabel": "Waterbody Connector", "lengthkm": 1.005, "waterbodyid3dhp": "IP9V4", "flowdirection": 1, "flowdirectionlabel": "Flow direction is in digitized direction, and z-values on vertices flow downslope", "onsurface": 1, "onsurfacelabel": "Feature is on the land surface", "catchmentid3dhp": "", "flowpathid3dhp": null, "streamlevel": 4, "startflag": 0, "terminalflag": 0, "streamorder": 2, "streamcalculator": 2, "hydrosequence": 9747029, "dnhydrosequence": 9733146, "uphydrosequence": 9760933, "dnlevelpath": 9719304, "uplevelpath": 9747029, "pathlength": 299.73289528, "arbolatesum": 11.05021007, "divergence": 0, "divergencelabel": "No divergence", "rtrndivergence": 0, "levelpath": 9747029, "terminalpath": 52, "workunitid": "NHD", "Shape__Length": 1152.4403240847735}}, {"type": "Feature", "id": 26014754, "geometry": {"type": "LineString", "coordinates": [[-81.28883900578158, 28.696426671478765], [-81.28865180496119, 28.696437671688855], [-81.28862687132218, 28.696454205097034], [-81.28858320511453, 28.696448671897848], [-81.28840840553666, 28.696476271700696], [-81.28837062868402, 28.696512326522658]]}, "properties": {"OBJECTID": 26014754, "id3dhp": "G9KZM", "featuredate": 1694649600000, "mainstemid": "https://geoconnex.us/usgs/mainstems/3357393", "gnisid": 282997, "gnisidlabel": "Gee Creek", "featuretype": 1, "featuretypelabel": "Channel Line", "lengthkm": 0.048559780000000004, "waterbodyid3dhp": null, "flowdirection": 1, "flowdirectionlabel": "Flow direction is in digitized direction, and z-values on vertices flow downslope", "onsurface": 1, "onsurfacelabel": "Feature is on the land surface", "catchmentid3dhp": "", "flowpathid3dhp": null, "streamlevel": 4, "startflag": 0, "terminalflag": 0, "streamorder": 2, "streamcalculator": 2, "hydrosequence": 9885627, "dnhydrosequence": 9871612, "uphydrosequence": 9899642, "dnlevelpath": 9774840, "uplevelpath": 9774840, "pathlength": 304.60728171, "arbolatesum": 10.21670283, "divergence": 0, "divergencelabel": "No divergence", "rtrndivergence": 0, "levelpath": 9774840, "terminalpath": 52, "workunitid": "NHD", "Shape__Length": 55.26246722900875}}, {"type": "Feature", "id": 29607691, "geometry": {"type": "LineString", "coordinates": [[-81.30227345997592, 28.691365092135044], [-81.30226287512693, 28.691377070020252], [-81.30163260903876, 28.692042870435902], [-81.30124560852616, 28.692807603426388], [-81.3011644089093, 28.693385403934652], [-81.30115187471615, 28.693622004112957], [-81.30118307500258, 28.693825603885625], [-81.30118307500258, 28.693946670604053], [-81.30129527458158, 28.69410620410847], [-81.30174467476877, 28.694546404180354], [-81.3019380092859, 28.694684003752922], [-81.30205660936129, 28.69483807140464], [-81.30214400915023, 28.694975671381748]]}, "properties": {"OBJECTID": 29607691, "id3dhp": "M90O", "featuredate": 1694649600000, "mainstemid": "https://geoconnex.us/usgs/mainstems/3357393", "gnisid": 282997, "gnisidlabel": "Gee Creek", "featuretype": 1, "featuretypelabel": "Channel Line", "lengthkm": 0.46599747, "waterbodyid3dhp": null, "flowdirection": 1, "flowdirectionlabel": "Flow direction is in digitized direction, and z-values on vertices flow downslope", "onsurface": 1, "onsurfacelabel": "Feature is on the land surface", "catchmentid3dhp": "", "flowpathid3dhp": null, "streamlevel": 4, "startflag": 0, "terminalflag": 0, "streamorder": 2, "streamcalculator": 2, "hydrosequence": 9982736, "dnhydrosequence": 9968980, "uphydrosequence": 9996345, "dnlevelpath": 9774840, "uplevelpath": 9774840, "pathlength": 306.17254436, "arbolatesum": 8.11944018, "divergence": 0, "divergencelabel": "No divergence", "rtrndivergence": 0, "levelpath": 9774840, "terminalpath": 52, "workunitid": "NHD", "Shape__Length": 533.3701463557601}}]}