{
"type": "FeatureCollection",
"name": "watershed",
"crs": { "type": "name", "properties": { "name": "urn:ogc:def:crs:OGC:1.3:CRS84" } },
"features": [
{ "type": "Feature", "properties": { }, "geometry": { "type": "MultiPolygon", "coordinates": [ [ [ [ -81.270245836544788, 28.706743960455611 ], [ -81.270260971669856, 28.706658248903764 ], [ -81.270067241026837, 28.706631464044893 ], [ -81.270082376313709, 28.706545752493799 ], [ -81.269985511134792, 28.706532359943321 ], [ -81.270000646487119, 28.706446648382308 ], [ -81.269710051424497, 28.70640647023631 ], [ -81.269725187034936, 28.706320758686726 ], [ -81.269822051928628, 28.706334151479123 ], [ -81.269837187411895, 28.706248439898086 ], [ -81.269934052240117, 28.706261832591917 ], [ -81.270009728711997, 28.705833274322103 ], [ -81.269912864365367, 28.705819881681979 ], [ -81.269927999663494, 28.705734169976555 ], [ -81.269831135444051, 28.705720777259383 ], [ -81.269861406140407, 28.70554935380785 ], [ -81.269764542144443, 28.705535961024335 ], [ -81.269779677542658, 28.705450249278233 ], [ -81.269682813673867, 28.705436856417663 ], [ -81.269697949137552, 28.705351144661567 ], [ -81.269601085395934, 28.705337751723913 ], [ -81.269631356423361, 28.705166328171021 ], [ -81.269534492905237, 28.705152935167018 ], [ -81.269549628468994, 28.705067223370246 ], [ -81.269452765078043, 28.705053830289177 ], [ -81.269467900707255, 28.704968118482419 ], [ -81.269371037443491, 28.704954725324278 ], [ -81.269416444434967, 28.704697589811779 ], [ -81.269610170415461, 28.704724375975758 ], [ -81.269640441203578, 28.704552952154099 ], [ -81.269737304047482, 28.704566345082885 ], [ -81.269873520199909, 28.703794936762616 ], [ -81.269970382207802, 28.703808329506842 ], [ -81.269985517085274, 28.70372261735687 ], [ -81.270179241001003, 28.703749402560433 ], [ -81.27022464487041, 28.703492265921597 ], [ -81.270127783186055, 28.703478873395941 ], [ -81.270142917843799, 28.703393161152285 ], [ -81.270046056286631, 28.703379768549574 ], [ -81.27016713320846, 28.702694069939781 ], [ -81.269779690370299, 28.702640498994537 ], [ -81.269764555477792, 28.702726211350388 ], [ -81.269570834051208, 28.702699425329421 ], [ -81.26958596913633, 28.702613712995081 ], [ -81.269198527038625, 28.702560139942342 ], [ -81.269213662478151, 28.702474427630253 ], [ -81.269116802127172, 28.702461034158269 ], [ -81.26916220854956, 28.702203897129841 ], [ -81.269065348518367, 28.702190503602239 ], [ -81.2690804840271, 28.702104791228702 ], [ -81.268789904407569, 28.702064610151361 ], [ -81.268774768609916, 28.702150322492653 ], [ -81.268677908702131, 28.702136928613854 ], [ -81.26866277277729, 28.702222640923665 ], [ -81.26856591280405, 28.702209246946303 ], [ -81.268550776752065, 28.702294959224641 ], [ -81.268357056705526, 28.702268170984979 ], [ -81.268341920430046, 28.702353883221072 ], [ -81.268051340302719, 28.702313700170713 ], [ -81.268081613400682, 28.702142275742201 ], [ -81.267887893855317, 28.702115486645859 ], [ -81.267903030550627, 28.702029774421966 ], [ -81.267709311321298, 28.702002984995875 ], [ -81.267694174433373, 28.702088697198242 ], [ -81.267500455134837, 28.702061907399411 ], [ -81.267485318023432, 28.70214761955954 ], [ -81.267388458324135, 28.702134224517675 ], [ -81.267418732708734, 28.70196280019811 ], [ -81.267321873232916, 28.701949405089909 ], [ -81.267337010475245, 28.701863692909747 ], [ -81.267143291808821, 28.70183690245138 ], [ -81.267173566586123, 28.701665478071885 ], [ -81.267076707491825, 28.701652082732462 ], [ -81.267091844930491, 28.701566370522297 ], [ -81.26699498596335, 28.701552975105873 ], [ -81.267010123467486, 28.70146726288576 ], [ -81.26691326462749, 28.701453867392207 ], [ -81.266928402197081, 28.701368155162104 ], [ -81.266831543484258, 28.701354759591482 ], [ -81.266846681119304, 28.701269047351406 ], [ -81.26674982253364, 28.701255651703697 ], [ -81.266764960234127, 28.701169939453624 ], [ -81.266668101775636, 28.70115654372885 ], [ -81.266683239541578, 28.701070831468787 ], [ -81.26658638121026, 28.701057435666964 ], [ -81.266601519041643, 28.700971723396901 ], [ -81.266407802664176, 28.70094493155128 ], [ -81.266422940657321, 28.700859219282034 ], [ -81.266326082611172, 28.700845823238208 ], [ -81.266341220669773, 28.700760110958921 ], [ -81.266147504862673, 28.700733318629432 ], [ -81.266162643083021, 28.700647606350877 ], [ -81.26606578532207, 28.700634210065157 ], [ -81.266080923607873, 28.700548497776623 ], [ -81.265984065974081, 28.700535101413823 ], [ -81.265999204325325, 28.700449389115295 ], [ -81.265902346818706, 28.700435992675452 ], [ -81.265917485235391, 28.700350280366937 ], [ -81.265820627855931, 28.700336883849953 ], [ -81.265835766338057, 28.70025117153147 ], [ -81.265738909085769, 28.700237774937452 ], [ -81.265754047633351, 28.700152062608957 ], [ -81.265657190508207, 28.700138665937899 ], [ -81.265672329121244, 28.700052953599393 ], [ -81.265575472123274, 28.700039556851262 ], [ -81.265590610801752, 28.699953844502783 ], [ -81.265493753930926, 28.699940447677569 ], [ -81.265524031387926, 28.699769022939812 ], [ -81.265233461538458, 28.699728832001885 ], [ -81.26524860050958, 28.69964311963415 ], [ -81.265151744051096, 28.699629722489945 ], [ -81.265166883087659, 28.699544010112231 ], [ -81.264876314186324, 28.69950381818499 ], [ -81.264861174860854, 28.699589530530535 ], [ -81.264570605948336, 28.699549337780759 ], [ -81.264600885146237, 28.699377913133489 ], [ -81.264310317089269, 28.699337719657933 ], [ -81.264325456930834, 28.69925200733541 ], [ -81.26442231282266, 28.699265405237689 ], [ -81.264437452537052, 28.699179692883725 ], [ -81.264534308363437, 28.699193090687363 ], [ -81.264579727032569, 28.69893595346867 ], [ -81.264676582600913, 28.698949351152365 ], [ -81.264691721999284, 28.698863638693918 ], [ -81.264788577502173, 28.698877036279001 ], [ -81.264803716773372, 28.69879132378902 ], [ -81.264706861366761, 28.698777926214674 ], [ -81.264722000703415, 28.698692213714764 ], [ -81.264625145423963, 28.698678816063335 ], [ -81.264640284826058, 28.698593103553407 ], [ -81.264543429673779, 28.698579705824947 ], [ -81.26457370857797, 28.698408280764323 ], [ -81.264379998751181, 28.698381485086927 ], [ -81.264410277917136, 28.69821005998638 ], [ -81.264216568598997, 28.698183264000708 ], [ -81.264231708328282, 28.698097551440764 ], [ -81.264134853811782, 28.698084153326974 ], [ -81.264149993606509, 28.697998440757029 ], [ -81.264053139217182, 28.697985042566195 ], [ -81.26406827907735, 28.69789932998631 ], [ -81.263971424815168, 28.697885931718385 ], [ -81.264016844499395, 28.69762879388637 ], [ -81.263823136645428, 28.697601997151594 ], [ -81.263838276671038, 28.697516284520923 ], [ -81.26364456913312, 28.697489487456377 ], [ -81.263705129697342, 28.69714663681231 ], [ -81.26380198306569, 28.697160035345497 ], [ -81.263817123033292, 28.697074322621869 ], [ -81.263913976336198, 28.697087721056484 ], [ -81.263944255986246, 28.69691629552549 ], [ -81.263847402875925, 28.696902897112317 ], [ -81.263862542750971, 28.696817184326449 ], [ -81.263959395764985, 28.696830582728857 ], [ -81.263974535512858, 28.696744869911505 ], [ -81.264071388461446, 28.696758268215344 ], [ -81.26408652808216, 28.696672555366472 ], [ -81.26398967522988, 28.696659157073388 ], [ -81.264050233789348, 28.696316305513506 ], [ -81.264147086256457, 28.69632970376361 ], [ -81.26416222572287, 28.696243990811006 ], [ -81.264065373352068, 28.696230592571634 ], [ -81.264080512883936, 28.696144879609079 ], [ -81.264177365158446, 28.696158277837711 ], [ -81.264192504563169, 28.696072564843622 ], [ -81.264289356772238, 28.69608596297369 ], [ -81.264319635296502, 28.6959145369018 ], [ -81.26422278327999, 28.695901138793214 ], [ -81.264253061873404, 28.695729712659805 ], [ -81.264156210080358, 28.69571631448493 ], [ -81.264171349427073, 28.695630601397852 ], [ -81.263977646126136, 28.695603804806126 ], [ -81.264053343359748, 28.695175239166982 ], [ -81.263956492237028, 28.695161840793137 ], [ -81.263971631687468, 28.695076127613806 ], [ -81.263874780691907, 28.695062729162903 ], [ -81.263889920207774, 28.694977015973585 ], [ -81.263793069339343, 28.694963617445566 ], [ -81.263838487990697, 28.69470647778536 ], [ -81.263935338570249, 28.694719876281095 ], [ -81.26395047796268, 28.694634163008743 ], [ -81.264047328476806, 28.694647561405947 ], [ -81.264062467742093, 28.694561848102143 ], [ -81.264256168670315, 28.694588644611599 ], [ -81.264271307712164, 28.694502931265546 ], [ -81.264174457328934, 28.694489533065447 ], [ -81.264204735512635, 28.694318106332567 ], [ -81.264301585703308, 28.69433150451119 ], [ -81.264316724652588, 28.694245791102873 ], [ -81.264413574777834, 28.694259189182954 ], [ -81.264428713599969, 28.694173475743117 ], [ -81.264622413750416, 28.694200271618303 ], [ -81.264637552349114, 28.694114558136295 ], [ -81.264734402374344, 28.694127955931414 ], [ -81.264719263871939, 28.694213669424187 ], [ -81.264816114024299, 28.694227067142265 ], [ -81.26480097558732, 28.694312780625065 ], [ -81.265382077727239, 28.694393165154011 ], [ -81.265397215586475, 28.694307451606747 ], [ -81.265687766784097, 28.694347642653653 ], [ -81.265763454173083, 28.693919074445013 ], [ -81.265957154162862, 28.693945867929827 ], [ -81.26597229135551, 28.693860154204319 ], [ -81.266747091778413, 28.693967324545195 ], [ -81.266716818902907, 28.694138752147257 ], [ -81.267104220625143, 28.694192335296243 ], [ -81.267119356693144, 28.694106621462591 ], [ -81.267700459624265, 28.694186993487421 ], [ -81.267730730512227, 28.694015565629027 ], [ -81.267633880139186, 28.694002170532521 ], [ -81.267679286528647, 28.693745028621553 ], [ -81.267776136612838, 28.693758423685793 ], [ -81.267791271918, 28.69367270966319 ], [ -81.267694421930088, 28.693659314609704 ], [ -81.267800368876522, 28.69305931594587 ], [ -81.267703519593496, 28.693045920879751 ], [ -81.267779195539774, 28.692617349836773 ], [ -81.26768234676905, 28.69260395473659 ], [ -81.267697481962045, 28.692518240476453 ], [ -81.267600633318466, 28.692504845299172 ], [ -81.267615768576903, 28.692419131029013 ], [ -81.267518920060454, 28.69240573577467 ], [ -81.267549190677357, 28.692234307193672 ], [ -81.267452342384345, 28.692220911873012 ], [ -81.267467477742798, 28.692135197562106 ], [ -81.267370629576916, 28.692121802164348 ], [ -81.26738576500081, 28.692036087843473 ], [ -81.267192068954174, 28.692009296806049 ], [ -81.267207204539801, 28.691923582485884 ], [ -81.267110356659032, 28.691910186846243 ], [ -81.267140627930317, 28.691738758165076 ], [ -81.267043780272985, 28.691725362459071 ], [ -81.267058915958629, 28.691639648098125 ], [ -81.266962068428413, 28.691626252315071 ], [ -81.266946932646491, 28.691711966665292 ], [ -81.266462694976752, 28.691644986379249 ], [ -81.266447558682557, 28.691730700655018 ], [ -81.266350711144867, 28.691717304323632 ], [ -81.266335574723499, 28.691803018567875 ], [ -81.266238727120395, 28.691789622137993 ], [ -81.266253863638042, 28.691703907904468 ], [ -81.266157016162055, 28.691690511397493 ], [ -81.266172152745128, 28.691604797153943 ], [ -81.265591069114876, 28.691524416332648 ], [ -81.265575931954075, 28.691610130511698 ], [ -81.265479084694064, 28.691596733390092 ], [ -81.265463947406147, 28.691682447537648 ], [ -81.265173405522361, 28.691642255613775 ], [ -81.265158267914714, 28.691727969708349 ], [ -81.265061420585553, 28.691714572214025 ], [ -81.26503114508516, 28.691886000319478 ], [ -81.264837450134237, 28.69185920502445 ], [ -81.264822312145199, 28.691944919024543 ], [ -81.26472546461973, 28.691931521234604 ], [ -81.264680050178612, 28.692188663078138 ], [ -81.26458320239513, 28.692175265168164 ], [ -81.264568064090099, 28.692260979063764 ], [ -81.264180672879633, 28.692207386502705 ], [ -81.264165534158607, 28.692293100334599 ], [ -81.263971838545928, 28.692266303505754 ], [ -81.263986977459538, 28.692180589695386 ], [ -81.263890129795755, 28.692167191160003 ], [ -81.263950685526765, 28.691824335753857 ], [ -81.263853838278976, 28.691810937173628 ], [ -81.263884116151914, 28.691639509367533 ], [ -81.263980963207118, 28.691652907926251 ], [ -81.263996102001002, 28.691567193981307 ], [ -81.263899255042077, 28.691553795433347 ], [ -81.263974949030157, 28.691125225451149 ], [ -81.264071795507661, 28.691138623945388 ], [ -81.264253456776444, 28.690110053742021 ], [ -81.264350302129415, 28.690123452019566 ], [ -81.264395716463568, 28.689866308969513 ], [ -81.264298871399419, 28.689852910724191 ], [ -81.264314009545373, 28.689767196343386 ], [ -81.263926629982478, 28.689713602527032 ], [ -81.263987183798221, 28.689370744968123 ], [ -81.264084028257543, 28.689384143510996 ], [ -81.264099166538074, 28.689298429058613 ], [ -81.264002322175031, 28.689285030526499 ], [ -81.264017460520975, 28.689199316064144 ], [ -81.263533239649945, 28.689132322140427 ], [ -81.263518100822608, 28.689218036549086 ], [ -81.263227568381396, 28.689177839109032 ], [ -81.263197290056496, 28.689349267799663 ], [ -81.262809913129971, 28.689295669897671 ], [ -81.262794773536129, 28.689381384168804 ], [ -81.262504240876396, 28.689341184788201 ], [ -81.262519380759088, 28.689255470549252 ], [ -81.262228848665899, 28.689215270410621 ], [ -81.262213708494372, 28.689300984617343 ], [ -81.262116864428748, 28.689287584384793 ], [ -81.262101724130105, 28.689373298560003 ], [ -81.26171434779107, 28.689319696708768 ], [ -81.261699207076447, 28.689405410820292 ], [ -81.26140867485735, 28.689365208477675 ], [ -81.261423815860795, 28.689279494398424 ], [ -81.261230128061584, 28.68925269241916 ], [ -81.261245269226734, 28.689166978340605 ], [ -81.261148425469685, 28.689153577230059 ], [ -81.261163566700247, 28.68906786314151 ], [ -81.261066723070343, 28.689054461953859 ], [ -81.261097005631441, 28.688883033735998 ], [ -81.261000162224946, 28.688869632482067 ], [ -81.26104558612397, 28.688612490031765 ], [ -81.260948743037162, 28.688599088722281 ], [ -81.260979025674757, 28.688427660339777 ], [ -81.260882182811358, 28.688414258963984 ], [ -81.260897324180149, 28.688328544752295 ], [ -81.26099416694727, 28.688341946117376 ], [ -81.261009308188932, 28.688256231874245 ], [ -81.261202993623215, 28.688283034319515 ], [ -81.26123327562884, 28.688111605727943 ], [ -81.261330118199723, 28.688125006797431 ], [ -81.261375540687908, 28.687867863722165 ], [ -81.261956595028266, 28.687948268101689 ], [ -81.261986875377488, 28.68777683915209 ], [ -81.26189003310283, 28.687763438663165 ], [ -81.261920313521173, 28.687592009652029 ], [ -81.262017155603289, 28.68760541011946 ], [ -81.262077715684583, 28.687262551805066 ], [ -81.261980873987568, 28.68724915138062 ], [ -81.261996014027034, 28.687163436760823 ], [ -81.262092855627785, 28.68717683717454 ], [ -81.262138275272207, 28.686919693158462 ], [ -81.262235116614974, 28.686933093452165 ], [ -81.262250256338476, 28.686847378727904 ], [ -81.262153415091959, 28.686833978444938 ], [ -81.262244253362567, 28.686319689727586 ], [ -81.262147412724545, 28.68630628942126 ], [ -81.26222311091621, 28.68587771497285 ], [ -81.262610471728053, 28.685931315456376 ], [ -81.262701306229388, 28.685417025175202 ], [ -81.262604466557761, 28.685403625250473 ], [ -81.262634744670592, 28.685232195012109 ], [ -81.262537905222345, 28.685218795021093 ], [ -81.262553044328754, 28.685133079881478 ], [ -81.262456205007638, 28.685119679813408 ], [ -81.26250162243052, 28.684862534302294 ], [ -81.262404783429062, 28.684849134178574 ], [ -81.262419922604565, 28.684763418977401 ], [ -81.262323083730251, 28.684750018776686 ], [ -81.262338222971181, 28.684664303565494 ], [ -81.262144545507596, 28.684637502922147 ], [ -81.262189963622873, 28.684380357228381 ], [ -81.26199628686031, 28.684353556298284 ], [ -81.262011426362889, 28.684267841047017 ], [ -81.261624073593097, 28.68421423817616 ], [ -81.261639213449882, 28.684128522947063 ], [ -81.261348699485296, 28.684088319904316 ], [ -81.261363839600037, 28.684002604686661 ], [ -81.260976488464266, 28.683948999443366 ], [ -81.260991628933212, 28.68386328424792 ], [ -81.26089479132267, 28.683849882728417 ], [ -81.260909931857014, 28.683764167522941 ], [ -81.260813094373603, 28.683750765926316 ], [ -81.260828234973346, 28.683665050710808 ], [ -81.260634560291621, 28.683638247275688 ], [ -81.26064970105304, 28.683552532060926 ], [ -81.260552863854727, 28.683539130222382 ], [ -81.260568004681545, 28.683453414997611 ], [ -81.260471167610348, 28.68344001308202 ], [ -81.260486308502578, 28.683354297847199 ], [ -81.260389471558511, 28.683340895854531 ], [ -81.26040461251614, 28.683255180609706 ], [ -81.260501449363957, 28.683268582591602 ], [ -81.260546871762941, 28.683011436700198 ], [ -81.260740544973572, 28.683038240336185 ], [ -81.260725404397306, 28.68312395567553 ], [ -81.260822241145149, 28.683137357372559 ], [ -81.260791960092547, 28.683308788010518 ], [ -81.260888797063785, 28.683322189641245 ], [ -81.260873656587464, 28.683407904939806 ], [ -81.261067330815038, 28.683434707959297 ], [ -81.261052190500379, 28.683520423258571 ], [ -81.261245865043904, 28.683547225948363 ], [ -81.261230724890922, 28.683632941248355 ], [ -81.261618074733278, 28.683686545617341 ], [ -81.261663493944496, 28.683429399526158 ], [ -81.261760331193429, 28.683442800366695 ], [ -81.261820889324724, 28.683099938578074 ], [ -81.261724052460835, 28.683086537780493 ], [ -81.261890585835332, 28.682143666266402 ], [ -81.261987421640342, 28.682157066945823 ], [ -81.26201769984209, 28.68198563546995 ], [ -81.262114535485409, 28.681999036040036 ], [ -81.262129674443756, 28.681913320260225 ], [ -81.262323345630449, 28.681940121115581 ], [ -81.262293068067976, 28.682111552697453 ], [ -81.262389903900115, 28.682124953014927 ], [ -81.262374765168857, 28.682210668785437 ], [ -81.262471601128127, 28.682224069025875 ], [ -81.262426185038009, 28.682481216245073 ], [ -81.262523021316909, 28.68249461642991 ], [ -81.262492743961786, 28.682666047826935 ], [ -81.262395907490358, 28.682652647620632 ], [ -81.262350490937479, 28.682909794528225 ], [ -81.262447327697686, 28.682923194766765 ], [ -81.262386772246956, 28.683266057062436 ], [ -81.262774121136545, 28.683319657310541 ], [ -81.263031471847142, 28.681862489528459 ], [ -81.2631283075102, 28.681875889188415 ], [ -81.263264547528209, 28.681104444894551 ], [ -81.263167712731473, 28.681091045331307 ], [ -81.263182850453262, 28.681005329205579 ], [ -81.263086015783657, 28.680991929565245 ], [ -81.263101153570844, 28.680906213429434 ], [ -81.262810650035888, 28.68086601401389 ], [ -81.262825788081003, 28.680780297889545 ], [ -81.262632119404472, 28.68075349786168 ], [ -81.262647257611263, 28.680667781738048 ], [ -81.262550423415519, 28.680654381603137 ], [ -81.262565561687722, 28.680568665469483 ], [ -81.262371893581317, 28.680541864957778 ], [ -81.262387032015184, 28.68045614882482 ], [ -81.262290198104509, 28.680442748448041 ], [ -81.26230533660376, 28.680357032305036 ], [ -81.262208502820215, 28.680343631851162 ], [ -81.262269056893814, 28.680000767114386 ], [ -81.262656390673058, 28.680054368231136 ], [ -81.262671528729314, 28.679968651952056 ], [ -81.262768362154986, 28.679982052001034 ], [ -81.262783500084126, 28.67989633569039 ], [ -81.263074000257504, 28.679936535278301 ], [ -81.263089137867027, 28.679850818914687 ], [ -81.263185971223592, 28.679864218591 ], [ -81.263246520968181, 28.67952135288586 ], [ -81.263537020067886, 28.679561551259138 ], [ -81.263582431186123, 28.679304401665487 ], [ -81.263679263992287, 28.679317800915456 ], [ -81.263694400873746, 28.679232084331939 ], [ -81.263016572552189, 28.679138287813803 ], [ -81.263001434996937, 28.679224004322126 ], [ -81.262904602406721, 28.679210604457641 ], [ -81.262919740058209, 28.679124887960011 ], [ -81.262822907595094, 28.679111488018457 ], [ -81.262883458277628, 28.678768621863291 ], [ -81.262980290355742, 28.678782021761918 ], [ -81.262965152827633, 28.678867738342593 ], [ -81.263061985032849, 28.678881138164162 ], [ -81.263137671883641, 28.678452554999236 ], [ -81.263234503638429, 28.678465954679311 ], [ -81.263249640819794, 28.678380237973247 ], [ -81.263636967762423, 28.678433835772587 ], [ -81.263621830966073, 28.678519552521582 ], [ -81.263718662875092, 28.678532951762655 ], [ -81.263688389382352, 28.678704385219852 ], [ -81.263978885872035, 28.67874458248081 ], [ -81.263994022345059, 28.678658865730384 ], [ -81.264187686633235, 28.678685663443879 ], [ -81.264202822882908, 28.678599946651214 ], [ -81.264396487101962, 28.678626743992091 ], [ -81.264441895088382, 28.678369593425021 ], [ -81.264345063252193, 28.67835619483067 ], [ -81.264405607187271, 28.678013327159992 ], [ -81.264308775766949, 28.67799992852084 ], [ -81.264414727139595, 28.677399909372298 ], [ -81.264317896423876, 28.677386510720542 ], [ -81.264408711260714, 28.676872207847321 ], [ -81.264311881153347, 28.676858809172138 ], [ -81.264327016947789, 28.676773091964623 ], [ -81.264423846958906, 28.676786490629024 ], [ -81.264454118262748, 28.676615056130192 ], [ -81.263873139813697, 28.676534662955607 ], [ -81.263858003599708, 28.676620380151032 ], [ -81.263761173869895, 28.676606980970597 ], [ -81.263746037528819, 28.676692698134485 ], [ -81.26345554823574, 28.676652500034201 ], [ -81.263440411575061, 28.676738217145086 ], [ -81.263246752008072, 28.6767114179511 ], [ -81.263261888861251, 28.676625700861678 ], [ -81.26297140003085, 28.676585501444539 ], [ -81.262986537141927, 28.676499784366534 ], [ -81.262889707689752, 28.676486384395997 ], [ -81.262904844866242, 28.676400667307952 ], [ -81.263001674222181, 28.6764140672678 ], [ -81.263062222234666, 28.676071198664971 ], [ -81.262965393263713, 28.676057798748058 ], [ -81.263025941167669, 28.67571492985568 ], [ -81.262929112612554, 28.675701529893956 ], [ -81.262944249607656, 28.675615812629633 ], [ -81.263041078066536, 28.675629212580645 ], [ -81.263101625353556, 28.675286343272656 ], [ -81.263198453458287, 28.675299743092889 ], [ -81.263213590106687, 28.675214025703191 ], [ -81.26331041814602, 28.675227425424879 ], [ -81.263325554667318, 28.675141708003693 ], [ -81.263519210646024, 28.675168507162244 ], [ -81.263534346943985, 28.675082789698767 ], [ -81.263921658886517, 28.675136386919473 ], [ -81.263936794768668, 28.675050669392302 ], [ -81.264420934909595, 28.675117663889157 ], [ -81.26440579950868, 28.675203381469995 ], [ -81.264502627725633, 28.67521678011677 ], [ -81.264517763030298, 28.675131062525157 ], [ -81.264905075821574, 28.675184656191217 ], [ -81.264920210710414, 28.675098938535847 ], [ -81.265210695338965, 28.675139132831351 ], [ -81.265225829908204, 28.675053415122992 ], [ -81.265613142793057, 28.675107006245007 ], [ -81.265628276946487, 28.675021288472923 ], [ -81.265725105148547, 28.675034686023213 ], [ -81.265755373170407, 28.674863250395227 ], [ -81.266626826644298, 28.674983824203853 ], [ -81.266641959742742, 28.674898106262091 ], [ -81.266835616217008, 28.674924899454581 ], [ -81.266850749092114, 28.674839181470585 ], [ -81.267334890336187, 28.674906162861753 ], [ -81.267319757942317, 28.674991880899491 ], [ -81.267513414848295, 28.675018672862855 ], [ -81.267498282616089, 28.675104390901272 ], [ -81.267595111211577, 28.675117786762026 ], [ -81.267579979044783, 28.67520350479036 ], [ -81.267676807767359, 28.675216900574043 ], [ -81.267616279176821, 28.675559772522547 ], [ -81.267809937484472, 28.675586563912415 ], [ -81.26779480545224, 28.675672281869051 ], [ -81.268472611174118, 28.675766049043272 ], [ -81.2684574797848, 28.675851767054262 ], [ -81.268747968702598, 28.675891951701402 ], [ -81.268732837571207, 28.675977669723832 ], [ -81.268829667368394, 28.67599106444133 ], [ -81.268814536302415, 28.676076782453716 ], [ -81.269008196181787, 28.676103571646831 ], [ -81.268993065277471, 28.676189289659888 ], [ -81.269283555616553, 28.676229472823316 ], [ -81.269298686232105, 28.676143754778042 ], [ -81.269395516310539, 28.676157148979541 ], [ -81.269365255241112, 28.676328585070749 ], [ -81.269558915875493, 28.676355373253312 ], [ -81.269574046233132, 28.676269655196602 ], [ -81.269767706798334, 28.676296443006475 ], [ -81.269797967036098, 28.676125006787817 ], [ -81.269894797172441, 28.676138400539593 ], [ -81.269970446746001, 28.675709809575668 ], [ -81.270067276431931, 28.675723203185971 ], [ -81.270112665517317, 28.675466048326101 ], [ -81.27020949494532, 28.675479441816432 ], [ -81.270270012909222, 28.67513656833599 ], [ -81.270366841983048, 28.675149961695581 ], [ -81.270381971300694, 28.675064243262806 ], [ -81.270478800309093, 28.675077636523891 ], [ -81.270463671087711, 28.675163354967427 ], [ -81.270947817073449, 28.675230320009554 ], [ -81.270962945813608, 28.675144601512404 ], [ -81.271059775006975, 28.675157994246693 ], [ -81.271074903620047, 28.675072275717994 ], [ -81.271171732748016, 28.675085668353773 ], [ -81.271186861234, 28.674999949793605 ], [ -81.271380519389922, 28.67502673478031 ], [ -81.271365391096438, 28.675112453361958 ], [ -81.271462220316877, 28.675125845734389 ], [ -81.27143196382994, 28.675297282856857 ], [ -81.271335134416972, 28.675283890462982 ], [ -81.271320006031019, 28.675369608982312 ], [ -81.271223176552638, 28.675356216489931 ], [ -81.271177790921001, 28.67561337189105 ], [ -81.271661940064973, 28.675680333636098 ], [ -81.271677068158411, 28.675594615136152 ], [ -81.272064387643468, 28.675648182908926 ], [ -81.272079515321082, 28.67556246434534 ], [ -81.27217634517315, 28.675575856058316 ], [ -81.272191472723691, 28.675490137463168 ], [ -81.272385132327827, 28.675516920604341 ], [ -81.272415386951394, 28.675345483308739 ], [ -81.272609046293837, 28.675372266055785 ], [ -81.272624173366879, 28.675286547355416 ], [ -81.273108321781152, 28.675353502632902 ], [ -81.273093195189375, 28.675439221386938 ], [ -81.27319002506097, 28.67545261218979 ], [ -81.273205151556496, 28.675366893424986 ], [ -81.273398811199627, 28.675393674745866 ], [ -81.273413937471815, 28.675307955938855 ], [ -81.273510767243366, 28.675321346456844 ], [ -81.273525893388495, 28.675235627618282 ], [ -81.273719552831565, 28.675262408369498 ], [ -81.273764930504456, 28.675005251664778 ], [ -81.273861759983475, 28.675018641876491 ], [ -81.273876885716547, 28.67493292292264 ], [ -81.273973715130126, 28.674946313035804 ], [ -81.274034217369163, 28.674603436969697 ], [ -81.27422787551879, 28.674630216846833 ], [ -81.274243000808966, 28.674544497756884 ], [ -81.2744366588894, 28.67457127726135 ], [ -81.274451783956266, 28.674485558129184 ], [ -81.274548612946447, 28.674498947738996 ], [ -81.274593987673384, 28.674241790185597 ], [ -81.274690816405638, 28.674255179675434 ], [ -81.274751315225046, 28.673912302603679 ], [ -81.274654486877793, 28.673898913156744 ], [ -81.274684736295072, 28.673727474517648 ], [ -81.27478156444981, 28.673740863943085 ], [ -81.274811813551324, 28.673569425199432 ], [ -81.275392781972059, 28.673649759779813 ], [ -81.275407905899087, 28.673564040312399 ], [ -81.275988874851819, 28.673644371667869 ], [ -81.276003998170509, 28.673558652115318 ], [ -81.276100826340908, 28.673572040356568 ], [ -81.276115949532539, 28.673486320772525 ], [ -81.276212777637511, 28.673499708915241 ], [ -81.276227900702068, 28.673413989299679 ], [ -81.276421556811954, 28.673440765300253 ], [ -81.276436679653202, 28.673355045642456 ], [ -81.276533507658115, 28.673368433500329 ], [ -81.276563753055669, 28.673196994100909 ], [ -81.276660580898906, 28.673210381849582 ], [ -81.276721070939189, 28.67286750275845 ], [ -81.276624243480939, 28.672854115052708 ], [ -81.27663936601023, 28.672768395238702 ], [ -81.276542538679053, 28.672755007455908 ], [ -81.27655766127377, 28.67266928763182 ], [ -81.276460834069653, 28.672655899771939 ], [ -81.276475956729811, 28.672570179937832 ], [ -81.276379129652767, 28.672556792000936 ], [ -81.276409375073101, 28.67238535229178 ], [ -81.27631254821938, 28.672371964288516 ], [ -81.276327670979569, 28.672286244413506 ], [ -81.276230844252908, 28.672272856333166 ], [ -81.27626108987333, 28.672101416542237 ], [ -81.275389652452546, 28.671980920061721 ], [ -81.275404776082766, 28.671895200231621 ], [ -81.275307949953003, 28.671881811305532 ], [ -81.275338197313459, 28.671710371604448 ], [ -81.27524137140702, 28.671696982612037 ], [ -81.27525649513727, 28.671611262741049 ], [ -81.27515966935789, 28.671597873671569 ], [ -81.275220164355687, 28.671254994022629 ], [ -81.275510640631339, 28.671295160838891 ], [ -81.275525764015001, 28.67120944084246 ], [ -81.275622589405629, 28.671222829594925 ], [ -81.275652835888025, 28.671051389518382 ], [ -81.275749661116961, 28.671064778161561 ], [ -81.275900890717551, 28.670207576424108 ], [ -81.276772310502736, 28.670328069296929 ], [ -81.276757188547535, 28.670413789660746 ], [ -81.27685401321844, 28.670427177329529 ], [ -81.276838891328666, 28.67051289768327 ], [ -81.276935716126616, 28.670526285274946 ], [ -81.276905472447126, 28.670697725941611 ], [ -81.277099122520454, 28.67072450090452 ], [ -81.277068879102671, 28.670895941530887 ], [ -81.277165704378049, 28.670909328902113 ], [ -81.277150582719173, 28.670995049194868 ], [ -81.277344233554857, 28.671021823695334 ], [ -81.277329112057672, 28.671107543988764 ], [ -81.277813240167305, 28.67117447875729 ], [ -81.277798119120547, 28.67126019908353 ], [ -81.277894944931163, 28.671273585784601 ], [ -81.277879823949817, 28.671359306100797 ], [ -81.278073475855976, 28.671386079260987 ], [ -81.278043234185859, 28.671557519873929 ], [ -81.278333712853666, 28.671597679020127 ], [ -81.278348833415393, 28.671511958691848 ], [ -81.278542485822157, 28.6715387309956 ], [ -81.278557606160575, 28.671453010625125 ], [ -81.27875125849809, 28.671479782556219 ], [ -81.278766378613199, 28.671394062143474 ], [ -81.27886320473192, 28.671407447966633 ], [ -81.278878324719969, 28.671321727522397 ], [ -81.279168802972279, 28.671361884432873 ], [ -81.279123443781913, 28.671619045799741 ], [ -81.279220270216385, 28.671632431293183 ], [ -81.279205150520895, 28.671718151717908 ], [ -81.279301977082412, 28.671731537134274 ], [ -81.27927173779149, 28.671902977942928 ], [ -81.279368564576316, 28.671916363292922 ], [ -81.279323205697608, 28.672173524382142 ], [ -81.279420032801994, 28.672186909676523 ], [ -81.279389793587967, 28.67235835032022 ], [ -81.279486620915662, 28.672371735548257 ], [ -81.279471501358685, 28.672457455849685 ], [ -81.279761983815391, 28.672497611039244 ], [ -81.279746864516341, 28.67258333135204 ], [ -81.279843692159773, 28.672596716250357 ], [ -81.279828572926178, 28.672682436553057 ], [ -81.280119056330093, 28.672722590753406 ], [ -81.280088818347991, 28.672894031360922 ], [ -81.28018564640341, 28.672907415940237 ], [ -81.280170527462388, 28.672993136223457 ], [ -81.280364183858168, 28.673019905140197 ], [ -81.280349065078838, 28.673105625424167 ], [ -81.280445893419213, 28.6731190097615 ], [ -81.280430774705323, 28.67320473003539 ], [ -81.280721260199996, 28.673244882553004 ], [ -81.280736378625122, 28.673159162246904 ], [ -81.280930035583097, 28.673185930131488 ], [ -81.280945153784913, 28.673100209783232 ], [ -81.281041982213864, 28.673113593583107 ], [ -81.281057100288621, 28.673027873203324 ], [ -81.281153928652117, 28.6730412569047 ], [ -81.2811690465998, 28.672955536493404 ], [ -81.281265874897869, 28.672968920096242 ], [ -81.281280992718493, 28.672883199653409 ], [ -81.281377820951121, 28.672896583157758 ], [ -81.281392938644686, 28.67281086268347 ], [ -81.281489766811859, 28.672824246089256 ], [ -81.281520001914089, 28.672652805056799 ], [ -81.281616829919543, 28.672666188353382 ], [ -81.281631947328208, 28.67258046779526 ], [ -81.28172877526822, 28.67259385099333 ], [ -81.281743892549812, 28.672508130403731 ], [ -81.281937548329779, 28.672534896515046 ], [ -81.281967782415549, 28.672363455230531 ], [ -81.282064610159225, 28.672376838133012 ], [ -81.282079727059653, 28.672291117448882 ], [ -81.282563865758888, 28.672358030590875 ], [ -81.282518516408999, 28.672615192741837 ], [ -81.282615344530015, 28.672628575139004 ], [ -81.282554878683897, 28.67297145775883 ], [ -81.282458050177866, 28.67295807531875 ], [ -81.282427816877487, 28.673129516482568 ], [ -81.28233098820975, 28.673116133933231 ], [ -81.282300754593635, 28.673287574992443 ], [ -81.282203925764207, 28.673274192333864 ], [ -81.282188808813686, 28.673359912821581 ], [ -81.281801493418996, 28.673306381266485 ], [ -81.28177125865551, 28.673477822093762 ], [ -81.281577600757984, 28.673451055746565 ], [ -81.281547365486261, 28.673622496447813 ], [ -81.281450536391205, 28.673609113121096 ], [ -81.281405182963809, 28.673866273984938 ], [ -81.281598841762261, 28.673893040615006 ], [ -81.281583724084015, 28.673978760882846 ], [ -81.281680553625705, 28.673992144076902 ], [ -81.281665436012915, 28.674077864334663 ], [ -81.281762265681678, 28.674091247451656 ], [ -81.281747148134329, 28.674176967699388 ], [ -81.281843977930137, 28.674190350739302 ], [ -81.281828860448258, 28.674276070976976 ], [ -81.281925690371139, 28.674289453939799 ], [ -81.281910572954686, 28.67437517416743 ], [ -81.282104233085377, 28.674401939851162 ], [ -81.28205888122875, 28.674659100473669 ], [ -81.281962050859235, 28.674645717643539 ], [ -81.281946933415824, 28.674731437798769 ], [ -81.282043763881589, 28.674744820639642 ], [ -81.282028646503633, 28.674830540784782 ], [ -81.28193181594159, 28.674817157933209 ], [ -81.281841110449321, 28.675331478303519 ], [ -81.281163293334913, 28.675237795433674 ], [ -81.281178411667796, 28.675152075498957 ], [ -81.281081580870932, 28.675138691891341 ], [ -81.281051343981872, 28.675310131718522 ], [ -81.281148174971236, 28.675323515347561 ], [ -81.281102819695363, 28.675580674964664 ], [ -81.281199651004314, 28.675594058538064 ], [ -81.281169414192192, 28.675765498200374 ], [ -81.281266245724481, 28.67577888170748 ], [ -81.281251127368478, 28.675864601518171 ], [ -81.281832117786678, 28.675944900781158 ], [ -81.281816999977408, 28.676030620635437 ], [ -81.282107495891196, 28.676070769113895 ], [ -81.282137730901354, 28.675899329320213 ], [ -81.282234562741721, 28.67591271194928 ], [ -81.282249680104343, 28.675826992010599 ], [ -81.28234651187924, 28.675840374541171 ], [ -81.282376746319528, 28.67566893457991 ], [ -81.282667241251517, 28.675709081580525 ], [ -81.28265212433557, 28.675794801603722 ], [ -81.282748956137425, 28.675808183772396 ], [ -81.282718722405605, 28.675979623777867 ], [ -81.282815554430812, 28.675993005880152 ], [ -81.282755086982561, 28.676335885684715 ], [ -81.282658254572311, 28.676322503539492 ], [ -81.2825977862461, 28.676665382968721 ], [ -81.28250095348163, 28.676652000692812 ], [ -81.282485836226797, 28.676737720487466 ], [ -81.282389003396858, 28.676724338113026 ], [ -81.282373886014952, 28.676810057876143 ], [ -81.282277053119572, 28.67679667540321 ], [ -81.282231700500247, 28.677053834535787 ], [ -81.282134867346883, 28.677040451942887 ], [ -81.282119749649226, 28.677126171601447 ], [ -81.282022916430407, 28.677112788910001 ], [ -81.281977562863787, 28.677369947728963 ], [ -81.282074396371399, 28.677383330452564 ], [ -81.28205927855052, 28.67746905002809 ], [ -81.282156112185191, 28.677482432674616 ], [ -81.282140994429767, 28.677568152240081 ], [ -81.282237828191526, 28.67758153480953 ], [ -81.282222710501543, 28.677667254364934 ], [ -81.282319544390376, 28.677680636857357 ], [ -81.282304426765847, 28.67776635640271 ], [ -81.282498094828455, 28.677793121145559 ], [ -81.282482977365646, 28.677878840691591 ], [ -81.282676645744019, 28.677905605104701 ], [ -81.282661528442915, 28.677991324651423 ], [ -81.282758362774587, 28.678004706737017 ], [ -81.282743245538967, 28.678090426273659 ], [ -81.282840079997683, 28.678103808282188 ], [ -81.282824962827519, 28.678189527808794 ], [ -81.282921797413337, 28.678202909740207 ], [ -81.282906680308628, 28.678288629256741 ], [ -81.283003515021491, 28.678302011111111 ], [ -81.282973280912188, 28.678473450103368 ], [ -81.283070115848403, 28.678486831891426 ], [ -81.283054998843809, 28.678572551367086 ], [ -81.283151833907098, 28.678585933078036 ], [ -81.283121599998012, 28.678757371988546 ], [ -81.283218435284638, 28.678770753633131 ], [ -81.28320331838016, 28.67885647306796 ], [ -81.28330015379386, 28.678869854635479 ], [ -81.283254803184349, 28.679127012847456 ], [ -81.283351638917665, 28.679140394359372 ], [ -81.283306288319707, 28.679397552416617 ], [ -81.283403124372626, 28.679410933872873 ], [ -81.283357773786207, 28.679668091775319 ], [ -81.283454610158756, 28.679681473175982 ], [ -81.283409259583877, 28.679938630923708 ], [ -81.283312422922535, 28.679925249490889 ], [ -81.28328218885936, 28.680096687864058 ], [ -81.283185352036298, 28.680083306321958 ], [ -81.283155117657344, 28.680254744590634 ], [ -81.282961443718548, 28.680227981200176 ], [ -81.282946326290315, 28.680313700281872 ], [ -81.282849489270859, 28.680300318444235 ], [ -81.282864606795357, 28.680214599373244 ], [ -81.282670933041388, 28.680187835455961 ], [ -81.282565108375167, 28.6807878683666 ], [ -81.28246827087051, 28.68077448620117 ], [ -81.282483388868684, 28.680688767286998 ], [ -81.281708690710744, 28.68058170688867 ], [ -81.281693571942427, 28.680667425717054 ], [ -81.281596734715066, 28.680654042761418 ], [ -81.281581615819661, 28.680739761558335 ], [ -81.281484778526846, 28.680726378504204 ], [ -81.281469659504367, 28.680812097269587 ], [ -81.281372822146082, 28.680798714116907 ], [ -81.281357702996502, 28.680884432850771 ], [ -81.281454540451051, 28.680897816014198 ], [ -81.281409183106277, 28.68115497212348 ], [ -81.28131234536292, 28.681141588927883 ], [ -81.281282106786463, 28.681313026208763 ], [ -81.281185268881387, 28.681299642903902 ], [ -81.281170149450659, 28.681385361502489 ], [ -81.281073311480114, 28.681371978099097 ], [ -81.281058191922313, 28.681457696666168 ], [ -81.280961353886298, 28.681444313164299 ], [ -81.280946234201409, 28.681530031699861 ], [ -81.280849396099953, 28.681516648099432 ], [ -81.280834276287976, 28.681602366603514 ], [ -81.280737438121051, 28.68158898290455 ], [ -81.280707198212127, 28.681760419828933 ], [ -81.280610359883468, 28.681747036020763 ], [ -81.280564999500143, 28.682004191219363 ], [ -81.280468160913486, 28.681990807291196 ], [ -81.280392559176946, 28.682419398819931 ], [ -81.280489398244967, 28.682432782801758 ], [ -81.28047427790149, 28.682518501055952 ], [ -81.28037743873719, 28.682505117063396 ], [ -81.280362318266626, 28.682590835286064 ], [ -81.279974961532517, 28.682537298394884 ], [ -81.279959840646029, 28.682623016553904 ], [ -81.279863001443275, 28.682609632100895 ], [ -81.279847880429699, 28.682695350228375 ], [ -81.279751041161475, 28.682681965676821 ], [ -81.279735920020812, 28.682767683772862 ], [ -81.279542241384277, 28.68274091438489 ], [ -81.279527120020262, 28.682826632438687 ], [ -81.279430280651951, 28.68281324760224 ], [ -81.279400037638908, 28.682984683626067 ], [ -81.279206358609628, 28.682957913646884 ], [ -81.279191236864335, 28.683043631606239 ], [ -81.278997557765777, 28.683016861254416 ], [ -81.279012679703641, 28.682931143316566 ], [ -81.278915840296861, 28.682917758019641 ], [ -81.278885596197796, 28.683089193853107 ], [ -81.278788756629297, 28.683075808446983 ], [ -81.278773634437272, 28.683161526321818 ], [ -81.278676794803317, 28.683148140817163 ], [ -81.278661672484191, 28.683233858660532 ], [ -81.278564832784781, 28.683220473057276 ], [ -81.278519465353654, 28.683477626430566 ], [ -81.278422625396246, 28.683464240707391 ], [ -81.278407502761283, 28.683549958446225 ], [ -81.27831066273842, 28.68353657262449 ], [ -81.278265294359812, 28.683793725684264 ], [ -81.278168454078923, 28.683780339742519 ], [ -81.278123085134098, 28.684037492583165 ], [ -81.278219925703795, 28.684050878557102 ], [ -81.278204802756818, 28.684136596139851 ], [ -81.278301643453617, 28.684149982036669 ], [ -81.278286520572095, 28.68423569960942 ], [ -81.278577043136224, 28.6842758568053 ], [ -81.278561920512715, 28.684361574389456 ], [ -81.278658761525335, 28.684374959956575 ], [ -81.278613393758704, 28.684632112616647 ], [ -81.278516552457248, 28.684618727017348 ], [ -81.278486306932834, 28.684790161998784 ], [ -81.278583148426847, 28.684803547619527 ], [ -81.278568025714691, 28.684889265089808 ], [ -81.278761708987744, 28.684916036089355 ], [ -81.278746586437308, 28.685001753560375 ], [ -81.278843428216334, 28.685015138939178 ], [ -81.278828305731366, 28.685100856400158 ], [ -81.279699883996074, 28.685221320954792 ], [ -81.279715005614548, 28.685135603397235 ], [ -81.280005531968683, 28.685175756636156 ], [ -81.279990410639073, 28.685261474225868 ], [ -81.280087252915038, 28.685274858474003 ], [ -81.280057010355904, 28.685446293612625 ], [ -81.28015385285525, 28.685459677794356 ], [ -81.28013873162574, 28.685545395343262 ], [ -81.280332416909431, 28.685572163464794 ], [ -81.28031729584167, 28.685657881014404 ], [ -81.280414138626014, 28.685671264954191 ], [ -81.280399017623722, 28.685756982493757 ], [ -81.280689546450546, 28.685797133818518 ], [ -81.280674425706266, 28.685882851369513 ], [ -81.280771268806447, 28.685896234979534 ], [ -81.280756148127637, 28.685981952520475 ], [ -81.28094983461304, 28.686008719498631 ], [ -81.280934714095963, 28.686094437040275 ], [ -81.281031557481171, 28.68610782040836 ], [ -81.281046677901969, 28.686022102855993 ], [ -81.281143521221708, 28.686035486125537 ], [ -81.28115864151539, 28.685949768541661 ], [ -81.281255484769673, 28.685963151712649 ], [ -81.281270604936267, 28.685877434097261 ], [ -81.281367448125067, 28.685890817169774 ], [ -81.281382568164574, 28.685805099522877 ], [ -81.281479411287904, 28.685818482496831 ], [ -81.281494531200309, 28.685732764818503 ], [ -81.281591374258184, 28.685746147693923 ], [ -81.281636733521651, 28.685488994502069 ], [ -81.281539890752612, 28.68547561165887 ], [ -81.281570130300054, 28.685304176115306 ], [ -81.281473287754409, 28.68529079320572 ], [ -81.28148840757818, 28.685205075413553 ], [ -81.281585250027561, 28.685218458312363 ], [ -81.281600369724245, 28.685132740488712 ], [ -81.281987739444787, 28.685186271163158 ], [ -81.282017977975471, 28.685014835367618 ], [ -81.28211482029009, 28.685028217795296 ], [ -81.282129939412926, 28.684942499855683 ], [ -81.28232362394202, 28.684969264426108 ], [ -81.282338742841489, 28.684883546444272 ], [ -81.282435585055978, 28.684896928587058 ], [ -81.282420466252788, 28.684982646579595 ], [ -81.282517308594379, 28.684996028645291 ], [ -81.282577783237116, 28.684653156507622 ], [ -81.282480941280653, 28.684639774484804 ], [ -81.282496059960579, 28.684554056409233 ], [ -81.282592901820777, 28.68456743842129 ], [ -81.282713849380769, 28.683881692983153 ], [ -81.28281069050152, 28.683895074821585 ], [ -81.282840926890842, 28.683723638233001 ], [ -81.282744085962634, 28.683710256416006 ], [ -81.282759204207366, 28.683624538101299 ], [ -81.282856045039296, 28.683637919907557 ], [ -81.282886281243748, 28.683466483194383 ], [ -81.28307996261492, 28.683493246500525 ], [ -81.283064844720656, 28.683578964888987 ], [ -81.283161685548734, 28.683592346421101 ], [ -81.283146567719925, 28.683678064799473 ], [ -81.283437090677879, 28.683718208901222 ], [ -81.283421973107096, 28.683803927291038 ], [ -81.283809337867496, 28.683857451573633 ], [ -81.283748868816744, 28.684200325096857 ], [ -81.283845710468995, 28.684213705990931 ], [ -81.283815475951329, 28.684385142649443 ], [ -81.284009159733358, 28.684411904216997 ], [ -81.284024276815032, 28.684326185876682 ], [ -81.284411644363672, 28.684379707915358 ], [ -81.284396527667113, 28.684465426298598 ], [ -81.284687053940928, 28.684505566937791 ], [ -81.284656821033082, 28.684677003706287 ], [ -81.284753663378524, 28.684690383765219 ], [ -81.284738546974665, 28.684776102129074 ], [ -81.284932231950563, 28.684802862004943 ], [ -81.284917115708467, 28.684888580369503 ], [ -81.285304486415072, 28.684942099110501 ], [ -81.285334718098213, 28.684770662274875 ], [ -81.285431560659319, 28.684784041719158 ], [ -81.285461792026666, 28.684612604779002 ], [ -81.28555863442601, 28.684625984114028 ], [ -81.285573749967199, 28.684540265602077 ], [ -81.285767434665743, 28.68456702398732 ], [ -81.285782549983566, 28.684481305433163 ], [ -81.285976234612775, 28.684508063445666 ], [ -81.285946004331478, 28.684679500576127 ], [ -81.286042846884854, 28.68469287947212 ], [ -81.286012616672906, 28.68486431654097 ], [ -81.286109459449648, 28.684877695370606 ], [ -81.28607922930702, 28.685049132377873 ], [ -81.286176072307157, 28.685062511141194 ], [ -81.286145842233879, 28.685233948086864 ], [ -81.286242685457367, 28.685247326783806 ], [ -81.2862275704708, 28.685333045236192 ], [ -81.28642125720279, 28.685359802388156 ], [ -81.286436371996771, 28.685274083914308 ], [ -81.287211119386612, 28.685381108923988 ], [ -81.287226233379528, 28.685295390343548 ], [ -81.287323076845595, 28.685308768063976 ], [ -81.287338190711424, 28.685223049452016 ], [ -81.287435034111994, 28.685236427073903 ], [ -81.287450147850748, 28.685150708430495 ], [ -81.287546991185849, 28.685164085953748 ], [ -81.287562104797487, 28.685078367278898 ], [ -81.287852634698766, 28.685118499289807 ], [ -81.287867747990759, 28.685032780561986 ], [ -81.287964591256511, 28.685046157712659 ], [ -81.287979704421417, 28.684960438953361 ], [ -81.288463920730749, 28.685027323335827 ], [ -81.288479033383425, 28.684941604502189 ], [ -81.288672719930204, 28.684968357619098 ], [ -81.288657607470086, 28.685054076474213 ], [ -81.288754450885946, 28.685067452911682 ], [ -81.288784675582818, 28.684896015159211 ], [ -81.288881518836916, 28.684909391487434 ], [ -81.288926855362362, 28.68465223467085 ], [ -81.288830012397113, 28.684638858374832 ], [ -81.288875348934212, 28.684381701403574 ], [ -81.288778506288608, 28.684368325051935 ], [ -81.288793618502325, 28.684282606030695 ], [ -81.288696775983809, 28.684269229601949 ], [ -81.288742112729011, 28.684012072445899 ], [ -81.288645270530139, 28.683998695961492 ], [ -81.288690607286981, 28.683741538650771 ], [ -81.288593765407768, 28.683728162110715 ], [ -81.288669326534603, 28.68329956623122 ], [ -81.288572485167577, 28.683286189657029 ], [ -81.288617821762926, 28.683029031912287 ], [ -81.288908345089837, 28.683069161275078 ], [ -81.288938568755057, 28.682897722610466 ], [ -81.28903540973306, 28.68291109886767 ], [ -81.289080744711057, 28.68265394068283 ], [ -81.28917758543102, 28.682667316820055 ], [ -81.289222919842999, 28.682410158416214 ], [ -81.289319760304934, 28.6824235344335 ], [ -81.289410427719687, 28.681909217000786 ], [ -81.289507267634733, 28.681922592865941 ], [ -81.289522378666462, 28.681836873210429 ], [ -81.289619218516023, 28.681850248976986 ], [ -81.289604107580573, 28.681935968643241 ], [ -81.289797787564652, 28.681962719934475 ], [ -81.289782676790978, 28.682048439601356 ], [ -81.289879516925495, 28.682061815126019 ], [ -81.289864406217291, 28.682147534782885 ], [ -81.290058086771268, 28.68217428559019 ], [ -81.290042976224825, 28.682260005247702 ], [ -81.290333497575588, 28.682300130832289 ], [ -81.290318387287186, 28.682385850501262 ], [ -81.290415227895309, 28.68239922553126 ], [ -81.290339676472797, 28.682827823618105 ], [ -81.290533358744241, 28.682854573521873 ], [ -81.290518248559906, 28.682940293098408 ], [ -81.290615089838113, 28.682953667929315 ], [ -81.290599979719275, 28.68303938749585 ], [ -81.290696821124541, 28.683052762249609 ], [ -81.290681711071187, 28.683138481806086 ], [ -81.290875394166676, 28.683165231071726 ], [ -81.290845174352711, 28.683336670165186 ], [ -81.290942016139226, 28.683350044687746 ], [ -81.290926906282323, 28.683435764214103 ], [ -81.291023748195897, 28.68344913865954 ], [ -81.290993528582291, 28.683620577671377 ], [ -81.291090370719232, 28.683633952050499 ], [ -81.291075260962529, 28.68371967153595 ], [ -81.291559472590549, 28.683786542168118 ], [ -81.291544363284459, 28.6838722616864 ], [ -81.291834890919674, 28.683912383044156 ], [ -81.291774454542789, 28.684255261038533 ], [ -81.291968140557174, 28.684282008257096 ], [ -81.291953031578544, 28.684367727725217 ], [ -81.292049874728207, 28.684381101213543 ], [ -81.292019656871133, 28.684552540108907 ], [ -81.292116500244163, 28.684565913530868 ], [ -81.292101391365705, 28.684651632958165 ], [ -81.292198234865822, 28.684665006302982 ], [ -81.292213343647987, 28.684579286865027 ], [ -81.292794404717583, 28.6846595250259 ], [ -81.292824621034086, 28.684488085958975 ], [ -81.292921464460889, 28.684501458657017 ], [ -81.292936572476648, 28.684415739081725 ], [ -81.293130259230054, 28.68444248419295 ], [ -81.293145367022476, 28.68435676457543 ], [ -81.293435897094653, 28.684396881551567 ], [ -81.293420789591096, 28.684482601201307 ], [ -81.293517633106347, 28.684495973361788 ], [ -81.293502525668302, 28.684581693001441 ], [ -81.293599369310627, 28.684595065084839 ], [ -81.293569154534708, 28.68476650432331 ], [ -81.294247062241226, 28.684860106598705 ], [ -81.294262168970562, 28.684774386914853 ], [ -81.29455270101775, 28.684814500826437 ], [ -81.294567807427441, 28.684728781089611 ], [ -81.294664651408468, 28.684742152207175 ], [ -81.294679757691071, 28.684656432438913 ], [ -81.294776601606586, 28.684669803457894 ], [ -81.294821919980819, 28.684412643996307 ], [ -81.294918763638265, 28.684426014895369 ], [ -81.294948975541246, 28.684254575129135 ], [ -81.294852132076386, 28.68424120425146 ], [ -81.294897449988795, 28.683984044478535 ], [ -81.294994293164805, 28.683997415323976 ], [ -81.295009398977768, 28.683911695347398 ], [ -81.295203085229574, 28.68393843675344 ], [ -81.295218190819156, 28.683852716734702 ], [ -81.295315033894951, 28.683866087295332 ], [ -81.295330139357461, 28.683780367245088 ], [ -81.295426982367758, 28.683793737707198 ], [ -81.29533634970862, 28.684308057761516 ], [ -81.295433193327412, 28.684321428200121 ], [ -81.295418087872747, 28.684407148147226 ], [ -81.295805463040992, 28.68446062906639 ], [ -81.295820568110486, 28.684374909076372 ], [ -81.296401631208695, 28.6844551277566 ], [ -81.296416735669681, 28.684369407681555 ], [ -81.296513579530853, 28.684382777143547 ], [ -81.296543788167895, 28.684211336909726 ], [ -81.296737475597411, 28.684238075527396 ], [ -81.296752579677204, 28.684152355357938 ], [ -81.296946267037256, 28.684179093602975 ], [ -81.297036889714022, 28.683664772021451 ], [ -81.297133732862505, 28.683678140947972 ], [ -81.297163939982582, 28.683506700233309 ], [ -81.297357625986749, 28.683533437780032 ], [ -81.297342522634679, 28.683619158169158 ], [ -81.297439365779212, 28.683632526821519 ], [ -81.297469572260013, 28.683461086001053 ], [ -81.297566415242756, 28.68347445454415 ], [ -81.297596621407862, 28.68330301361916 ], [ -81.297693464228814, 28.683316382053086 ], [ -81.297784081407627, 28.682802058715552 ], [ -81.29788092368166, 28.682815426997344 ], [ -81.297911128969119, 28.6826439856973 ], [ -81.297814286887657, 28.682630617436935 ], [ -81.297844492244565, 28.682459176075309 ], [ -81.297747650386469, 28.682445807748572 ], [ -81.297762753115038, 28.682360087047293 ], [ -81.298150120346975, 28.682413559784536 ], [ -81.298165222659634, 28.682327839019663 ], [ -81.298358906267708, 28.682354574839998 ], [ -81.298374008357015, 28.682268854032916 ], [ -81.298470850110945, 28.682282221800676 ], [ -81.298485952073179, 28.682196500962093 ], [ -81.298582793761582, 28.68220986863135 ], [ -81.298567691895641, 28.682295589480614 ], [ -81.298955059342248, 28.682349059322316 ], [ -81.298939957830655, 28.682434780193706 ], [ -81.299036799865547, 28.682448147445356 ], [ -81.299006596942604, 28.682619589147233 ], [ -81.299200281489831, 28.6826463234299 ], [ -81.299185180174774, 28.68273204427113 ], [ -81.299475707515327, 28.682772145068792 ], [ -81.299460606458339, 28.682857865921402 ], [ -81.299654291698502, 28.682884599368904 ], [ -81.299639190803305, 28.682970320222168 ], [ -81.299832876359147, 28.682997053339914 ], [ -81.29980267486161, 28.683168495027058 ], [ -81.299899517878274, 28.683181861475632 ], [ -81.299884417179612, 28.683267582298765 ], [ -81.299981260323335, 28.683280948670255 ], [ -81.299966159690186, 28.683366669483345 ], [ -81.300063002960982, 28.683380035777752 ], [ -81.300032801794956, 28.683551477363057 ], [ -81.300613863221457, 28.683631673414062 ], [ -81.300598763170001, 28.683717394239917 ], [ -81.300889294587591, 28.683757491112125 ], [ -81.300904394350169, 28.683671770254186 ], [ -81.301194925755865, 28.683711866304016 ], [ -81.301240223992338, 28.683454703509128 ], [ -81.301143380448551, 28.683441338279135 ], [ -81.301158479895435, 28.683355617316707 ], [ -81.301255323342957, 28.683368982535985 ], [ -81.301270422662796, 28.683283261542059 ], [ -81.301367266044792, 28.683296626662873 ], [ -81.301382365237572, 28.683210905637438 ], [ -81.301576051901307, 28.683237635594125 ], [ -81.301560952901127, 28.683323356640948 ], [ -81.301657796375437, 28.683336721498303 ], [ -81.301627598475307, 28.683508163551068 ], [ -81.302305505005222, 28.683601715243867 ], [ -81.302245111531818, 28.683944599400231 ], [ -81.30263248890941, 28.683998055750038 ], [ -81.302617390849292, 28.684083776780117 ], [ -81.302811079915301, 28.684110504449606 ], [ -81.302841275619613, 28.683939062325855 ], [ -81.302938120006189, 28.683952426007476 ], [ -81.303028705802845, 28.683438099073811 ], [ -81.303416081345901, 28.683491552665053 ], [ -81.303431178485823, 28.683405831393934 ], [ -81.303624866249365, 28.683432557641297 ], [ -81.303655060051724, 28.683261114993925 ], [ -81.303751903787088, 28.683274477964488 ], [ -81.303782097273796, 28.683103035212667 ], [ -81.304169471752559, 28.683156486131061 ], [ -81.304184568064599, 28.683070764681144 ], [ -81.304281411664917, 28.683084127180539 ], [ -81.304296507849898, 28.682998405699127 ], [ -81.304393351384704, 28.683011768099988 ], [ -81.304363159176546, 28.683183211063405 ], [ -81.304556846723614, 28.683209935644502 ], [ -81.304571942650497, 28.6831242141518 ], [ -81.304765630128045, 28.683150938360235 ], [ -81.304750534393747, 28.6832366598744 ], [ -81.304944222186947, 28.683263383753079 ], [ -81.304929126614468, 28.683349105267915 ], [ -81.305025970653503, 28.683362467086226 ], [ -81.30501087514655, 28.683448188591019 ], [ -81.305204563509506, 28.683474911985691 ], [ -81.30515927738179, 28.683732076439728 ], [ -81.304868744016886, 28.683691991119627 ], [ -81.30485364829056, 28.683777712530691 ], [ -81.304756803800828, 28.683764350570979 ], [ -81.304651132181121, 28.684364399792017 ], [ -81.304747977344917, 28.684377761826713 ], [ -81.304717785369235, 28.684549204295926 ], [ -81.304814630756368, 28.684562566264194 ], [ -81.304784438850234, 28.684734008671764 ], [ -81.30488128446072, 28.684747370573685 ], [ -81.304835996659619, 28.685004534061516 ], [ -81.304932842589764, 28.685017895907766 ], [ -81.304872458809399, 28.68536078031045 ], [ -81.30496930515551, 28.685374142111751 ], [ -81.304939113273292, 28.68554558420994 ], [ -81.305035959842755, 28.685558945944862 ], [ -81.30502086395181, 28.685644666973531 ], [ -81.305214557375621, 28.685671390201328 ], [ -81.305229653073994, 28.685585669151195 ], [ -81.30552019315158, 28.685625753302194 ], [ -81.30553528853028, 28.685540032199174 ], [ -81.305438441903277, 28.685526670914026 ], [ -81.305483728143685, 28.685269507512558 ], [ -81.305386881836341, 28.685256146171753 ], [ -81.305417072702028, 28.685084703821769 ], [ -81.305320226618036, 28.685071342414592 ], [ -81.305380608365397, 28.684728457508399 ], [ -81.305283762697357, 28.684715096056227 ], [ -81.305344144337639, 28.684372210860776 ], [ -81.305440989620493, 28.684385572270067 ], [ -81.305456084857354, 28.684299850908609 ], [ -81.305552930074697, 28.68431321221939 ], [ -81.305568025184485, 28.684227490826487 ], [ -81.30605225125116, 28.68429429600971 ], [ -81.306082440415508, 28.684122853054458 ], [ -81.306663511555215, 28.684203016248112 ], [ -81.306693699440999, 28.684031573081313 ], [ -81.306887389681833, 28.68405829340054 ], [ -81.30691757705938, 28.683886850107854 ], [ -81.307014422033348, 28.683900210114324 ], [ -81.307029515579686, 28.683814488426162 ], [ -81.30722320542732, 28.683841208154263 ], [ -81.307238298750306, 28.683755486423923 ], [ -81.307431988528421, 28.683782205779373 ], [ -81.307416895398021, 28.683867927531189 ], [ -81.307610585491773, 28.683894646556826 ], [ -81.307595492523205, 28.683980368309303 ], [ -81.30769233771251, 28.683993727701143 ], [ -81.307662151875675, 28.684165171165198 ], [ -81.307565306493785, 28.684151811751946 ], [ -81.307550213432933, 28.684237533442104 ], [ -81.307647058911115, 28.6842508928661 ], [ -81.307526314087241, 28.684936665725964 ], [ -81.308107392224599, 28.685016820939811 ], [ -81.308092299560968, 28.68510254251812 ], [ -81.308867072903809, 28.685209411304925 ], [ -81.308882164797055, 28.685123689640893 ], [ -81.308979011507034, 28.685137047833383 ], [ -81.308963919710081, 28.685222769508115 ], [ -81.309157613414911, 28.685249485651077 ], [ -81.309142521779805, 28.685335207326496 ], [ -81.309336215800258, 28.685361923139585 ], [ -81.309321124326985, 28.685447644815689 ], [ -81.309999055041615, 28.685541147470659 ], [ -81.309983964211668, 28.685626869200938 ], [ -81.310177659170975, 28.685653583476359 ], [ -81.310147477804037, 28.685825026917424 ], [ -81.310244325522419, 28.685838383944816 ], [ -81.310214144225057, 28.686009827324305 ], [ -81.310310992166805, 28.686023184285322 ], [ -81.310295901568281, 28.686108905954644 ], [ -81.310683294028067, 28.686162332963388 ], [ -81.310622932867233, 28.686505219604516 ], [ -81.310719781444277, 28.686518576180045 ], [ -81.310704691173484, 28.686604297799136 ], [ -81.310607842500119, 28.686590941212945 ], [ -81.310577661673648, 28.686762384367501 ], [ -81.310674510539613, 28.686775740975065 ], [ -81.310659420176535, 28.686861462531937 ], [ -81.311434212981865, 28.686968312317372 ], [ -81.311419123358462, 28.687054033939134 ], [ -81.31151597269384, 28.687067389777855 ], [ -81.311470703928009, 28.687324554550784 ], [ -81.31156755358306, 28.687337910333802 ], [ -81.311552464029248, 28.687423631893964 ], [ -81.311455614277889, 28.687410276100234 ], [ -81.311440524597032, 28.687495997628929 ], [ -81.311343674780119, 28.687482641736683 ], [ -81.311328584972188, 28.687568363233943 ], [ -81.311425434885393, 28.687581719136912 ], [ -81.311410345142988, 28.68766744062415 ], [ -81.311507195183253, 28.687680796450028 ], [ -81.311492105506431, 28.687766517927166 ], [ -81.311588955673756, 28.687779873675947 ], [ -81.311604045254285, 28.687694152188072 ], [ -81.311700895356068, 28.687707507838326 ], [ -81.311715984809524, 28.687621786318978 ], [ -81.311812834845753, 28.687635141870718 ], [ -81.311827924172178, 28.687549420319943 ], [ -81.312118474176458, 28.687589486416101 ], [ -81.312103385138968, 28.687675207999035 ], [ -81.312200235298221, 28.687688563199529 ], [ -81.312170057323584, 28.68786000632452 ], [ -81.312266907706189, 28.687873361458578 ], [ -81.312221640802491, 28.68813052602264 ], [ -81.312124790130952, 28.688117170856447 ], [ -81.312109701005241, 28.688202892325563 ], [ -81.312012850268147, 28.688189537060854 ], [ -81.311997761015377, 28.688275258498539 ], [ -81.311707208699715, 28.688235192145321 ], [ -81.311692119127272, 28.688320913530106 ], [ -81.311498417544669, 28.688294202167519 ], [ -81.311468237922242, 28.688465644832014 ], [ -81.311371386984476, 28.688452288997578 ], [ -81.311341207046411, 28.688623731557701 ], [ -81.311244355946783, 28.688610375614047 ], [ -81.311229265835294, 28.688696096852222 ], [ -81.311326117031243, 28.688709452806627 ], [ -81.311311026985322, 28.688795174034791 ], [ -81.311407878308344, 28.688808529912059 ], [ -81.311347518202311, 28.689151414660135 ], [ -81.311250666494061, 28.68913805874001 ], [ -81.311235576294351, 28.689223779864474 ], [ -81.311138724520546, 28.689210423845839 ], [ -81.311123634193763, 28.689296144938798 ], [ -81.310929930545839, 28.689269432616637 ], [ -81.310914839995689, 28.689355153667478 ], [ -81.310817988121556, 28.689341797363983 ], [ -81.310802897444319, 28.689427518383312 ], [ -81.310899749414773, 28.689440874697532 ], [ -81.310884658803104, 28.689526595706866 ], [ -81.310981510900604, 28.689539951943946 ], [ -81.310921148531577, 28.689882835816565 ], [ -81.311599116772115, 28.689976327317417 ], [ -81.311614206736337, 28.689890606305418 ], [ -81.311711059368847, 28.689903961872133 ], [ -81.311695969500931, 28.689989682894819 ], [ -81.311986527871952, 28.690029749100241 ], [ -81.312001617450932, 28.68994402804541 ], [ -81.312679587385603, 28.690037512709534 ], [ -81.312664498480814, 28.690123233839333 ], [ -81.312955057774502, 28.690163297410265 ], [ -81.312939969127896, 28.690249018551469 ], [ -81.313811649536589, 28.690369204618726 ], [ -81.31382673731639, 28.690283483381155 ], [ -81.314020444219551, 28.690310190408741 ], [ -81.314005356632379, 28.690395911667693 ], [ -81.314392771192985, 28.690449324711878 ], [ -81.314332422077754, 28.690792209711667 ], [ -81.314622984476884, 28.690832268701215 ], [ -81.314592810312661, 28.691003711140876 ], [ -81.314495955956232, 28.690990358210733 ], [ -81.314420519525896, 28.691418963893366 ], [ -81.314517374363902, 28.691432316876998 ], [ -81.314502287081893, 28.691518037961981 ], [ -81.314599142046973, 28.691531390868544 ], [ -81.314584054830519, 28.691617111943494 ], [ -81.314680909922657, 28.691630464772921 ], [ -81.314650735590149, 28.691801906882059 ], [ -81.314747590905668, 28.691815259645107 ], [ -81.3147325037896, 28.691900980679257 ], [ -81.314926214705551, 28.691927685963321 ], [ -81.314911127751358, 28.692013406998118 ], [ -81.315007983351791, 28.692026759519102 ], [ -81.314992896463167, 28.692112480543926 ], [ -81.314896040766413, 28.692099128012206 ], [ -81.31488095375073, 28.69218484900551 ], [ -81.314977809543791, 28.692198201547949 ], [ -81.314947635612782, 28.692369643493819 ], [ -81.315044491629223, 28.692382995969808 ], [ -81.315014317767847, 28.692554437854131 ], [ -81.315111174007683, 28.692567790263759 ], [ -81.315096087127188, 28.692653511185508 ], [ -81.315289799891758, 28.692680215762707 ], [ -81.315274713173153, 28.692765936685124 ], [ -81.315468426253361, 28.692792640932467 ], [ -81.315438253109164, 28.692964082757918 ], [ -81.315341396361035, 28.692950730656779 ], [ -81.31532630964648, 28.693036451527664 ], [ -81.315229452832796, 28.693023099327949 ], [ -81.315214365991153, 28.693108820167406 ], [ -81.3151175091119, 28.693095467869156 ], [ -81.315072248113552, 28.693352630230976 ], [ -81.314975390976073, 28.693339277812807 ], [ -81.314960303818808, 28.693424998547915 ], [ -81.315057161052593, 28.693438350976809 ], [ -81.315026986838419, 28.693609792406122 ], [ -81.314542700013789, 28.693543029276444 ], [ -81.314497437017053, 28.693800191104355 ], [ -81.314594294609435, 28.693813543938028 ], [ -81.314564119317154, 28.693984985074302 ], [ -81.314660977132945, 28.693998337841602 ], [ -81.31447992395168, 28.695026983045882 ], [ -81.314383064980021, 28.695013630150079 ], [ -81.314367976918689, 28.695099350438227 ], [ -81.314271117881461, 28.69508599744389 ], [ -81.314225853223931, 28.695343158151882 ], [ -81.314322712550137, 28.695356511178353 ], [ -81.314292536150646, 28.695527951568096 ], [ -81.314195676631797, 28.695514598520163 ], [ -81.314165499916641, 28.695686038805558 ], [ -81.314068640235902, 28.695672685648447 ], [ -81.314038463205065, 28.695844125829428 ], [ -81.314135323078446, 28.695857479007941 ], [ -81.314120234613227, 28.695943199078059 ], [ -81.314023374643497, 28.695929845888809 ], [ -81.314008286051191, 28.696015565927471 ], [ -81.313911426015892, 28.696002212639701 ], [ -81.313881248546338, 28.696173652633387 ], [ -81.313106367830059, 28.696066822998269 ], [ -81.313091278278549, 28.696152542878355 ], [ -81.312994418231099, 28.696139188768029 ], [ -81.312964238843122, 28.696310628444518 ], [ -81.313061099083214, 28.69632398257621 ], [ -81.31300074032346, 28.696666861723209 ], [ -81.312903879698055, 28.696653507548668 ], [ -81.312888789834886, 28.696739227272886 ], [ -81.312695068483706, 28.696712518638915 ], [ -81.312664888279784, 28.696883957982241 ], [ -81.312761749132648, 28.696897312364548 ], [ -81.312731568998345, 28.697068751646352 ], [ -81.312634707952824, 28.697055397242639 ], [ -81.312559256597098, 28.697483995030826 ], [ -81.312656118124266, 28.697497349488131 ], [ -81.312505214068992, 28.698354543616571 ], [ -81.312408351578526, 28.698341189052147 ], [ -81.312423442218801, 28.698255469743277 ], [ -81.31222971752284, 28.698228760372402 ], [ -81.31221462668988, 28.698314479659803 ], [ -81.312117764291713, 28.698301124831925 ], [ -81.312132855220995, 28.698215405555235 ], [ -81.3113579579137, 28.698108563856273 ], [ -81.311342866213778, 28.698194283047279 ], [ -81.311246004092482, 28.698180927428982 ], [ -81.311230912265472, 28.698266646588515 ], [ -81.310940325797148, 28.698226579174648 ], [ -81.310955417913149, 28.698140860047246 ], [ -81.310664832010715, 28.698100791875124 ], [ -81.310649739605736, 28.698186510970363 ], [ -81.310262291781214, 28.698133085468505 ], [ -81.310247198960141, 28.698218804500225 ], [ -81.310150336984606, 28.698205447894473 ], [ -81.310135244036431, 28.698291166894727 ], [ -81.310038381995327, 28.698277810190483 ], [ -81.310023288920078, 28.698363529159256 ], [ -81.309442116741593, 28.698283387025175 ], [ -81.309427023057594, 28.698369105908977 ], [ -81.309330161039213, 28.698355748568531 ], [ -81.309315067228113, 28.698441467420849 ], [ -81.309121343090979, 28.698414752455097 ], [ -81.309136437094736, 28.698329033624205 ], [ -81.308942713273353, 28.698302318328633 ], [ -81.308927619076925, 28.698388037138056 ], [ -81.30883075711607, 28.698374679347822 ], [ -81.308815662792554, 28.698460398125842 ], [ -81.308137629253707, 28.698366891060125 ], [ -81.308122534225134, 28.698452609742404 ], [ -81.30783194859535, 28.698412533936235 ], [ -81.307816853247019, 28.698498252565656 ], [ -81.307429405786124, 28.698444816885065 ], [ -81.307414310021699, 28.698530535450864 ], [ -81.30722058628325, 28.698503817062207 ], [ -81.307205490295402, 28.698589535585874 ], [ -81.307011766487378, 28.698562816824555 ], [ -81.306996670276092, 28.698648535306017 ], [ -81.306899808321916, 28.698635175782883 ], [ -81.306914904629508, 28.698549457312094 ], [ -81.306624319240598, 28.698509378247984 ], [ -81.306609222644013, 28.698595096686617 ], [ -81.306512360812931, 28.698581736812198 ], [ -81.306497264089245, 28.698667455219393 ], [ -81.306400402192594, 28.698654095246436 ], [ -81.306385305341806, 28.698739813622151 ], [ -81.305997857677696, 28.69868637280933 ], [ -81.305982760410828, 28.698772091121466 ], [ -81.305304727509181, 28.69867856624295 ], [ -81.305259433501021, 28.698935720829841 ], [ -81.305162571492076, 28.698922359749456 ], [ -81.305147473331473, 28.699008077892916 ], [ -81.305050611256959, 28.698994716714022 ], [ -81.305035512969255, 28.699080434826051 ], [ -81.304938650829186, 28.699067073548612 ], [ -81.304953749213212, 28.698981355447277 ], [ -81.304856887200259, 28.698967994092779 ], [ -81.304841788719898, 28.699053712183346 ], [ -81.304744926641391, 28.699040350730233 ], [ -81.304714729395684, 28.699211786827778 ], [ -81.304424142766862, 28.699171701877319 ], [ -81.304409043808874, 28.699257419862825 ], [ -81.304118457168073, 28.699217334089827 ], [ -81.304103357890313, 28.699303052022444 ], [ -81.303715909081518, 28.699249603052763 ], [ -81.303731008744592, 28.699163885163017 ], [ -81.303440422750185, 28.699123797545816 ], [ -81.303425322798134, 28.699209515403382 ], [ -81.303231598763119, 28.699182789864718 ], [ -81.303216498587616, 28.699268507680117 ], [ -81.302925912476979, 28.699228418681287 ], [ -81.302865510311264, 28.699571289607 ], [ -81.30296237270268, 28.699584652737304 ], [ -81.302886869784587, 28.700013240981523 ], [ -81.302983732688418, 28.700026604077607 ], [ -81.302938430857154, 28.700283756807536 ], [ -81.302647841371055, 28.700243667159324 ], [ -81.30261763941833, 28.700415102144643 ], [ -81.302036460121329, 28.700334920348514 ], [ -81.302021358520818, 28.700420637745736 ], [ -81.301246453744824, 28.700313723680562 ], [ -81.301261556115975, 28.700228006369066 ], [ -81.301067830422483, 28.700201276996037 ], [ -81.301082932955481, 28.700115559685266 ], [ -81.300598619742189, 28.700048734769389 ], [ -81.300583516727542, 28.70013445202655 ], [ -81.300486654080913, 28.700121086769148 ], [ -81.30047155093915, 28.70020680399487 ], [ -81.300277825545621, 28.700180073195238 ], [ -81.300262722180406, 28.700265790378779 ], [ -81.300068996717371, 28.700239059206439 ], [ -81.30005389312872, 28.700324776347824 ], [ -81.299957030347059, 28.700311410619154 ], [ -81.299941926631305, 28.700397127729087 ], [ -81.29984506378409, 28.700383761901939 ], [ -81.299829959941221, 28.700469478980363 ], [ -81.299539371295367, 28.700429380939806 ], [ -81.299524267132711, 28.700515097965329 ], [ -81.299427404216019, 28.700501731765456 ], [ -81.299412299926246, 28.700587448759563 ], [ -81.299218573992562, 28.700560716074879 ], [ -81.299248782926611, 28.700389282108826 ], [ -81.299055057501391, 28.700362549115795 ], [ -81.299039952857115, 28.700448266087722 ], [ -81.298846227362404, 28.700421532721951 ], [ -81.298816017596153, 28.700592966560716 ], [ -81.298622291839322, 28.700566232800796 ], [ -81.298607186717362, 28.700651949667623 ], [ -81.29851032378879, 28.700638582645201 ], [ -81.298495218539713, 28.700724299480573 ], [ -81.298398355545615, 28.700710932359602 ], [ -81.298383250169408, 28.700796649163539 ], [ -81.298286387109769, 28.700783281944062 ], [ -81.298271281606446, 28.700868998716523 ], [ -81.298077555386911, 28.700842263992627 ], [ -81.298062449660151, 28.700927980722906 ], [ -81.297868723371124, 28.700901245626259 ], [ -81.297853617420913, 28.700986962314396 ], [ -81.297466164827085, 28.70093349102434 ], [ -81.297451058460766, 28.701019207648834 ], [ -81.297354195292954, 28.701005839596043 ], [ -81.297339088799518, 28.701091556189102 ], [ -81.297242225566194, 28.701078188037787 ], [ -81.297227118945628, 28.701163904599394 ], [ -81.297130255646763, 28.701150536349534 ], [ -81.297115148899081, 28.701236252879635 ], [ -81.296921422201081, 28.701209516094995 ], [ -81.296906315229947, 28.701295232582975 ], [ -81.296809451830811, 28.701281864048159 ], [ -81.296794344732547, 28.701367580504716 ], [ -81.296697481267898, 28.701354211871383 ], [ -81.296682374042504, 28.701439928296452 ], [ -81.296585510512315, 28.70142655956457 ], [ -81.296600617834031, 28.701340843150234 ], [ -81.296503754430958, 28.701327474341273 ], [ -81.2965188618182, 28.701241757916897 ], [ -81.296131408899214, 28.701188281845763 ], [ -81.29610119332331, 28.70135971458793 ], [ -81.296004329977904, 28.701346345329117 ], [ -81.295989222047439, 28.701432061658394 ], [ -81.295698631907001, 28.701391953322915 ], [ -81.295683523656763, 28.70147766959926 ], [ -81.295586660241881, 28.701464299967757 ], [ -81.295571551864512, 28.701550016212654 ], [ -81.295474688384104, 28.701536646482566 ], [ -81.295459579879605, 28.701622362696 ], [ -81.295265852818545, 28.70159562295099 ], [ -81.295250744090595, 28.701681339122235 ], [ -81.295057016960087, 28.70165459900447 ], [ -81.29504190800867, 28.701740315133506 ], [ -81.2948481808087, 28.701713574643048 ], [ -81.294817962428169, 28.7018850067961 ], [ -81.294624234966093, 28.701858265911447 ], [ -81.294609125536979, 28.701943981935401 ], [ -81.294318534285892, 28.701903869917583 ], [ -81.294288314757281, 28.702075301838992 ], [ -81.294191450875871, 28.702061930969279 ], [ -81.294176340969045, 28.702147646888157 ], [ -81.294079477022095, 28.702134275919878 ], [ -81.294064366988138, 28.702219991807308 ], [ -81.29416123103141, 28.702233362786316 ], [ -81.294115901033678, 28.70249051035638 ], [ -81.294212765396736, 28.702503881279721 ], [ -81.294182545436897, 28.702675312910934 ], [ -81.294085680881196, 28.702661941966156 ], [ -81.294070570758748, 28.702747657739927 ], [ -81.293973706137507, 28.702734286696565 ], [ -81.293958595887915, 28.702820002438909 ], [ -81.293861731201162, 28.702806631297037 ], [ -81.293846620824453, 28.702892347007861 ], [ -81.29374975607216, 28.70287897576743 ], [ -81.293734645568321, 28.702964691446855 ], [ -81.293637780750501, 28.702951320107886 ], [ -81.293622670119532, 28.703037035755848 ], [ -81.293525805236186, 28.703023664318266 ], [ -81.293510694478073, 28.703109379934787 ], [ -81.292832640482914, 28.703015777338031 ], [ -81.2928175290197, 28.703101492858707 ], [ -81.292720664190142, 28.703088120697181 ], [ -81.292705552599784, 28.703173836186391 ], [ -81.2926086877047, 28.703160463926295 ], [ -81.292578464238929, 28.703331894821122 ], [ -81.29238473415586, 28.703305149994513 ], [ -81.292399846096814, 28.703219434578951 ], [ -81.291915521909914, 28.703152571029349 ], [ -81.291885297033915, 28.703324001732472 ], [ -81.291691567189488, 28.703297255654967 ], [ -81.291676454512626, 28.703382970953982 ], [ -81.291579589540291, 28.703369597772806 ], [ -81.291549363901467, 28.703541028287194 ], [ -81.291258768591362, 28.703500908152257 ], [ -81.291243655436759, 28.703586623346222 ], [ -81.291049925191402, 28.703559876129045 ], [ -81.291034811813319, 28.70364559128075 ], [ -81.29093794664054, 28.703632217529723 ], [ -81.290922833135326, 28.703717932649962 ], [ -81.290729102689511, 28.703691184862972 ], [ -81.290668647589911, 28.704034045050939 ], [ -81.29047491649672, 28.704007296826806 ], [ -81.290459802452133, 28.704093011800566 ], [ -81.290362936855416, 28.704079637546045 ], [ -81.290287365688684, 28.704508212050076 ], [ -81.290190499641142, 28.704494837654046 ], [ -81.29017538521903, 28.704580552481985 ], [ -81.289981653023688, 28.704553803405055 ], [ -81.289936308994498, 28.704810947700015 ], [ -81.290130041767824, 28.70483769684132 ], [ -81.290114927222447, 28.704923411586289 ], [ -81.29030866031168, 28.704950160397793 ], [ -81.290323774664387, 28.704864445631326 ], [ -81.2905175076842, 28.704891194070083 ], [ -81.290502393524164, 28.704976908857976 ], [ -81.290599260176606, 28.704990282956356 ], [ -81.290553917800636, 28.705247427227931 ], [ -81.290457050859189, 28.705234053097357 ], [ -81.290441936575903, 28.705319767802372 ], [ -81.290345069568929, 28.705306393573277 ], [ -81.290329955158512, 28.705392108246826 ], [ -81.289748753185762, 28.705311860963548 ], [ -81.289688292923941, 28.705654719192946 ], [ -81.289494558408876, 28.705627969310118 ], [ -81.289434096883383, 28.705970827122119 ], [ -81.289530964510845, 28.705984202150375 ], [ -81.289515849148756, 28.70606991656226 ], [ -81.289806452505033, 28.706110041152296 ], [ -81.289776222266454, 28.706281469978361 ], [ -81.289679354257544, 28.706268095181365 ], [ -81.28969446948858, 28.706182380789421 ], [ -81.289597601606815, 28.706169005915342 ], [ -81.289582486279457, 28.706254720296567 ], [ -81.288904411295633, 28.706161093643921 ], [ -81.288889295263104, 28.706246807929237 ], [ -81.288792427435197, 28.706233432331118 ], [ -81.288777311275524, 28.706319146585006 ], [ -81.288196104377235, 28.706238891087679 ], [ -81.288180987608754, 28.706324605256459 ], [ -81.287890384286655, 28.706284476290012 ], [ -81.287875267198345, 28.70637019040587 ], [ -81.287681531611696, 28.706343437300976 ], [ -81.287666414299906, 28.70642915137465 ], [ -81.287085207701594, 28.706348889887884 ], [ -81.287054971829562, 28.706520317844248 ], [ -81.286667500609752, 28.706466808344107 ], [ -81.2866826189465, 28.706381094419228 ], [ -81.286585751314931, 28.706367716835391 ], [ -81.286600869717205, 28.706282002900469 ], [ -81.28650400221278, 28.706268625239542 ], [ -81.286519120680552, 28.706182911294704 ], [ -81.2864222533033, 28.70616953355664 ], [ -81.286467608810696, 28.705912391629873 ], [ -81.286080140765819, 28.705858879928357 ], [ -81.286065021908854, 28.705944593881757 ], [ -81.285968154878347, 28.705931215726071 ], [ -81.286013511645805, 28.705674073835944 ], [ -81.285916644935114, 28.705660695624683 ], [ -81.285977120578863, 28.705317839523975 ], [ -81.285880254284322, 28.705304461267801 ], [ -81.285925610982488, 28.705047319006837 ], [ -81.285828745007763, 28.705033940695031 ], [ -81.285843863941835, 28.704948226577308 ], [ -81.28574699809424, 28.704934848188415 ], [ -81.285792355000552, 28.70467770574318 ], [ -81.285695489472772, 28.704664327298651 ], [ -81.285680370438499, 28.704750041457054 ], [ -81.285196042780285, 28.704683147863602 ], [ -81.28518092323354, 28.704768861947642 ], [ -81.285084057698043, 28.704755482954756 ], [ -81.285068938024153, 28.704841197007301 ], [ -81.284584610327329, 28.704774300671911 ], [ -81.284554369923796, 28.704945728607477 ], [ -81.283973176548869, 28.704865449978129 ], [ -81.283958055722906, 28.704951163850438 ], [ -81.283473728276491, 28.704884262523919 ], [ -81.283458606938069, 28.704969976321824 ], [ -81.283264875982638, 28.704943215154994 ], [ -81.283234632827998, 28.705114642645711 ], [ -81.282750305015597, 28.705047738084499 ], [ -81.2827351829104, 28.70513345174507 ], [ -81.28263831734408, 28.7051200705586 ], [ -81.282623195111739, 28.705205784187719 ], [ -81.282235732769394, 28.705152258520833 ], [ -81.28222061012093, 28.705237972086291 ], [ -81.282026878942062, 28.705211208704434 ], [ -81.282011756070105, 28.705296922227653 ], [ -81.281818024821902, 28.705270158473052 ], [ -81.281772655443106, 28.705527298853987 ], [ -81.281869521340766, 28.705540680807399 ], [ -81.281824151973467, 28.705797821033983 ], [ -81.281727285786829, 28.705784439048358 ], [ -81.281712162506409, 28.705870152405037 ], [ -81.280840367347011, 28.705749710485936 ], [ -81.280825243168806, 28.705835423725258 ], [ -81.280340913122174, 28.705768508420551 ], [ -81.280356037782013, 28.705682795234953 ], [ -81.280259171961518, 28.705669411921278 ], [ -81.280304546044988, 28.705412272272259 ], [ -81.280110815074451, 28.705385505445886 ], [ -81.280095690218133, 28.705471218661508 ], [ -81.279805093704567, 28.705431067731148 ], [ -81.279789968528448, 28.705516780893799 ], [ -81.27920877575589, 28.705436476597502 ], [ -81.279193649970978, 28.705522189675012 ], [ -81.27909678452049, 28.705508805307485 ], [ -81.279081658608405, 28.705594518353525 ], [ -81.278500465975, 28.705514210240008 ], [ -81.27848533945415, 28.705599923200854 ], [ -81.278388474026855, 28.705586538197156 ], [ -81.278373347378817, 28.705672251126593 ], [ -81.277889020223256, 28.705605324737103 ], [ -81.277873893062775, 28.705691037592107 ], [ -81.277583296850494, 28.705650880672337 ], [ -81.277568169370213, 28.705736593474391 ], [ -81.277277573146506, 28.705696435732097 ], [ -81.277262445346395, 28.705782148481187 ], [ -81.277068714492145, 28.7057553761924 ], [ -81.276962817679291, 28.706355364705317 ], [ -81.276769085599852, 28.7063285919149 ], [ -81.276753957167728, 28.706414304455208 ], [ -81.276657091077922, 28.706400917917499 ], [ -81.276641962518624, 28.706486630426387 ], [ -81.27654509636335, 28.706473243790121 ], [ -81.276514838959585, 28.706644668724159 ], [ -81.276321106356249, 28.70661789514525 ], [ -81.276305977415447, 28.706703607559664 ], [ -81.275531047465179, 28.706596509645369 ], [ -81.275546177176594, 28.706510797316874 ], [ -81.275449311167932, 28.706497409693132 ], [ -81.275434181360197, 28.706583122010908 ], [ -81.275143583230289, 28.706542958580592 ], [ -81.275113322944335, 28.706714383089508 ], [ -81.274919590626638, 28.706687606987245 ], [ -81.274904460244741, 28.706773319189089 ], [ -81.274129531437183, 28.70666621118124 ], [ -81.274144662589663, 28.706580499065318 ], [ -81.274047796723835, 28.706567110179908 ], [ -81.274032665475019, 28.706652822285083 ], [ -81.273838933643276, 28.70662604422931 ], [ -81.273808670667805, 28.706797468334585 ], [ -81.273711804605554, 28.706784079153486 ], [ -81.273696672975206, 28.706869791164277 ], [ -81.273599806847486, 28.706856401884597 ], [ -81.273584675089978, 28.70694211386391 ], [ -81.273487808896775, 28.706928724485699 ], [ -81.273502940750603, 28.706843012517073 ], [ -81.273406074684573, 28.706829623061829 ], [ -81.273390942734409, 28.706915335019662 ], [ -81.273197210502232, 28.706888555824118 ], [ -81.273182078328588, 28.706974267739724 ], [ -81.271051029799693, 28.706679673168125 ], [ -81.271035895476047, 28.706765384826706 ], [ -81.270842164339399, 28.706738601372884 ], [ -81.270827029792258, 28.706824312989184 ], [ -81.270245836544788, 28.706743960455611 ] ], [ [ -81.282535320206492, 28.704579025841152 ], [ -81.28263218513321, 28.704592407138801 ], [ -81.28264730724608, 28.704506693375368 ], [ -81.283034766875915, 28.704560217644911 ], [ -81.283049888572663, 28.704474503817782 ], [ -81.283146753460855, 28.704487884654895 ], [ -81.283207239554287, 28.704145029096075 ], [ -81.283110375051379, 28.704131648301921 ], [ -81.283155739586746, 28.703874506447359 ], [ -81.283058875403654, 28.703861125597587 ], [ -81.283104239950561, 28.703603983588703 ], [ -81.283007376087255, 28.703590602683317 ], [ -81.283067862103536, 28.703247746424179 ], [ -81.282970998656381, 28.703234365473918 ], [ -81.283016363133882, 28.702977223094077 ], [ -81.2829195000065, 28.702963842088231 ], [ -81.282995107334131, 28.702535271094224 ], [ -81.282898244719178, 28.702521890054211 ], [ -81.282913366188538, 28.702436175803935 ], [ -81.282816503700744, 28.702422794686832 ], [ -81.282831625235602, 28.70233708042657 ], [ -81.282734762874952, 28.702323699232405 ], [ -81.282749884475308, 28.702237984962093 ], [ -81.282265573615987, 28.702171077727602 ], [ -81.282250451534026, 28.702256791944201 ], [ -81.282153589358316, 28.702243410223087 ], [ -81.282062855641243, 28.702757695022804 ], [ -81.28177226756533, 28.702717549139351 ], [ -81.281696653841877, 28.703146119074624 ], [ -81.281599790729942, 28.703132736884172 ], [ -81.281584667796452, 28.703218450798275 ], [ -81.281487804619019, 28.703205068509277 ], [ -81.281472681558398, 28.703290782391957 ], [ -81.281375818315468, 28.703277400004406 ], [ -81.281345571909057, 28.703448827686035 ], [ -81.281442435344601, 28.703462210095079 ], [ -81.281427312191482, 28.703547923915501 ], [ -81.281524175754186, 28.703561306247448 ], [ -81.281493929548077, 28.703732733847673 ], [ -81.28159079333426, 28.703746116113283 ], [ -81.281575670281285, 28.70383182989303 ], [ -81.281769398138792, 28.703858594182254 ], [ -81.281724029372853, 28.704115735461542 ], [ -81.281820893636819, 28.704129117506579 ], [ -81.2818057707495, 28.704214831235618 ], [ -81.281999499562545, 28.704241595083865 ], [ -81.281954131293574, 28.704498736210983 ], [ -81.282244725611307, 28.704538881421286 ], [ -81.2822296030823, 28.704624595121071 ], [ -81.282520197966463, 28.704664739573193 ], [ -81.282535320206492, 28.704579025841152 ] ], [ [ -81.280718315059843, 28.69800612607543 ], [ -81.281396315176536, 28.698099806346008 ], [ -81.281411437381564, 28.698014091347336 ], [ -81.281314580225867, 28.69800070872569 ], [ -81.281375069122973, 28.697657848566493 ], [ -81.281665639526821, 28.697697996039118 ], [ -81.281680761385104, 28.697612280915259 ], [ -81.281777618151736, 28.697625663219757 ], [ -81.281838104891392, 28.697282802473964 ], [ -81.281934961303605, 28.697296184647737 ], [ -81.282010568553119, 28.696867608195149 ], [ -81.281623145015388, 28.696814079187835 ], [ -81.281638266758051, 28.696728363878073 ], [ -81.281541411046973, 28.696714981417422 ], [ -81.281571654632444, 28.696543550757077 ], [ -81.281668510150908, 28.696556933196216 ], [ -81.281683631801101, 28.696471217824186 ], [ -81.281780487254082, 28.696484600164791 ], [ -81.28181073026937, 28.696313169337053 ], [ -81.28190758556056, 28.696326551568362 ], [ -81.281922706925684, 28.696240836112633 ], [ -81.282019562151376, 28.696254218245443 ], [ -81.282064925772858, 28.695997071721603 ], [ -81.281968070836086, 28.695983689621041 ], [ -81.281983192077902, 28.695897974082332 ], [ -81.281886337268247, 28.69588459190464 ], [ -81.281871215930124, 28.695970307432603 ], [ -81.281580651397178, 28.695930160340556 ], [ -81.281565529739311, 28.696015875815561 ], [ -81.281468674860335, 28.696002493265155 ], [ -81.281544283322958, 28.695573915736293 ], [ -81.281447428956341, 28.695560533151777 ], [ -81.281462550652705, 28.69547481759448 ], [ -81.281656259224164, 28.695501582654266 ], [ -81.281671380697105, 28.695415867054759 ], [ -81.281574526492264, 28.695402484579542 ], [ -81.281589648030675, 28.695316768970013 ], [ -81.28149279395295, 28.695303386417685 ], [ -81.281507915556844, 28.695217670798208 ], [ -81.281120499939433, 28.695164139753683 ], [ -81.281105377950325, 28.69524985533026 ], [ -81.280911670133946, 28.695223089259652 ], [ -81.280896547921415, 28.695308804794053 ], [ -81.280605986139122, 28.695268654997363 ], [ -81.280590863606847, 28.695354370478778 ], [ -81.280397155713487, 28.695327603487119 ], [ -81.280382032957803, 28.695413318926356 ], [ -81.279994617155808, 28.695359783846389 ], [ -81.279979493984058, 28.695445499221943 ], [ -81.279688932167318, 28.695405346957735 ], [ -81.279673808675852, 28.695491062280308 ], [ -81.279189539116302, 28.695424140030102 ], [ -81.279159291077846, 28.695595570505681 ], [ -81.279352999194401, 28.695622339712184 ], [ -81.279337875321531, 28.695708054940312 ], [ -81.27982214663389, 28.695774976473427 ], [ -81.279852393385752, 28.695603545889028 ], [ -81.280239810220095, 28.695657081449017 ], [ -81.280254933164585, 28.695571366082781 ], [ -81.280448641574097, 28.695598133314437 ], [ -81.280357904600464, 28.696112425329609 ], [ -81.280164195035312, 28.696085657969089 ], [ -81.28010370233261, 28.696428518811761 ], [ -81.280297412668219, 28.696455286258114 ], [ -81.280221797059312, 28.696883861952085 ], [ -81.280318652754886, 28.696897245597199 ], [ -81.28028840648814, 28.697068675751066 ], [ -81.280385262407165, 28.697082059329887 ], [ -81.28032476988902, 28.69742491943158 ], [ -81.280421626224083, 28.697438302965498 ], [ -81.280391379972656, 28.697609732913396 ], [ -81.28048823653117, 28.697623116380942 ], [ -81.280427744043635, 28.697965976070837 ], [ -81.280524601018215, 28.697979359493523 ], [ -81.280509477915572, 28.698065074374824 ], [ -81.280703192149815, 28.698091840978254 ], [ -81.280718315059843, 28.69800612607543 ] ], [ [ -81.278596486038623, 28.697098286004234 ], [ -81.278693341722473, 28.697111671108079 ], [ -81.278708466504639, 28.697025956275468 ], [ -81.27880532212302, 28.697039341280696 ], [ -81.278850695995615, 28.696782196626344 ], [ -81.278753840666155, 28.696768811653314 ], [ -81.278814339116565, 28.69642595186664 ], [ -81.27871748420317, 28.69641256684875 ], [ -81.278762858006189, 28.696155421823146 ], [ -81.278666003412511, 28.696142036749624 ], [ -81.278696252652992, 28.695970606650331 ], [ -81.278599398282751, 28.695957221510458 ], [ -81.278659896778962, 28.695614361105868 ], [ -81.278563042824771, 28.695600975921138 ], [ -81.278638665732913, 28.695172400002328 ], [ -81.278541812291067, 28.69515901478346 ], [ -81.27857206143112, 28.694987584292203 ], [ -81.278475208212697, 28.694974199006978 ], [ -81.278505457422042, 28.694802768454199 ], [ -81.278408604427042, 28.694789383102634 ], [ -81.278453978298757, 28.694532237150067 ], [ -81.278357125623486, 28.694518851742885 ], [ -81.278387374909755, 28.694347421025572 ], [ -81.278290522457908, 28.694334035552096 ], [ -81.278351021045694, 28.693991173911446 ], [ -81.278254169009884, 28.693977788393084 ], [ -81.278329792032466, 28.693549210929117 ], [ -81.278232940508971, 28.693535825376596 ], [ -81.278293438757345, 28.693192963074932 ], [ -81.278196587649859, 28.693179577477547 ], [ -81.27822683678167, 28.693008146223669 ], [ -81.278129985897607, 28.692994760559937 ], [ -81.278145110513563, 28.692909044912636 ], [ -81.278048259756631, 28.692895659171828 ], [ -81.278063384438056, 28.692809943514501 ], [ -81.277869683209261, 28.692783171790907 ], [ -81.277884808052448, 28.692697456134312 ], [ -81.27749740634998, 28.692643911676409 ], [ -81.277512531547515, 28.692558196041976 ], [ -81.277415681295267, 28.692544809718715 ], [ -81.277400556001439, 28.692630525342391 ], [ -81.27711000514077, 28.692590365813562 ], [ -81.277049502501598, 28.692933227972016 ], [ -81.27714635314284, 28.692946614612374 ], [ -81.277055598836938, 28.693460907292028 ], [ -81.277152450086788, 28.693474293908995 ], [ -81.277046569334544, 28.694074301166339 ], [ -81.27714342128931, 28.694087687770644 ], [ -81.277082917709222, 28.69443054864702 ], [ -81.277179770079997, 28.694443935206458 ], [ -81.277149518297577, 28.694615365541633 ], [ -81.277246370891774, 28.694628752034738 ], [ -81.277185867342155, 28.694971612499099 ], [ -81.277282720352403, 28.694984998947344 ], [ -81.277237342655354, 28.695242144109983 ], [ -81.277334195985318, 28.695255530502621 ], [ -81.277273692342831, 28.69559839047194 ], [ -81.277370546088832, 28.695611776819721 ], [ -81.27732516832215, 28.695868921611119 ], [ -81.277422022387896, 28.695882307903268 ], [ -81.277376644632625, 28.696139452540169 ], [ -81.2774734990181, 28.696152838776744 ], [ -81.277428121274255, 28.696409983259155 ], [ -81.277524975979475, 28.696423369440115 ], [ -81.277464472274588, 28.696766228502558 ], [ -81.277561327395858, 28.696779614638665 ], [ -81.277515949582366, 28.697036758749888 ], [ -81.277612805023395, 28.69705014483036 ], [ -81.277597679120205, 28.697135859503337 ], [ -81.277985101577826, 28.697189402990055 ], [ -81.278000227095788, 28.69710368827409 ], [ -81.278484505379978, 28.697170615603046 ], [ -81.278469380343552, 28.69725633037266 ], [ -81.278566236189192, 28.697269715585719 ], [ -81.278596486038623, 28.697098286004234 ] ], [ [ -81.279473989067526, 28.694936617140172 ], [ -81.279570842401625, 28.694950001525779 ], [ -81.279585965900736, 28.694864286100223 ], [ -81.280167085974853, 28.694944590505603 ], [ -81.280182208865341, 28.694858874994853 ], [ -81.280279062222618, 28.694872258744343 ], [ -81.280294184985976, 28.69478654320212 ], [ -81.280778451753193, 28.694853460578763 ], [ -81.280793574004221, 28.694767744962142 ], [ -81.280890427353839, 28.694781128163303 ], [ -81.280950915664491, 28.694438265446411 ], [ -81.280854062700087, 28.694424882288192 ], [ -81.280884306863058, 28.6942534508267 ], [ -81.280690601411919, 28.69422668428976 ], [ -81.280705723639784, 28.694140968549387 ], [ -81.280608871056756, 28.694127585159926 ], [ -81.280714726462818, 28.693527574471453 ], [ -81.280521022737418, 28.69350080757938 ], [ -81.280566389455458, 28.693243659894662 ], [ -81.280372686431136, 28.693216892715707 ], [ -81.280357564030027, 28.693302608609915 ], [ -81.280163860936383, 28.693275841058227 ], [ -81.280148738311851, 28.693361556910244 ], [ -81.280051886714972, 28.693348172991968 ], [ -81.280036763963309, 28.693433888812446 ], [ -81.279746209068747, 28.693393736498571 ], [ -81.279731085997355, 28.693479452266136 ], [ -81.279634234331184, 28.69346606797513 ], [ -81.279619111132675, 28.693551783711236 ], [ -81.279522259401034, 28.693538399321696 ], [ -81.279537382695835, 28.693452683596345 ], [ -81.279440531091325, 28.693439299129789 ], [ -81.279425407700202, 28.69352501484434 ], [ -81.27903800120518, 28.693471476056938 ], [ -81.279022877398049, 28.693557191707868 ], [ -81.278926025755069, 28.693543806780777 ], [ -81.278910901820822, 28.693629522400187 ], [ -81.279007753560109, 28.693642907338063 ], [ -81.278992629691331, 28.693728622947479 ], [ -81.279089481557747, 28.69374200780824 ], [ -81.279074357754453, 28.693827723407669 ], [ -81.279364913827536, 28.693867877495318 ], [ -81.279349790282296, 28.693953593106158 ], [ -81.27944664246462, 28.693966977637139 ], [ -81.27943151898485, 28.694052693238 ], [ -81.279334666706234, 28.694039308696286 ], [ -81.279319543099348, 28.694125024265624 ], [ -81.279222690755262, 28.694111639625373 ], [ -81.27919244325642, 28.69428307068042 ], [ -81.279095590750558, 28.694269685930852 ], [ -81.279080466858588, 28.694355401416505 ], [ -81.278983614287256, 28.694342016568417 ], [ -81.2789382421375, 28.694599162868744 ], [ -81.279035094997738, 28.694612547749049 ], [ -81.27900484693636, 28.694783978533618 ], [ -81.279101700020021, 28.694797363347554 ], [ -81.279071452027949, 28.694968794070682 ], [ -81.279458865441271, 28.695022332534268 ], [ -81.279473989067526, 28.694936617140172 ] ], [ [ -81.300084721741953, 28.69339267391786 ], [ -81.300181576575753, 28.693406039765549 ], [ -81.300196678791792, 28.69332032110389 ], [ -81.300293533560065, 28.693333686853062 ], [ -81.300323737707217, 28.693162249445979 ], [ -81.30090486580751, 28.693242441968351 ], [ -81.301055878917651, 28.692385253045202 ], [ -81.30086217135397, 28.69235852277 ], [ -81.300847069988848, 28.692444241734226 ], [ -81.300556508585245, 28.692404145630722 ], [ -81.300571610239302, 28.692318426698645 ], [ -81.300474756595975, 28.692305061165897 ], [ -81.30048985831553, 28.692219342223847 ], [ -81.300005591042179, 28.692152513296485 ], [ -81.300020693212531, 28.692066794387216 ], [ -81.299730133506813, 28.692026696009183 ], [ -81.299715031047555, 28.692112414886282 ], [ -81.299521324538404, 28.692085682173776 ], [ -81.299491119142303, 28.692257119822877 ], [ -81.29939426574127, 28.69224375331347 ], [ -81.299379162900749, 28.692329472096144 ], [ -81.299282309434204, 28.692316105488217 ], [ -81.299267206466567, 28.692401824239447 ], [ -81.29917035293451, 28.692388457532974 ], [ -81.299155249839785, 28.692474176252748 ], [ -81.299058396242188, 28.692460809447756 ], [ -81.299043293020375, 28.692546528136091 ], [ -81.298946439357252, 28.692533161232518 ], [ -81.298931336008337, 28.692618879889402 ], [ -81.298834482279702, 28.692605512887301 ], [ -81.29875896459184, 28.693034105806756 ], [ -81.298952673043004, 28.69306083983032 ], [ -81.298862051957329, 28.693575150777761 ], [ -81.298958906806959, 28.693588517722119 ], [ -81.29892869972474, 28.693759954560107 ], [ -81.299025554797765, 28.693773321438055 ], [ -81.298980244232467, 28.694030476571612 ], [ -81.299077099625237, 28.694043843393953 ], [ -81.299061996138207, 28.694129561741075 ], [ -81.299255707208687, 28.69415629514371 ], [ -81.299240603883504, 28.694242013491522 ], [ -81.29962802677916, 28.694295479285923 ], [ -81.299643129719101, 28.694209760895244 ], [ -81.29973998542367, 28.69422312711362 ], [ -81.299755088236495, 28.694137408691486 ], [ -81.300142510977338, 28.694190872643837 ], [ -81.300157613374154, 28.694105154158134 ], [ -81.300448180464087, 28.694145251168173 ], [ -81.300463282541159, 28.694059532629563 ], [ -81.300560138203053, 28.694072898113227 ], [ -81.300605443960649, 28.693815742340703 ], [ -81.300702299364389, 28.693829107704424 ], [ -81.300732502856235, 28.693657670397556 ], [ -81.300635647645123, 28.69364430505529 ], [ -81.300650749441175, 28.693558586381506 ], [ -81.300263329289791, 28.693505124177165 ], [ -81.300248227108483, 28.693590842808106 ], [ -81.300151372051275, 28.693577477026793 ], [ -81.300136269742865, 28.693663195626225 ], [ -81.300039414620144, 28.693649829746384 ], [ -81.300084721741953, 28.69339267391786 ] ], [ [ -81.309163910619191, 28.685777173396154 ], [ -81.3092607581263, 28.685790531312357 ], [ -81.309290941288154, 28.68561908810554 ], [ -81.309194093973645, 28.685605730210717 ], [ -81.309209185604743, 28.685520008586899 ], [ -81.309112338417279, 28.685506650615004 ], [ -81.309127430113932, 28.685420928981134 ], [ -81.308836889025031, 28.685380854570703 ], [ -81.308806705023201, 28.68555229775345 ], [ -81.30870985786251, 28.685538939419605 ], [ -81.308679673545043, 28.68571038249792 ], [ -81.309067063142848, 28.685763815392104 ], [ -81.309051971323171, 28.685849536942992 ], [ -81.309148818895821, 28.685862894957729 ], [ -81.309163910619191, 28.685777173396154 ] ] ], [ [ [ -81.300024312184632, 28.693735548314358 ], [ -81.299927456996372, 28.693722182335971 ], [ -81.299942559528205, 28.693636463778702 ], [ -81.300039414620144, 28.693649829746384 ], [ -81.300024312184632, 28.693735548314358 ] ] ] ] } }
]
}
