<?xml version="1.0" encoding="UTF-8"?>
<kml xmlns="http://www.opengis.net/kml/2.2">
<Document>
  <name>CFX SR417 Corridor</name>
  <Style id="cfx_corridor">
    <LineStyle><color>ff0000ff</color><width>2</width></LineStyle>
    <PolyStyle><color>660000ff</color></PolyStyle>
  </Style>
  <Style id="aoi_box">
    <LineStyle><color>ff00ffff</color><width>1.5</width></LineStyle>
    <PolyStyle><fill>0</fill></PolyStyle>
  </Style>
  <Placemark>
    <name>CFX SR417 Estimated ROW Corridor</name>
    <description>Estimated CFX SR417 right-of-way corridor. Source: OpenStreetMap centerlines buffered 50.0 m each side (~328 ft total estimated ROW width). Clipped to 2.0 km × 2.0 km AOI centered on (28.36687, -81.43299). ESTIMATED — replace with CFX surveyed boundary when available.</description>
    <styleUrl>#cfx_corridor</styleUrl>
    <Polygon>
      <extrude>0</extrude>
      <altitudeMode>clampToGround</altitudeMode>
      <outerBoundaryIs>
        <LinearRing><coordinates>-81.4427326,28.3588444,0 -81.4427419,28.3588410,0 -81.4430953,28.3587148,0 -81.4431082,28.3587103,0 -81.4432023,28.3586794,0 -81.4432074,28.3599110,0 -81.4431259,28.3599402,0 -81.4427909,28.3600678,0 -81.4424645,28.3601984,0 -81.4421248,28.3603404,0 -81.4417060,28.3605303,0 -81.4412826,28.3607352,0 -81.4409677,28.3608964,0 -81.4406599,28.3610603,0 -81.4403648,28.3612288,0 -81.4400713,28.3614020,0 -81.4397686,28.3615904,0 -81.4394664,28.3617848,0 -81.4391842,28.3619715,0 -81.4389130,28.3621619,0 -81.4386244,28.3623726,0 -81.4383520,28.3625823,0 -81.4380848,28.3627975,0 -81.4378225,28.3630174,0 -81.4375656,28.3632407,0 -81.4373173,28.3634615,0 -81.4351551,28.3654174,0 -81.4334464,28.3669757,0 -81.4331396,28.3672605,0 -81.4329422,28.3670941,0 -81.4329421,28.3670942,0 -81.4331394,28.3672607,0 -81.4310985,28.3691526,0 -81.4310947,28.3691560,0 -81.4290195,28.3710391,0 -81.4290182,28.3710403,0 -81.4287570,28.3712756,0 -81.4287553,28.3712771,0 -81.4284960,28.3715085,0 -81.4284856,28.3715176,0 -81.4282180,28.3717431,0 -81.4282070,28.3717520,0 -81.4279294,28.3719726,0 -81.4279225,28.3719781,0 -81.4276459,28.3721900,0 -81.4276390,28.3721952,0 -81.4273486,28.3724098,0 -81.4273395,28.3724163,0 -81.4270502,28.3726203,0 -81.4270284,28.3726349,0 -81.4263543,28.3730601,0 -81.4261966,28.3728645,0 -81.4261944,28.3728658,0 -81.4263496,28.3730630,0 -81.4258241,28.3733866,0 -81.4256681,28.3731884,0 -81.4256664,28.3731894,0 -81.4258206,28.3733887,0 -81.4255677,28.3735417,0 -81.4255481,28.3735530,0 -81.4252494,28.3737165,0 -81.4252427,28.3737201,0 -81.4249157,28.3738930,0 -81.4249064,28.3738978,0 -81.4245877,28.3740583,0 -81.4245736,28.3740652,0 -81.4242532,28.3742149,0 -81.4242475,28.3742175,0 -81.4239051,28.3743727,0 -81.4238942,28.3743775,0 -81.4235577,28.3745211,0 -81.4235510,28.3745239,0 -81.4232149,28.3746621,0 -81.4231997,28.3746681,0 -81.4228438,28.3748021,0 -81.4228327,28.3748061,0 -81.4227770,28.3748257,0 -81.4227720,28.3735777,0 -81.4229974,28.3734850,0 -81.4233203,28.3733472,0 -81.4236498,28.3731978,0 -81.4239550,28.3730552,0 -81.4242556,28.3729039,0 -81.4245706,28.3727373,0 -81.4249102,28.3725524,0 -81.4252400,28.3723545,0 -81.4257648,28.3720301,0 -81.4259193,28.3722257,0 -81.4259218,28.3722241,0 -81.4257702,28.3720269,0 -81.4260286,28.3718715,0 -81.4262495,28.3717224,0 -81.4265253,28.3715279,0 -81.4268036,28.3713222,0 -81.4270695,28.3711185,0 -81.4273333,28.3709089,0 -81.4275844,28.3706972,0 -81.4278346,28.3704740,0 -81.4280930,28.3702412,0 -81.4301573,28.3683603,0 -81.4322375,28.3664400,0 -81.4324342,28.3666067,0 -81.4324371,28.3666040,0 -81.4322438,28.3664342,0 -81.4325967,28.3661198,0 -81.4342217,28.3646216,0 -81.4342251,28.3646185,0 -81.4363918,28.3626589,0 -81.4363949,28.3626562,0 -81.4366489,28.3624304,0 -81.4366528,28.3624269,0 -81.4369179,28.3621963,0 -81.4369247,28.3621906,0 -81.4371979,28.3619615,0 -81.4372055,28.3619552,0 -81.4374852,28.3617301,0 -81.4374937,28.3617234,0 -81.4377804,28.3615028,0 -81.4377905,28.3614952,0 -81.4380929,28.3612744,0 -81.4381005,28.3612690,0 -81.4383863,28.3610683,0 -81.4383978,28.3610604,0 -81.4386932,28.3608649,0 -81.4386988,28.3608613,0 -81.4390104,28.3606608,0 -81.4390171,28.3606566,0 -81.4393328,28.3604603,0 -81.4393430,28.3604541,0 -81.4396495,28.3602732,0 -81.4396560,28.3602694,0 -81.4399665,28.3600921,0 -81.4399800,28.3600846,0 -81.4403041,28.3599120,0 -81.4403116,28.3599081,0 -81.4406406,28.3597396,0 -81.4406515,28.3597342,0 -81.4410926,28.3595208,0 -81.4411047,28.3595152,0 -81.4415401,28.3593178,0 -81.4415555,28.3593111,0 -81.4420165,28.3591191,0 -81.4421340,28.3593399,0 -81.4421396,28.3593377,0 -81.4420286,28.3591142,0 -81.4423886,28.3589743,0 -81.4423935,28.3589724,0 -81.4427326,28.3588444,0</coordinates></LinearRing>
      </outerBoundaryIs>
    </Polygon>
  </Placemark>  <Placemark>
    <name>2×2 km AOI Reference Box</name>
    <styleUrl>#aoi_box</styleUrl>
    <Polygon>
      <extrude>0</extrude><altitudeMode>clampToGround</altitudeMode>
      <outerBoundaryIs>
        <LinearRing><coordinates>-81.4227810,28.3578869,0 -81.4227810,28.3758531,0 -81.4431990,28.3758531,0 -81.4431990,28.3578869,0 -81.4227810,28.3578869,0</coordinates></LinearRing>
      </outerBoundaryIs>
    </Polygon>
  </Placemark>
</Document>
</kml>