{"type": "FeatureCollection", "features": [{"type": "Feature", "id": 987708, "geometry": {"type": "Polygon", "coordinates": [[[-81.64716855180939, 28.515583946642824], [-81.64696669677178, 28.51561541913199], [-81.6469125957338, 28.515654084846535], [-81.64691021519829, 28.515726524710765], [-81.64698548323932, 28.515826903091163], [-81.64712930531293, 28.51584042363371], [-81.64734954706776, 28.515754434879746], [-81.64738864893546, 28.515677514755], [-81.64729577301655, 28.5155976558683], [-81.64716855180939, 28.515583946642824]]]}, "properties": {"OBJECTID": 987708, "id3dhp": "IP0GG", "featuredate": 1694649600000, "mainstemid": null, "gnisid": null, "gnisidlabel": null, "featuretype": 3, "featuretypelabel": "Lake", "areasqkm": 0.001, "workunitid": "NHD", "Shape__Length": 137.3313181945969, "Shape__Area": 1277.3322675334996}}, {"type": "Feature", "id": 2301825, "geometry": {"type": "Polygon", "coordinates": [[[-81.67837688177248, 28.519878353290142], [-81.67813978582627, 28.51958005673448], [-81.6777801345225, 28.519020011792147], [-81.67795765060579, 28.51889321576512], [-81.6781419265116, 28.519144501298246], [-81.67815122587143, 28.519150639774203], [-81.6782530265527, 28.519224948692763], [-81.67832234774652, 28.519144109799726], [-81.67840265353966, 28.518930356114073], [-81.67843501265283, 28.518755356554333], [-81.67848874717818, 28.518538271956], [-81.6786285376128, 28.518443883124753], [-81.67871764599741, 28.518292781729386], [-81.67868458979157, 28.518103987756533], [-81.67849831872753, 28.51793515931286], [-81.67789425290293, 28.518221192934707], [-81.67746314241494, 28.51818315409123], [-81.67618249606103, 28.517790084449295], [-81.6753075998564, 28.517612569003287], [-81.67468629446317, 28.517714006437583], [-81.67414106828969, 28.517688647088136], [-81.67381139736018, 28.517967598807083], [-81.67378603881804, 28.51839870893473], [-81.67393819456254, 28.518550864704537], [-81.67350708497287, 28.518918574035556], [-81.67280670986833, 28.519216218913034], [-81.67269292296623, 28.51929213403223], [-81.67237859436348, 28.519501840197822], [-81.67214630979394, 28.519155618751224], [-81.67209030971746, 28.51902355185869], [-81.67204670998514, 28.518951951720425], [-81.67197811013847, 28.518885951713116], [-81.67187850943134, 28.518852952088647], [-81.6717477102344, 28.5188419522115], [-81.67153270206441, 28.51901542825429], [-81.6715191419952, 28.51903184200733], [-81.67143636403839, 28.519132045171492], [-81.67129251591363, 28.51924830045541], [-81.67111778460772, 28.519237582403523], [-81.67096007996969, 28.51931852541391], [-81.67085102629085, 28.51946712086143], [-81.67087843389015, 28.51964961529626], [-81.6710124301912, 28.51973356367204], [-81.67121333481123, 28.519723981482592], [-81.67126800987268, 28.519707497588932], [-81.67164308165664, 28.519594417409003], [-81.67196016629067, 28.519539878565578], [-81.6720489243323, 28.51974275357502], [-81.6717953299276, 28.519945627404784], [-81.67150369815882, 28.520249940574747], [-81.67135295097269, 28.520467558374232], [-81.6713051093956, 28.520536619090784], [-81.67045128407423, 28.52080784550875], [-81.66864073321236, 28.521718935867], [-81.6684515758613, 28.52199982015597], [-81.66825197559506, 28.522610620080837], [-81.66818970887114, 28.523028752785063], [-81.66801510871926, 28.523645020390934], [-81.66779070866298, 28.524283220664003], [-81.66751697852116, 28.524812366969243], [-81.66732282384218, 28.525090169610465], [-81.6672997622922, 28.52507445056643], [-81.66726246513993, 28.52504902747812], [-81.66727201602802, 28.52496069737234], [-81.66737949945177, 28.524783933544477], [-81.66753683308559, 28.524484724263356], [-81.66754986045383, 28.524340875470163], [-81.66738581101495, 28.524309110397304], [-81.66720600871926, 28.524325728537164], [-81.66691850830247, 28.524261153374894], [-81.66672537590628, 28.52430515377213], [-81.66648237533371, 28.524492153676686], [-81.66640139670243, 28.524633280858886], [-81.6663629335369, 28.524841084523153], [-81.66637590610792, 28.524954620797562], [-81.66646587238363, 28.52498269190238], [-81.66650401934217, 28.524886757927735], [-81.66661897585077, 28.524889984457662], [-81.66679182249123, 28.524984403824362], [-81.66693215371163, 28.525181059987943], [-81.66703249822383, 28.525299958955397], [-81.66714252298151, 28.525403284807652], [-81.66725149850693, 28.52635698536149], [-81.6673066505738, 28.526774511265383], [-81.66727317575305, 28.527045353843516], [-81.66721710920122, 28.527111354267667], [-81.66695537606005, 28.526891221413834], [-81.66668757569744, 28.52672062095749], [-81.66655050895477, 28.52666555384248], [-81.66630130821011, 28.526654553991246], [-81.66614557537413, 28.526704021348074], [-81.66593990878478, 28.526792020873998], [-81.66557230828904, 28.526803021500164], [-81.66481850767963, 28.52658275382894], [-81.66450697463405, 28.52658262123393], [-81.6642951078726, 28.52664875375353], [-81.66382777461739, 28.527011754573145], [-81.663391574275, 28.52711622158421], [-81.66268130782088, 28.5276388210632], [-81.66238210774581, 28.527913954129126], [-81.66181028515172, 28.52875534769533], [-81.66169711808718, 28.528821676950734], [-81.66140234490985, 28.528835052974546], [-81.66097003786588, 28.528489851887752], [-81.6606719346338, 28.528043981525286], [-81.66051391019555, 28.52764926044576], [-81.6602075119201, 28.52743176007331], [-81.66012912941999, 28.527304420109083], [-81.66020410640685, 28.52722989668413], [-81.66046262268102, 28.527228760162618], [-81.66085242054741, 28.527216118727743], [-81.660947005062, 28.52725596327511], [-81.6610053739959, 28.52750095434634], [-81.66091190698553, 28.52758902108228], [-81.66083710696677, 28.52768802119243], [-81.66080590668031, 28.527891554538233], [-81.66083710696677, 28.527946621802016], [-81.66091177403487, 28.528001754544388], [-81.66100530662226, 28.528001754544388], [-81.66108010664101, 28.52795215441406], [-81.66112990744375, 28.527897221325027], [-81.66116097388121, 28.52769362169336], [-81.6611049738047, 28.527545021266555], [-81.66117894827174, 28.527251491379694], [-81.66130200668587, 28.527210975967115], [-81.66151750174275, 28.52714848619674], [-81.661725661157, 28.526978762227554], [-81.66181671349591, 28.526743985266496], [-81.66179584473352, 28.52648957029114], [-81.66157277418385, 28.525817420664175], [-81.66114917361165, 28.5252615540787], [-81.66116170690647, 28.524887420913327], [-81.66112437382158, 28.524738820476852], [-81.66094997399401, 28.524573754062022], [-81.66077557416645, 28.52448015359145], [-81.66018377393873, 28.524221420561645], [-81.65987857311758, 28.52394622024065], [-81.65980237532023, 28.523752614697276], [-81.66033963972535, 28.523671374376228], [-81.66032508522113, 28.522611990280637], [-81.66026728132753, 28.5222634080251], [-81.6603389722771, 28.522059771465504], [-81.66053237776114, 28.52193296094036], [-81.66073457415855, 28.521868803426102], [-81.66082352174472, 28.521902346717425], [-81.66102166674021, 28.521860064393735], [-81.66121393585541, 28.521665961711317], [-81.66119218045586, 28.521489769333016], [-81.6610050506024, 28.52139914176534], [-81.66075376486798, 28.52143475710402], [-81.66055181460894, 28.521644429014977], [-81.66052694744525, 28.521742028978682], [-81.6600336510817, 28.522166943541553], [-81.65974712443868, 28.52220932519252], [-81.65947331434683, 28.52221972880552], [-81.6592068363043, 28.522337368252646], [-81.65897976735332, 28.522499122376743], [-81.65870405283306, 28.522593219488417], [-81.65841490580435, 28.522658353696976], [-81.65796010584398, 28.522575753382363], [-81.65681390584712, 28.522151819974923], [-81.65621590544731, 28.52211315348586], [-81.65542457232701, 28.52217355304706], [-81.65494091847971, 28.522249587587343], [-81.65463097185892, 28.522344973039118], [-81.65364913571126, 28.523021888394943], [-81.65279371318533, 28.523530011490486], [-81.65211064861633, 28.523841540140463], [-81.6515208049193, 28.524310254842987], [-81.65124912832624, 28.524382459871354], [-81.65111154235733, 28.52428124984902], [-81.65089784482933, 28.524187271056576], [-81.65060274915682, 28.524312490063856], [-81.65014597469947, 28.524613252329118], [-81.64989872689223, 28.524957110938374], [-81.64956129182376, 28.525457512015585], [-81.64948945624543, 28.525918521082893], [-81.64955498385382, 28.52633522710625], [-81.649771724874, 28.526742943450312], [-81.64999893755544, 28.526984105469715], [-81.65023921263945, 28.527081422673202], [-81.65050955074271, 28.527126558415752], [-81.65085633817162, 28.527052594444985], [-81.65104256521823, 28.5268913224383], [-81.65133722071626, 28.52680521641618], [-81.65158166308487, 28.526953414577587], [-81.65174796909173, 28.52711977795318], [-81.65183253020437, 28.527287070803464], [-81.65179357925363, 28.527533978887657], [-81.65180743756353, 28.527899428846165], [-81.65172559654957, 28.528487874837495], [-81.65150019936331, 28.529410813898206], [-81.6510390249577, 28.53083572018656], [-81.65047784470477, 28.5323599730729], [-81.6501610996339, 28.533042017889574], [-81.64994073840313, 28.53327733721154], [-81.64957353945432, 28.53338790488021], [-81.64920679415476, 28.533459361048763], [-81.64882259279258, 28.53347826643838], [-81.64846608918553, 28.53356779215242], [-81.64819291240596, 28.533684567385034], [-81.64793347356202, 28.533763898011408], [-81.64773360290287, 28.533705227131474], [-81.64759173017342, 28.53348037992731], [-81.64739176159793, 28.533018823077967], [-81.64721419431065, 28.532839851140388], [-81.6467340690458, 28.532606095846454], [-81.64643196202249, 28.532512201029924], [-81.64595723563251, 28.532469368146135], [-81.64495655822009, 28.532293327202222], [-81.64450672594323, 28.53215289531401], [-81.64395601824988, 28.53185989993196], [-81.64357206212777, 28.5316941651525], [-81.64277045767051, 28.531727762930213], [-81.6421481183164, 28.53171113175144], [-81.64189602050496, 28.531567550894607], [-81.64166465760691, 28.53127549463635], [-81.64154895908989, 28.530762953704695], [-81.64146154941949, 28.530024547858254], [-81.64118921525963, 28.529660192830946], [-81.64056682649817, 28.52924066264904], [-81.64006045964724, 28.52848877694065], [-81.6401336777328, 28.528240578312314], [-81.64077703856287, 28.528327011486883], [-81.6409765382178, 28.528497563567235], [-81.64114824309952, 28.528524732414922], [-81.64149053446043, 28.52851178096357], [-81.64200635068984, 28.528369549299065], [-81.64246328325069, 28.528141578721158], [-81.64277137574874, 28.527799781752268], [-81.64312087339486, 28.52642799642052], [-81.6432276696074, 28.525741956176677], [-81.64343474475513, 28.525504975203713], [-81.6437558682147, 28.525349469568173], [-81.64399951826921, 28.525318525635225], [-81.64451383970197, 28.525220862684222], [-81.64477493593762, 28.52524246805182], [-81.64502466848492, 28.52517871349898], [-81.64537673621108, 28.525222937664715], [-81.6457175480467, 28.525254554080252], [-81.64606275623736, 28.525152428556687], [-81.64631632189597, 28.524921282897882], [-81.64668292256678, 28.52477707637208], [-81.64708442098977, 28.524737974379768], [-81.64776547782411, 28.52476755383622], [-81.6480927807945, 28.52465198341064], [-81.64813601850575, 28.52452871272818], [-81.64812194819348, 28.52434788578983], [-81.6478881050469, 28.524105884265424], [-81.64763242026252, 28.52394507105534], [-81.64735083615021, 28.52388732289815], [-81.64709897459568, 28.52388926372797], [-81.64677719356933, 28.523938377997684], [-81.64636939885452, 28.52386477485698], [-81.64582560100234, 28.523718131176025], [-81.64535239546014, 28.523630713149718], [-81.64509367526841, 28.523486298856636], [-81.6448461058643, 28.523281734886538], [-81.64457895588197, 28.5229627940046], [-81.64422004119672, 28.522772217507374], [-81.6439077311084, 28.52266023851022], [-81.64361286989619, 28.522600811627832], [-81.64341225902524, 28.52236297195242], [-81.6432262170316, 28.521606558736636], [-81.6430861058984, 28.521014724553048], [-81.6430035965379, 28.520836486012932], [-81.64285106170433, 28.52063266200097], [-81.64260148007399, 28.520439025114882], [-81.6423478452451, 28.520267263412922], [-81.64222649812157, 28.520078547170005], [-81.64208781081813, 28.51991003603157], [-81.64185015611982, 28.519835407926713], [-81.64158932309054, 28.519629162750654], [-81.64134729898672, 28.519358132206715], [-81.64118711589681, 28.519158937805972], [-81.64112418980947, 28.519095072227778], [-81.6409287011323, 28.519049552597927], [-81.640824729223, 28.519023866794353], [-81.64078172956528, 28.51896250483499], [-81.64086841788851, 28.518945866906215], [-81.64092268511483, 28.518935451130506], [-81.64104224548926, 28.518950475705083], [-81.64111317826072, 28.51889783561667], [-81.64115236906163, 28.51879643957626], [-81.64127238308527, 28.518772349704644], [-81.6412506734998, 28.518596151701544], [-81.64112503063258, 28.518613938928933], [-81.64112177962956, 28.51848482576967], [-81.6411492581958, 28.518409938549386], [-81.64092209761665, 28.518168750601262], [-81.64082991250218, 28.51800607895826], [-81.64091234640424, 28.517781413749844], [-81.64087106342703, 28.517490838743775], [-81.64078810760381, 28.517351709254257], [-81.64083551259966, 28.51727932418054], [-81.64091486797524, 28.517401213338502], [-81.64099411824792, 28.51745034325976], [-81.6411875434949, 28.517323563499797], [-81.64120040916639, 28.51703419648156], [-81.64111182629622, 28.516888764391297], [-81.64089704360336, 28.516727472100662], [-81.64073763486124, 28.51670744049035], [-81.64072558755497, 28.516711618413037], [-81.6405724939693, 28.516608344031596], [-81.64032673826378, 28.516577460679564], [-81.64006308452451, 28.516533134220946], [-81.63976992561975, 28.51657463250729], [-81.63949780795389, 28.51668592414664], [-81.63918660189505, 28.516971371529205], [-81.63892853028698, 28.517263496623652], [-81.6387843875148, 28.517564343722192], [-81.63874752963869, 28.517873077648428], [-81.63878419078375, 28.518151882855477], [-81.63870322023732, 28.5183319650439], [-81.6385568415584, 28.518498229152563], [-81.63836832740107, 28.518855051663234], [-81.6380992954482, 28.51935284225112], [-81.63809407264314, 28.519637572826507], [-81.63798145894081, 28.51984165528668], [-81.63776067640018, 28.520036972121396], [-81.63742433997129, 28.520161207060223], [-81.63623688394665, 28.520370077994002], [-81.63395474900165, 28.52065396127111], [-81.632679283232, 28.521153910774412], [-81.63141215742147, 28.521677415137138], [-81.63091641045385, 28.521650613124386], [-81.63055853152612, 28.521442397473862], [-81.63027714683977, 28.52112722070874], [-81.6297412963829, 28.520733408260583], [-81.6294706815985, 28.520512846915906], [-81.62922236389777, 28.520248454316633], [-81.62898115366758, 28.519716820097795], [-81.62872841715397, 28.51932363225127], [-81.62845665611927, 28.51903297230274], [-81.62791256631462, 28.51883629835633], [-81.62749954879475, 28.51877268989914], [-81.62716225476177, 28.51883518858097], [-81.62707442018824, 28.519232175623827], [-81.62696755480539, 28.519731693803397], [-81.62710131484951, 28.520308109844148], [-81.62734539789199, 28.520595289407975], [-81.62768116029743, 28.5209989228144], [-81.62796695391519, 28.52144290104367], [-81.62820374263754, 28.52184574112448], [-81.62843937702478, 28.522178486102575], [-81.62868597355343, 28.52275742473774], [-81.6288674143762, 28.523153299121898], [-81.62922241689839, 28.52360597322818], [-81.62974444497797, 28.52399804406577], [-81.63020343108757, 28.524195656301345], [-81.63072718842407, 28.524273174795443], [-81.63128707689962, 28.524308601316246], [-81.63170858080397, 28.52432662672956], [-81.6325688982499, 28.524574689348093], [-81.63275227584043, 28.524807585576635], [-81.63280571931163, 28.52497751430501], [-81.63272520241439, 28.525258837425845], [-81.6325318589141, 28.525537633362763], [-81.63190970551125, 28.525914065705255], [-81.63037188227132, 28.526874830194245], [-81.63005070491283, 28.52707925933297], [-81.62956345600779, 28.527262802922742], [-81.62883132545797, 28.52739223602778], [-81.62819606833007, 28.527533847083117], [-81.62749987847646, 28.527469606949346], [-81.62696014999251, 28.527401727545797], [-81.62676121088633, 28.52748162721473], [-81.62664222812862, 28.52766484651219], [-81.6266489511202, 28.527933821814862], [-81.62675927232193, 28.528483956252746], [-81.6268868923811, 28.52924610443106], [-81.62695800212067, 28.529931199257106], [-81.62678624334002, 28.5303178506171], [-81.62677885739176, 28.530540751233865], [-81.6269231573691, 28.530715578120528], [-81.62720733491767, 28.530796082190786], [-81.6276728131518, 28.530815451332742], [-81.6283192246606, 28.53088554783475], [-81.62867758598362, 28.53104252509499], [-81.62892255296833, 28.531224413100162], [-81.62934227371684, 28.531417081532933], [-81.62974723514525, 28.53165265703316], [-81.6299902707521, 28.531918232476432], [-81.630213379031, 28.532181302285327], [-81.63043187625757, 28.532432599550756], [-81.6305588549196, 28.533030508875648], [-81.63056449723791, 28.53343969880868], [-81.63050056593578, 28.533784183660575], [-81.63020061127588, 28.534154951668505], [-81.62977111056887, 28.534710870789336], [-81.62945305844927, 28.534922683417555], [-81.62927017942373, 28.534955646443787], [-81.62916187224486, 28.53494202812527], [-81.6290841625829, 28.534932257122687], [-81.62894427692686, 28.534623697060404], [-81.62880319201992, 28.534175095186583], [-81.6287597279332, 28.533749957544316], [-81.62875169789288, 28.53346357145414], [-81.62870620541025, 28.533049370935764], [-81.62853975207967, 28.53273746621343], [-81.62819402466282, 28.53247576234001], [-81.62810904673188, 28.53234756743884], [-81.62810009591838, 28.532139401329086], [-81.62828865229652, 28.531911425488733], [-81.62829293276884, 28.531906250599388], [-81.62845412197186, 28.531697097095908], [-81.62855146161941, 28.53150229828367], [-81.62859722359661, 28.531328991162034], [-81.62852848451108, 28.53111330727983], [-81.62807924242739, 28.53100645288548], [-81.62746862878267, 28.530963239773374], [-81.62698931020495, 28.530908555280686], [-81.62672349422081, 28.530802380990067], [-81.6265293682879, 28.530822731925678], [-81.62638847562042, 28.53092252295721], [-81.62629807276349, 28.531039314537832], [-81.62608428809891, 28.531275424395695], [-81.62591801802466, 28.53151191412816], [-81.6256185116241, 28.53184356078412], [-81.62548841041813, 28.53199506735507], [-81.62538110486082, 28.531987167309058], [-81.62523182013196, 28.531912433317544], [-81.62493020448711, 28.531779370630144], [-81.62468118430381, 28.531619347296136], [-81.62423903711424, 28.53168608672073], [-81.6227992137836, 28.531918495285307], [-81.62224453823163, 28.53201964115092], [-81.62194347415237, 28.532017605764963], [-81.62183849612994, 28.532002122150942], [-81.62108056147359, 28.53218797666761], [-81.620578939524, 28.532493312040497], [-81.62058984417322, 28.53279864652864], [-81.62050260518272, 28.532973123996538], [-81.62038265224453, 28.533005837453807], [-81.62025636259031, 28.533006284145397], [-81.62026741635988, 28.5330196051828], [-81.62026203904458, 28.533058783023556], [-81.62025195904877, 28.53312854893418], [-81.62024130323289, 28.533202295555316], [-81.62038526364705, 28.53331295327221], [-81.62045141827952, 28.533451294590314], [-81.62045669767843, 28.533679614348728], [-81.62044222132765, 28.53374493979647], [-81.62032004955068, 28.5339850093249], [-81.62001359917298, 28.534214666407884], [-81.61972105651249, 28.534369440004745], [-81.61948897047064, 28.534365782073895], [-81.61914558765665, 28.534322575863722], [-81.61901955042903, 28.534706989528182], [-81.6189759318321, 28.535546659727345], [-81.61879054920186, 28.536135520746942], [-81.61873602505737, 28.536593522889927], [-81.61825621420287, 28.536724380053936], [-81.61807083157264, 28.536528093457818], [-81.61822349845853, 28.536200949633624], [-81.61801630742815, 28.535851995627745], [-81.61759101981981, 28.535579374753162], [-81.61730749444817, 28.53514318146511], [-81.61724206565444, 28.534772418512773], [-81.61739473343866, 28.53441255938407], [-81.61729658979893, 28.534118129206437], [-81.61695854028278, 28.5340417962285], [-81.61639148953948, 28.53415084388663], [-81.61620610780754, 28.53444527397279], [-81.61584624809463, 28.53451070233067], [-81.61558453291975, 28.534674275020656], [-81.6157808201992, 28.53501232470497], [-81.61610796416781, 28.535339468273598], [-81.61602072517731, 28.53552485049361], [-81.61572629605473, 28.535644803196053], [-81.61579172395012, 28.5359283288727], [-81.61570448585795, 28.536113710845886], [-81.6157153914055, 28.536309997424816], [-81.61591167688833, 28.536528093457818], [-81.61585715274386, 28.53661533190241], [-81.61562223521221, 28.536654484730942], [-81.61552622417297, 28.5367601306884], [-81.6155642947747, 28.536998077561343], [-81.61578320612462, 28.537502524385978], [-81.61604631099323, 28.537928525235014], [-81.61622102612947, 28.5379117908643], [-81.61661125878045, 28.537845165866738], [-81.61675402533362, 28.537902273461043], [-81.61660174023172, 28.538006970373793], [-81.61624957997908, 28.53812118298855], [-81.61626856138106, 28.538394739552338], [-81.61646817242706, 28.538393831220652], [-81.6165255972316, 28.538654181971264], [-81.61661125878045, 28.539015860627885], [-81.6168396877808, 28.539196700279728], [-81.6171918462368, 28.53933946816513], [-81.61747738293637, 28.539301396695333], [-81.61765822188791, 28.53933946816513], [-81.61793424003874, 28.539567896695015], [-81.618153149592, 28.539815359193067], [-81.6184196491941, 28.539948609810857], [-81.61858145194644, 28.54009137746648], [-81.61837278588234, 28.540157542544986], [-81.61587529691596, 28.540187680340527], [-81.6157370452954, 28.540108070454973], [-81.61543261612711, 28.54008731489792], [-81.61506591574329, 28.540090773763133], [-81.61488256689886, 28.540201474751562], [-81.6147926212844, 28.540436715741276], [-81.61479954100705, 28.540692714015066], [-81.61487910838501, 28.540945252040565], [-81.61512126723613, 28.541273897082597], [-81.61525964372251, 28.541547192145007], [-81.61527694078332, 28.541671730802598], [-81.61521467136444, 28.541803190087666], [-81.61528731901977, 28.54182394609581], [-81.61538072404639, 28.541765135291037], [-81.61549834405979, 28.541716704045875], [-81.61553639849188, 28.541612920702025], [-81.61556061437699, 28.541578327020495], [-81.61558483116042, 28.541616380306284], [-81.61562980262018, 28.541678650007185], [-81.61571282851199, 28.541675191194095], [-81.61587888209226, 28.541630217933097], [-81.61599996241613, 28.54142957098279], [-81.61602362673568, 28.540711592064852], [-81.61608383272431, 28.540724317109017], [-81.61614929116246, 28.540809794643557], [-81.61633455791002, 28.540975225467935], [-81.61631578132393, 28.541087885768796], [-81.61626883985878, 28.54141647907146], [-81.6163533344961, 28.54171690606639], [-81.61629700383956, 28.541998556187863], [-81.61625006237439, 28.54230837226672], [-81.61625945066744, 28.54255246897422], [-81.61623128578833, 28.542768400903597], [-81.61598718837281, 28.542946780698394], [-81.61599657666584, 28.54312515861283], [-81.61608107130314, 28.543331702661977], [-81.61591208202853, 28.543388032356475], [-81.61573370266424, 28.543660294489364], [-81.6158275864929, 28.543951333957825], [-81.61621250920226, 28.544026440557758], [-81.61650354718464, 28.5438480618022], [-81.61679458696364, 28.543688459252525], [-81.6170480717739, 28.543369255005903], [-81.61722645113818, 28.543294149515564], [-81.61761137294921, 28.543378644076157], [-81.61786485865777, 28.54327537214826], [-81.61829672283228, 28.54316271103034], [-81.61863470317815, 28.542909226625607], [-81.61898207271537, 28.542702682537165], [-81.6191792277674, 28.54253369305294], [-81.61957353966811, 28.54267451829957], [-81.61992090830702, 28.54275901177889], [-81.62028705353198, 28.54267451829957], [-81.62038093736065, 28.542871673328587], [-81.62062503477615, 28.54328476043779], [-81.62100056919249, 28.54345375108447], [-81.62126344319408, 28.543679070998973], [-81.62170469476332, 28.543895003775418], [-81.6219394029875, 28.54406399423222], [-81.62203328681616, 28.54423298362882], [-81.6221741130083, 28.54438319716263], [-81.62238065635337, 28.54424237262213], [-81.62227738513, 28.544082770669863], [-81.62208961747268, 28.543857450040704], [-81.6223337148882, 28.543763566039946], [-81.6226247537689, 28.543763566039946], [-81.62286885028611, 28.54361335241156], [-81.62329132616759, 28.543641517976408], [-81.62355807370469, 28.543753877924704], [-81.62391095889777, 28.54384806101307], [-81.6241926085871, 28.543829284533587], [-81.62475590976243, 28.543763566039946], [-81.6248779593685, 28.54392316847582], [-81.62495306481446, 28.544110935320063], [-81.62524410279683, 28.5440921580983], [-81.62548820111067, 28.544082770669863], [-81.62563841559586, 28.54435503258524], [-81.62558208493932, 28.544505246734133], [-81.62532859923077, 28.544533410482224], [-81.62523471630044, 28.5446930125408], [-81.62536615240292, 28.544758731243682], [-81.6255539191619, 28.544786896502274], [-81.62578732752387, 28.544750730358196], [-81.6258941219398, 28.544577535776803], [-81.62593466740014, 28.544562728707167], [-81.62601536306211, 28.54453325660358], [-81.62598657744715, 28.544641185477452], [-81.62610783114589, 28.544824450694684], [-81.62630498709623, 28.5451624307222], [-81.62643642409704, 28.54528447939083], [-81.62675562875515, 28.54513426635316], [-81.62693400632278, 28.54523753724772], [-81.62696217299853, 28.54539713981755], [-81.62698094868628, 28.5455661294426], [-81.6271405505662, 28.545641236469326], [-81.6273925765124, 28.545633994777752], [-81.6274979641666, 28.54572558000488], [-81.6275048829909, 28.545944670553197], [-81.62749740721112, 28.54609480589138], [-81.62757372448439, 28.54623309570533], [-81.62760657677265, 28.546349132499017], [-81.62762364925462, 28.54651354614571], [-81.62762632533585, 28.546609003539825], [-81.62776198172354, 28.54679392087435], [-81.62804824785513, 28.546863481991988], [-81.62826853003416, 28.546885580846805], [-81.62863046844865, 28.546584169585316], [-81.62881927815171, 28.546372900424505], [-81.62895594873734, 28.54614948092416], [-81.62901269711045, 28.54577053336777], [-81.62906059168816, 28.545659051486187], [-81.62899506946965, 28.545572478651295], [-81.62901287857017, 28.54551316885193], [-81.62915397964677, 28.545558883800283], [-81.62918710861614, 28.545490308213875], [-81.62921100829428, 28.545398191707793], [-81.62926951197547, 28.545192921399213], [-81.62924182679673, 28.54512229623762], [-81.62944299911472, 28.544990915271875], [-81.62955871739467, 28.544770455195273], [-81.62961159043566, 28.544558881741153], [-81.6296859655513, 28.5443779873753], [-81.62996022210585, 28.54425579324676], [-81.63020024296662, 28.544134889983972], [-81.63040713575633, 28.544082561551775], [-81.63068904955037, 28.54395573254494], [-81.63086687465413, 28.5439501084454], [-81.63096542882394, 28.543895351780098], [-81.63112489056665, 28.543915396373425], [-81.6312954213503, 28.54380254181482], [-81.63132845150497, 28.54366121382345], [-81.63146723402986, 28.543499605024245], [-81.63168122800188, 28.543409000328282], [-81.63189328879945, 28.543402082026514], [-81.63222743244073, 28.543360150021634], [-81.63279006616779, 28.543369318136275], [-81.63315291457566, 28.54339253986713], [-81.63325257726655, 28.543405065726706], [-81.63332409304465, 28.54338607689226], [-81.6336967268009, 28.54346648132134], [-81.63379583343462, 28.54344536500463], [-81.63389098029457, 28.543518871611646], [-81.63404288181586, 28.543616296649322], [-81.63422643367953, 28.543689722646082], [-81.63450568756203, 28.54388341782353], [-81.6348178072075, 28.544180027891677], [-81.63505314335406, 28.54437746181963], [-81.6354891819997, 28.54448261551176], [-81.63574314022209, 28.544469763872932], [-81.63625085544427, 28.54429855505271], [-81.63671702987276, 28.54402140988424], [-81.63689713939226, 28.54382022693672], [-81.63719628736504, 28.543600427277717], [-81.63750588184624, 28.54354420501831], [-81.63775735083699, 28.543581395865594], [-81.6380098340257, 28.543613118040426], [-81.63837821336078, 28.543569873798592], [-81.63856506383819, 28.543442274773046], [-81.63874674001956, 28.543269261907742], [-81.63887830278449, 28.543073167427686], [-81.63901808333765, 28.542906081928095], [-81.63964030591077, 28.542777223428807], [-81.64032120733656, 28.542588588524925], [-81.64088453635965, 28.542373990658675], [-81.64122454869471, 28.542153719233163], [-81.6414537394664, 28.541981075147525], [-81.64164194460326, 28.541736140624995], [-81.64186910518241, 28.541574431018525], [-81.6421431227851, 28.541306701081886], [-81.64243378527169, 28.541242493018345], [-81.64266363720346, 28.541176243393398], [-81.6429233482369, 28.540912308249474], [-81.643346010968, 28.540612888283817], [-81.64360796060318, 28.540483521922237], [-81.64384298413599, 28.54046268121072], [-81.64400964857066, 28.540517184764518], [-81.64410242747154, 28.540713483657537], [-81.64407729350819, 28.540995691232794], [-81.64402659708513, 28.541269091184212], [-81.64393907782026, 28.541521079372906], [-81.64369503071038, 28.54166388435462], [-81.64328036837523, 28.54184680910791], [-81.643043523059, 28.542024090401764], [-81.64292120306003, 28.54224373078748], [-81.64288774081568, 28.542424174275464], [-81.64306948347242, 28.542654027608528], [-81.6432946947074, 28.54290612533048], [-81.64353106032326, 28.543098074810185], [-81.64366099174765, 28.543185129470753], [-81.64427072863663, 28.54342307682597], [-81.6443629326157, 28.54349743334067], [-81.64442241995214, 28.543586664876965], [-81.64449380277955, 28.543750251884777], [-81.64455031579409, 28.54395250580961], [-81.644710929177, 28.54424993952828], [-81.64485072320487, 28.544380809277733], [-81.64508272031351, 28.544532499836127], [-81.64549106928885, 28.54466469969156], [-81.6458411732978, 28.544782344071525], [-81.64651656625426, 28.544927752668617], [-81.6468137783576, 28.545079776235983], [-81.6471231087341, 28.545121417161234], [-81.64728967076081, 28.545118442979057], [-81.64747110439707, 28.54502921195133], [-81.64755141108853, 28.544901317195887], [-81.64754546244473, 28.544550345816234], [-81.6475028328929, 28.5444207799074], [-81.6473313103692, 28.543720508883045], [-81.64713797944532, 28.543381435229307], [-81.64698331470622, 28.543185129470753], [-81.64687326569403, 28.543045336303095], [-81.64684054725475, 28.5428817482005], [-81.64685244454238, 28.542697340091987], [-81.6470279295348, 28.542382061168794], [-81.64730454237035, 28.542144116196944], [-81.64748391886461, 28.541985603235965], [-81.64772505453463, 28.541856614191474], [-81.6480268651139, 28.541732243839753], [-81.64821637280792, 28.541733725060098], [-81.64831581271662, 28.541796119376045], [-81.64841991488163, 28.541885349196892], [-81.64864596244816, 28.542087603545937], [-81.64881549969509, 28.542337447267343], [-81.64895826804488, 28.542866877761824], [-81.6491497978466, 28.543554870883426], [-81.64914725381772, 28.543573867578676], [-81.64912112452106, 28.543861540872424], [-81.64923610528416, 28.544194902879795], [-81.64947857135913, 28.544354031977548], [-81.64964006688764, 28.54436311478045], [-81.64992758167749, 28.544242541494572], [-81.65012612732158, 28.54408841764693], [-81.65028525578931, 28.543890178268402], [-81.65045879862411, 28.543760892476875], [-81.65077491487428, 28.543632716830057], [-81.65095859070547, 28.54344874879224], [-81.65105926579768, 28.54312567154861], [-81.65102930698296, 28.542920481248608], [-81.6508372929893, 28.542672569135185], [-81.65059867889026, 28.54237531325331], [-81.65057697110142, 28.542332958650874], [-81.65049610475954, 28.542046825529688], [-81.65048370441535, 28.541947758416732], [-81.650554164673, 28.54166904929505], [-81.6506800653567, 28.54146663789182], [-81.65093795191183, 28.54135912795791], [-81.65107522616535, 28.54124207319257], [-81.65108986331458, 28.541126408774204], [-81.65107409428808, 28.54084466714709], [-81.65098129742091, 28.54064837323338], [-81.65066282309313, 28.54023910475921], [-81.65031225735012, 28.539892950638304], [-81.64987239457632, 28.5396251075244], [-81.6493977373566, 28.53932491920388], [-81.6489891844637, 28.539144932856004], [-81.64862117343789, 28.539076347569925], [-81.64832174159748, 28.53907791958124], [-81.64797185677747, 28.539168276259748], [-81.64761194586058, 28.53938606728453], [-81.64746036773279, 28.539506918389108], [-81.64716408358915, 28.539564835548635], [-81.64686959607609, 28.53979643442245], [-81.64667060217266, 28.53998966642203], [-81.6464799509233, 28.539954534792358], [-81.64633153486531, 28.53980160971347], [-81.64632546854219, 28.539504294435044], [-81.64624754777613, 28.5393378409165], [-81.64610780495222, 28.539174812885438], [-81.64586805897592, 28.539111133839434], [-81.6455736963287, 28.539085357435788], [-81.64523293210375, 28.539126495667016], [-81.6449657057646, 28.539137698609462], [-81.64469453132979, 28.539243526740684], [-81.64430421783042, 28.539295223880636], [-81.64402516966213, 28.539260178037978], [-81.64384476729184, 28.539243115587734], [-81.64372021228444, 28.539328188695638], [-81.64350557691527, 28.53931242205805], [-81.64320918497381, 28.539297575579457], [-81.6430222464615, 28.5393524309123], [-81.6429158347279, 28.539266325601567], [-81.64293590309134, 28.539011458677802], [-81.64297072628331, 28.538713680297178], [-81.64323406201898, 28.536743598162086], [-81.64351611595019, 28.53569910484263], [-81.64363314038057, 28.53536129096187], [-81.64366873253044, 28.535242661410106], [-81.64372526979948, 28.535121067519793], [-81.64396457290633, 28.534893732641624], [-81.64425667808727, 28.534784940662117], [-81.64473717615296, 28.534576707550222], [-81.64495304940058, 28.53440238584171], [-81.64510406069141, 28.534247891669516], [-81.64523839925057, 28.534219999812844], [-81.64544536480382, 28.53424039744044], [-81.64561831564886, 28.53440760085757], [-81.64578619819903, 28.5346021449135], [-81.64610722913213, 28.534704011895204], [-81.64643321876558, 28.53470578127056], [-81.6468013304027, 28.534517001697147], [-81.64703363743013, 28.534400692224242], [-81.64733665534511, 28.534416362525562], [-81.64755510226604, 28.534594870106066], [-81.64781532803417, 28.534694692290174], [-81.64803344437505, 28.534654936577336], [-81.64821248939096, 28.534459196196348], [-81.64847013250265, 28.53420618015356], [-81.64865593105286, 28.5340840286814], [-81.64894520833728, 28.534137138652174], [-81.64914113808726, 28.534290433405506], [-81.6494443805811, 28.534451606489423], [-81.64966823805494, 28.534490904544917], [-81.64988680265516, 28.53441203220026], [-81.64998060204219, 28.53427273247826], [-81.65013948616816, 28.534259108547065], [-81.65053225116995, 28.53448747232854], [-81.65116768616426, 28.53502047548754], [-81.65138253982404, 28.535181737422654], [-81.65168027474685, 28.535409356577055], [-81.65218700631378, 28.535646424977426], [-81.65276974882849, 28.53580350326446], [-81.65330023903805, 28.53587568779223], [-81.6537772489455, 28.536053062787694], [-81.65405291944832, 28.53621635607987], [-81.65486551658972, 28.536637276649497], [-81.65548003071937, 28.536843091590526], [-81.65601166268767, 28.536982548117678], [-81.65697363888103, 28.537238385111866], [-81.65726923491516, 28.537384549892682], [-81.65747442539741, 28.537561369926454], [-81.65754402417069, 28.537626056104955], [-81.6575922313621, 28.537732820134696], [-81.65737208482868, 28.537783530761796], [-81.65697964142377, 28.53777345382395], [-81.65675712423631, 28.537820917779026], [-81.65648417113724, 28.53787913890714], [-81.65615232628475, 28.53805571346822], [-81.65614177467343, 28.538479630258546], [-81.65619820414464, 28.538615403161284], [-81.65633954596976, 28.53880659339142], [-81.65638483183986, 28.539002516673655], [-81.65626238877168, 28.539078674020423], [-81.65607894560415, 28.539078035588126], [-81.65592917129347, 28.539042454620976], [-81.65561880605773, 28.53891957799011], [-81.65531475597847, 28.538909398569597], [-81.65488345594594, 28.538888843223972], [-81.65456161832573, 28.538937977335475], [-81.65421489737214, 28.539084702431083], [-81.65394689129533, 28.539246901193337], [-81.65385321048593, 28.539458955655654], [-81.65385379349254, 28.539822722814804], [-81.65383151976508, 28.540273143316547], [-81.65395263781821, 28.54068946666188], [-81.6539423053958, 28.54085362477789], [-81.6538987056635, 28.540936224972494], [-81.65384250526269, 28.54101322452041], [-81.65370537204467, 28.541090224801252], [-81.65358077212151, 28.54113415819715], [-81.65346857254252, 28.541150624535266], [-81.65338137217957, 28.541150624535266], [-81.65328170499713, 28.54113415819715], [-81.6532007721799, 28.541090157723723], [-81.65304617301783, 28.540896181997127], [-81.65297579271027, 28.54070848360267], [-81.65284482013847, 28.540608117077916], [-81.65273794846745, 28.540561131025797], [-81.65245438806149, 28.54058708778393], [-81.65226947974172, 28.540631022178804], [-81.65207071760364, 28.540639644438798], [-81.65191711557152, 28.540771438032937], [-81.65173772290761, 28.54074891964592], [-81.65159143585683, 28.54065781857583], [-81.65146215571104, 28.540658376505245], [-81.65140753904008, 28.540696282552307], [-81.65141925756295, 28.54099989896958], [-81.65147039056725, 28.541347629322182], [-81.65151758715398, 28.54178998379717], [-81.65159045309991, 28.541983774008155], [-81.65170983021802, 28.542183401124394], [-81.65181311581445, 28.542873390483955], [-81.65189612643489, 28.54334261949202], [-81.65207475193758, 28.543846227872034], [-81.65242185377684, 28.544247885439585], [-81.65295060664465, 28.544476508497777], [-81.6534305917723, 28.54456472439476], [-81.65393039553177, 28.54458268637018], [-81.65467456530303, 28.54434595846202], [-81.65498099412116, 28.544233342680073], [-81.6551772670276, 28.543944641381664], [-81.65520017316902, 28.543638158657913], [-81.65523757272925, 28.543506158741945], [-81.65523137255717, 28.543297025107897], [-81.6550755525846, 28.543023456021416], [-81.65507563073804, 28.543011191319387], [-81.65507677788666, 28.542833373497256], [-81.6551656302514, 28.542794166147328], [-81.65536248796109, 28.542869226224383], [-81.65610410022873, 28.543270021051654], [-81.65668702599973, 28.543499829136966], [-81.65697419942977, 28.54349110057866], [-81.65721137532603, 28.54353204927674], [-81.6574481047596, 28.543612107166997], [-81.65770071550907, 28.543716539571488], [-81.65803577543194, 28.54392643072273], [-81.65820111664819, 28.544098244617327], [-81.65832975180363, 28.54432140253435], [-81.65821590201945, 28.5443854516858], [-81.65819248294, 28.544438465714638], [-81.65821727554354, 28.544598239945415], [-81.65807854691757, 28.544759879412958], [-81.65808283906799, 28.544883510731207], [-81.65811293801991, 28.545161449060995], [-81.65814595559817, 28.545350230867548], [-81.65810195072567, 28.54562446702455], [-81.65819274614637, 28.54583168559806], [-81.65837543293244, 28.54598329278858], [-81.65859685507357, 28.546072617701167], [-81.65895409080755, 28.546089455727138], [-81.65926209976229, 28.546005002796658], [-81.65929722838146, 28.545925482531466], [-81.65929135339951, 28.545773677979778], [-81.65953303434692, 28.545753640052972], [-81.65951318157913, 28.545493774003702], [-81.6593157453544, 28.545385078983582], [-81.65924544948848, 28.545214002644478], [-81.65923048535248, 28.544990534916963], [-81.65943536681428, 28.544980229824237], [-81.65953105805329, 28.54495360260898], [-81.65954558470975, 28.544849832712796], [-81.6594059568702, 28.54483489232029], [-81.65931940419256, 28.544769950947792], [-81.65934330836228, 28.54467741478877], [-81.65947951002734, 28.54461111524219], [-81.6595598930756, 28.544397393476725], [-81.6595342857001, 28.544058472724732], [-81.65955462535477, 28.543691744391403], [-81.65962982153057, 28.54343260951304], [-81.65967292808779, 28.543236591882806], [-81.6595163768866, 28.543127430523818], [-81.65946387035824, 28.542897036088885], [-81.6594972930767, 28.542716590254305], [-81.65935050746096, 28.54264855811009], [-81.65940107093334, 28.542318451138193], [-81.65954384467302, 28.5421349353494], [-81.65957710479643, 28.54155161371771], [-81.65958472161172, 28.541216856815037], [-81.65953525318567, 28.5409700573369], [-81.659474765126, 28.54085615952448], [-81.65929038591393, 28.54060362523116], [-81.659169291217, 28.54030307747753], [-81.65921600361179, 28.540124295472232], [-81.65928694267146, 28.540071647807444], [-81.65944457364763, 28.54000195751794], [-81.65977490663549, 28.53990855777942], [-81.65990577410439, 28.5398975577321], [-81.66012377456259, 28.5398975577321], [-81.66026090688229, 28.539914157630893], [-81.66039170697753, 28.539963757655173], [-81.6604727071684, 28.540018757056593], [-81.66051010762695, 28.540062757188352], [-81.66052250707278, 28.54011222456468], [-81.66056478628165, 28.54029350189296], [-81.66065703876977, 28.540456145454172], [-81.66086876539401, 28.54056103869512], [-81.66114118219886, 28.540595209725804], [-81.66133374236823, 28.540546626425705], [-81.66159205562312, 28.540399982281354], [-81.6617563350307, 28.540247138342693], [-81.66188232734257, 28.54011746612918], [-81.66200313368029, 28.53994238258235], [-81.66210874950654, 28.539849321339194], [-81.6621524166125, 28.539686941998095], [-81.66203289306902, 28.539414570161707], [-81.66181889370708, 28.539175108820988], [-81.66161571545108, 28.538987362377842], [-81.66135735907703, 28.538803881822723], [-81.6611625306616, 28.538717895227553], [-81.66101433469085, 28.538710495227026], [-81.66085353894995, 28.53880782448777], [-81.66086550720448, 28.53891835715413], [-81.6608093741773, 28.539039357157776], [-81.66073470710923, 28.539116357302987], [-81.66062250753023, 28.53912735743187], [-81.66055390768356, 28.539094357041776], [-81.66044797385369, 28.538934757548855], [-81.66064339785217, 28.538731105059814], [-81.66076015368627, 28.538577894894416], [-81.66092183606436, 28.53840234396943], [-81.66094829055116, 28.538332924049453], [-81.66113338751715, 28.538104357893864], [-81.66122964020322, 28.537915002790406], [-81.66131962085196, 28.537943076756658], [-81.6613930266854, 28.5378403795412], [-81.66141214373296, 28.537663729647846], [-81.66163932407505, 28.537244607765118], [-81.66171633574605, 28.537159148645838], [-81.66178556531173, 28.537005570805174], [-81.66197001638902, 28.537000731566557], [-81.66200602715381, 28.5368429866297], [-81.66210600695, 28.53674362262667], [-81.66223300627328, 28.53660848023488], [-81.6625431253706, 28.536425564537314], [-81.66265437453204, 28.536420623467617], [-81.66289737510459, 28.536189556185594], [-81.66295977477917, 28.536156556453726], [-81.66303450742429, 28.536156556453726], [-81.66311242459709, 28.53633831251946], [-81.66321739722962, 28.53646897822927], [-81.66361084674764, 28.536473566532464], [-81.66387230410602, 28.536383264364034], [-81.66404871885479, 28.536164794747187], [-81.66408244879709, 28.535872476593173], [-81.66393704209531, 28.535703167580383], [-81.66378556278221, 28.53556666723893], [-81.66353309576317, 28.535535000251883], [-81.66340471123772, 28.535457349564822], [-81.66352563166149, 28.53535501532162], [-81.6632838581876, 28.53530230845193], [-81.66298703505478, 28.535326624989615], [-81.66280416770734, 28.5353596399761], [-81.66275531642388, 28.53547660815277], [-81.66285623675617, 28.5356291496504], [-81.66293418896326, 28.53579559561201], [-81.6629501960433, 28.535892722377103], [-81.66301586289056, 28.53598473907678], [-81.66292857449274, 28.53605755640678], [-81.66276004605385, 28.53614863462244], [-81.6626374170344, 28.53615003937043], [-81.66261697497181, 28.536090423586682], [-81.66233781900569, 28.5357487652511], [-81.66206618373513, 28.535563619392445], [-81.66171990744762, 28.535457422959443], [-81.66129334602823, 28.53540512099534], [-81.66108479315186, 28.53535657712905], [-81.66088915625265, 28.535350819986466], [-81.6608017735317, 28.53534545270356], [-81.66076944316461, 28.53526306357485], [-81.66079115544505, 28.5351091183638], [-81.66104061041291, 28.534569690808123], [-81.66131732924966, 28.53413999397528], [-81.66151444208089, 28.53377304880948], [-81.6618829588582, 28.533545108071383], [-81.6622900016831, 28.533439500718327], [-81.66248501245659, 28.53334086667752], [-81.66272418530771, 28.533370869101258], [-81.66286718452452, 28.533332853086772], [-81.66300714653735, 28.53331124306386], [-81.66299297202049, 28.533387799126796], [-81.66302182141585, 28.533525704706136], [-81.66332293849572, 28.53362502518067], [-81.66356920085107, 28.533616746439243], [-81.6637917988869, 28.53351597461082], [-81.66395302222588, 28.533379529048002], [-81.66421060874372, 28.533126476476937], [-81.66427970535874, 28.532900139590485], [-81.6643054582613, 28.53272431955575], [-81.66423826517638, 28.53227945520214], [-81.66413709421413, 28.531981403668674], [-81.66415538301499, 28.531625595536227], [-81.66421378518655, 28.531420298392334], [-81.664137415811, 28.531282025437857], [-81.66416171434112, 28.53115078505659], [-81.66430989683712, 28.531158180063496], [-81.66451337782539, 28.531234062117264], [-81.66472957805978, 28.53127796489727], [-81.66478968613205, 28.53117359750688], [-81.66498234960768, 28.531197761888343], [-81.6661204890215, 28.531659441150225], [-81.66713399707113, 28.532133453020926], [-81.66754628965059, 28.532403372655583], [-81.66776648918459, 28.532682773170794], [-81.66798612008505, 28.532928530576232], [-81.6681006525888, 28.53297403079657], [-81.66821543212929, 28.533158715573315], [-81.66830865300126, 28.533573264489902], [-81.66830670725038, 28.53391433087576], [-81.6684201725556, 28.534219512877236], [-81.66853654301244, 28.53443553212447], [-81.66860640858535, 28.53464572193098], [-81.6687542874508, 28.53476497798618], [-81.6690721814669, 28.534810430851085], [-81.66955661505187, 28.53483759807135], [-81.6698276089253, 28.53465895516043], [-81.67000413506516, 28.534513228548718], [-81.67017340820742, 28.53439697352631], [-81.67018325553954, 28.53439021089376], [-81.67020961390661, 28.534386472465542], [-81.67060212827845, 28.53433081982493], [-81.67086845540398, 28.534397778507614], [-81.67100102518035, 28.534526303955563], [-81.67111005550302, 28.534635090677753], [-81.67130070495575, 28.534670180675388], [-81.67150899552406, 28.53457319799548], [-81.67170413206166, 28.534547302891404], [-81.67189016147888, 28.534570623637904], [-81.67209281961037, 28.534467337551362], [-81.67206742962718, 28.53427391785412], [-81.67204419470235, 28.53414231501034], [-81.67205664265724, 28.53396482788885], [-81.67219893220499, 28.533820402500005], [-81.67236836973892, 28.533712951845786], [-81.67253244163568, 28.533744709349442], [-81.6727113869386, 28.53380630656765], [-81.67313052198554, 28.53389241634046], [-81.67361957021612, 28.533931335788083], [-81.67380806101724, 28.53390460397312], [-81.67402255265594, 28.533847560505045], [-81.67415890344132, 28.53380869784904], [-81.6744333252859, 28.533831902746392], [-81.67470687037476, 28.533933329309427], [-81.67503241983373, 28.53397413098517], [-81.6751397343742, 28.533981985897867], [-81.67530728095446, 28.53395822227951], [-81.67569320079377, 28.534040159427672], [-81.67599750779122, 28.53419579429682], [-81.67612010716624, 28.534451751701706], [-81.67623332902804, 28.53461141559656], [-81.67638627798493, 28.5347033197711], [-81.67649878658438, 28.534756585690285], [-81.67675314276045, 28.534704531974736], [-81.67692156340149, 28.53460254266822], [-81.67700141285047, 28.53452184104982], [-81.67704395346905, 28.53452717049318], [-81.67732586905973, 28.53456249807483], [-81.67768059669744, 28.534629327971395], [-81.67778025669337, 28.534641815413153], [-81.67782198972652, 28.53464865379225], [-81.67792541186688, 28.534665599396373], [-81.67800932439587, 28.534726470806177], [-81.67802029192718, 28.53485093860708], [-81.67800020200417, 28.535033061531973], [-81.67793871232297, 28.535118422937582], [-81.6779291982658, 28.53514020700121], [-81.67791252104254, 28.535139572491023], [-81.67783900112305, 28.53516952547277], [-81.67782656484627, 28.535347013721935], [-81.67773844730343, 28.535492636585925], [-81.67768817039361, 28.53565419058719], [-81.67768317935389, 28.535806155721367], [-81.67765197906743, 28.535866623198057], [-81.67758660417262, 28.535982767691472], [-81.67743638789082, 28.535986326128835], [-81.67727197912582, 28.5359436232944], [-81.67689811198268, 28.535976623093013], [-81.67676938340246, 28.53588036529935], [-81.67654739352609, 28.535757428948365], [-81.67650063980881, 28.535719147838734], [-81.67630533528626, 28.53555924176297], [-81.6762993839475, 28.535555302133126], [-81.67611758020536, 28.535434999717754], [-81.67594628495539, 28.535368771695065], [-81.67578277809898, 28.53541535599767], [-81.67571459237563, 28.535518780841432], [-81.6757265678167, 28.53563778100078], [-81.67574475061636, 28.53579672414926], [-81.67577058885887, 28.535951031381185], [-81.67585959573385, 28.536010467309502], [-81.67598831173765, 28.536097623318344], [-81.676193978327, 28.53625722316301], [-81.67624950139809, 28.53632814705492], [-81.6762493486845, 28.53632896938349], [-81.67621919852863, 28.536491952099716], [-81.6761463873799, 28.536628302087372], [-81.67596265046325, 28.53673956150735], [-81.6757660056543, 28.53676095853784], [-81.67574757761456, 28.53676296463257], [-81.67565887976004, 28.536874942063058], [-81.67564731395075, 28.53697420492745], [-81.67571359165242, 28.537167150107905], [-81.6758299872621, 28.537383162523], [-81.6759537670234, 28.537449028626856], [-81.67608678775404, 28.53753843416952], [-81.67617286162962, 28.53766112379886], [-81.67630096318578, 28.53785062456621], [-81.67652364476491, 28.538337327606186], [-81.67668423299499, 28.538681966906058], [-81.67693379576072, 28.53906013265038], [-81.67727017620706, 28.539410011974688], [-81.67766908927864, 28.539674539594195], [-81.67766946028287, 28.539674785022257], [-81.6777900851609, 28.539717745188092], [-81.67802176606256, 28.539825102911504], [-81.6781069730639, 28.540026011760666], [-81.678252993315, 28.54022894282759], [-81.67841216310526, 28.540360785073897], [-81.67863200690643, 28.540421899408937], [-81.67877312774598, 28.540467554223834], [-81.6790095724136, 28.540659432388587], [-81.67906402109962, 28.540806129044796], [-81.67927259912878, 28.540854641201793], [-81.67941054711876, 28.540843947443125], [-81.67964498674667, 28.5407893911854], [-81.68008136226054, 28.54078251216909], [-81.68042181926167, 28.540853135505515], [-81.68058619209403, 28.541030386905707], [-81.68074493338787, 28.541201337463004], [-81.68104205745631, 28.541322480047317], [-81.68128213131769, 28.54127422221073], [-81.6815310302284, 28.54077387334866], [-81.68171361640314, 28.540595323363526], [-81.6819448786899, 28.54048441524206], [-81.68199933725738, 28.540373740593015], [-81.68203328549026, 28.540226926539923], [-81.68211490551869, 28.539895853943943], [-81.68216301030213, 28.53967248304882], [-81.68236090376934, 28.53948465857606], [-81.68246692832905, 28.53935246879198], [-81.68239571887649, 28.539259624046966], [-81.68229778993411, 28.53909069690749], [-81.6823701582134, 28.538993455505064], [-81.68248513987481, 28.5387392958021], [-81.68265269723487, 28.538458150714554], [-81.68288944193979, 28.53828078608135], [-81.6830675410297, 28.53816321730325], [-81.68334992464264, 28.538069899586638], [-81.6836629318236, 28.537958036277505], [-81.68400655808105, 28.537827626527697], [-81.68401638026036, 28.537627434001315], [-81.68417483229668, 28.53765287457396], [-81.68427362990995, 28.537743578132147], [-81.68443439241321, 28.537646216321278], [-81.68447743429172, 28.53745018397832], [-81.68447093318402, 28.537264734119884], [-81.68453347389409, 28.537110311224556], [-81.6844863851052, 28.536813469750662], [-81.6845350603189, 28.536623739044703], [-81.6847290398264, 28.53653053676341], [-81.68487362367136, 28.53652066804962], [-81.68495465350661, 28.536413319585908], [-81.68505185750858, 28.536218475038208], [-81.68513693066093, 28.53608925322579], [-81.68522806744144, 28.535927220066544], [-81.6852660509066, 28.53575852907527], [-81.68527197170265, 28.53565296339995], [-81.68508232387143, 28.53561242754148], [-81.68497486649885, 28.53578920240879], [-81.68477351900937, 28.535775176977467], [-81.68449958135673, 28.53593295586954], [-81.68423171362048, 28.535839423097283], [-81.68404478139638, 28.535613822826313], [-81.68382671356453, 28.53514615592893], [-81.68377691366013, 28.535091155562313], [-81.68377071348803, 28.53504715572188], [-81.68390151358328, 28.53481602229237], [-81.68390138063263, 28.534771955255533], [-81.68386411402305, 28.534766422212307], [-81.68383918128235, 28.534772022337094], [-81.68368958124483, 28.535019555288848], [-81.68366471408113, 28.53504715572188], [-81.6836397804421, 28.535041622693093], [-81.68369387878514, 28.534828740945898], [-81.68371019937723, 28.53455662487706], [-81.68333308033274, 28.5345373645426], [-81.68299004696341, 28.534444041247056], [-81.68243411646499, 28.534435951188094], [-81.68200673668036, 28.534320869617773], [-81.68184136222646, 28.53414908555075], [-81.68189061865012, 28.533992995244034], [-81.68199548348481, 28.53379351676257], [-81.6818878841784, 28.53364015972847], [-81.68174345484364, 28.533465402408247], [-81.68167470946987, 28.533322506604257], [-81.68141747778658, 28.53320635444338], [-81.68116862019839, 28.5331919656333], [-81.68084465806253, 28.53317935490355], [-81.68045064709746, 28.533141184135424], [-81.68007194701806, 28.53309373859169], [-81.67968963750786, 28.533029053576822], [-81.67943240941784, 28.532912897146495], [-81.67932654385993, 28.532860466856757], [-81.67909964199556, 28.53283763188457], [-81.67873538323269, 28.53285913388297], [-81.67842441343079, 28.53296004918619], [-81.67815041109947, 28.533155118369393], [-81.67802618128219, 28.533385740091113], [-81.67790296206961, 28.533610893708033], [-81.67784763033967, 28.53379979170659], [-81.67773381019992, 28.533863862249724], [-81.67774781224026, 28.53397192438049], [-81.67774549099357, 28.534094727861426], [-81.67770951436474, 28.53425247928028], [-81.67758977881886, 28.53440855578629], [-81.67713797653659, 28.53436550269798], [-81.67685272370464, 28.53429059203431], [-81.67669660369478, 28.53414233789714], [-81.67651809137983, 28.534041635231734], [-81.67632079798723, 28.53400572031045], [-81.67627213085841, 28.533938073195586], [-81.67636082332304, 28.533826094222412], [-81.67637916961608, 28.53380041754367], [-81.67649572332925, 28.533831810409826], [-81.67663308561767, 28.533787476211113], [-81.67673564088378, 28.533710804425755], [-81.6768380578093, 28.53356137829468], [-81.6768362881282, 28.53356039021172], [-81.67686711202055, 28.533484155480313], [-81.67687337866796, 28.533330022207174], [-81.67669896536566, 28.533129670397138], [-81.67660655207912, 28.532894280505825], [-81.67665075997088, 28.532765536034667], [-81.67675883897766, 28.532666624350224], [-81.67681034837605, 28.53261948243898], [-81.67683896959933, 28.53259328932228], [-81.67684575277804, 28.532592113398085], [-81.67700752408935, 28.532564054579556], [-81.67721536729664, 28.532506172243224], [-81.67739143799064, 28.532399546554252], [-81.67746221894681, 28.532274131169565], [-81.67751610528745, 28.532129813164403], [-81.67747394196127, 28.531990244459926], [-81.67744058481983, 28.5319133259208], [-81.67727954922874, 28.53186517031878], [-81.67717735239044, 28.531877661244938], [-81.67709872015868, 28.53188727074146], [-81.67687773100552, 28.532016244368748], [-81.67668722258827, 28.532053916760493], [-81.67668708604434, 28.531981162168712], [-81.67683671842121, 28.531943961702034], [-81.67685320160837, 28.53174459930287], [-81.67687343077026, 28.531635235835225], [-81.67677943285555, 28.531371664297705], [-81.6767453633501, 28.53118834726672], [-81.67674623741085, 28.531110122769164], [-81.67668775528924, 28.530985293821022], [-81.67655272143405, 28.53090682293504], [-81.6763727691197, 28.53085069965784], [-81.67618587372651, 28.530905610687718], [-81.67604504573774, 28.53100546162172], [-81.67589251539577, 28.531131821636254], [-81.67582635357677, 28.531269005663155], [-81.67578329283363, 28.531465039245663], [-81.67575510549663, 28.53169091120825], [-81.67586383847694, 28.5319115620231], [-81.67581861728553, 28.53204577521901], [-81.6756711435603, 28.53214479324092], [-81.67543079211951, 28.532304907325774], [-81.67537170902496, 28.53240381303605], [-81.6753357297012, 28.532561565407747], [-81.6753348547421, 28.532639788038715], [-81.67527981586296, 28.532716819693807], [-81.67559264697414, 28.53278959745393], [-81.67576538671506, 28.532811245465847], [-81.67587485990715, 28.53288091762451], [-81.67598807817568, 28.533040581531846], [-81.67597809879119, 28.533168021108466], [-81.67596554124182, 28.5332294142594], [-81.67592753891205, 28.53339810219666], [-81.6757643132283, 28.533545502673235], [-81.67563649464145, 28.53350150771186], [-81.67548081660274, 28.533314141815673], [-81.67539852014293, 28.533024066573784], [-81.67538698397804, 28.532865954226008], [-81.67530004053327, 28.532821487033786], [-81.6751616685385, 28.53287128769917], [-81.67499931961045, 28.53294046340613], [-81.67479393509208, 28.5329482931412], [-81.67443517132381, 28.532903327203936], [-81.67417302855085, 28.532887256548804], [-81.67380225879882, 28.532980665668273], [-81.67344926221465, 28.533014751555392], [-81.67327291483954, 28.532975862548405], [-81.6731667833803, 28.532777915575583], [-81.67302123025313, 28.532535861587714], [-81.67277312096154, 28.532370473546386], [-81.67242909854707, 28.532282587589446], [-81.67205084672702, 28.53219600218363], [-81.67165006695627, 28.532084213138475], [-81.67138577271822, 28.53200631761949], [-81.67119429232383, 28.531792072287423], [-81.67104135594336, 28.531700160049326], [-81.67081058773, 28.53151456116858], [-81.67061589855344, 28.531501341750143], [-81.67042539013619, 28.531539004855343], [-81.67006505072288, 28.53146584977393], [-81.66987775468111, 28.53130248519331], [-81.66991709100907, 28.531016461808132], [-81.67004208978423, 28.530634867211585], [-81.67018239854676, 28.530244000166984], [-81.67034193305302, 28.52974923404298], [-81.67038434611085, 28.529189421490113], [-81.67062302578688, 28.528671003201755], [-81.67076662777326, 28.52840924108663], [-81.67104221563108, 28.52824236121327], [-81.67141859895531, 28.528155262636467], [-81.67176752706958, 28.528143054607824], [-81.67204843834375, 28.528094342444177], [-81.67244501489729, 28.528155250008584], [-81.67286715660548, 28.528224956025788], [-81.67317420166792, 28.528218685485253], [-81.67341582602145, 28.52819861659605], [-81.67377716346303, 28.528266293440094], [-81.67422530600882, 28.52830568140801], [-81.67475549258782, 28.5282322549503], [-81.6750305198969, 28.528182844346933], [-81.67515787135977, 28.528114830442004], [-81.67535905894911, 28.5280561185334], [-81.67557973998014, 28.528039014806716], [-81.67569021748874, 28.52810321986672], [-81.67574306358026, 28.52822174932901], [-81.67578522061822, 28.528361319867102], [-81.67597107216905, 28.52856925903465], [-81.67617773139679, 28.52870147023881], [-81.67634119423577, 28.528956960342317], [-81.67655709443285, 28.529112710054626], [-81.67679784652225, 28.529170858649035], [-81.67709609078985, 28.529101924341987], [-81.67743709217001, 28.528948824086292], [-81.6777835849515, 28.528729267268822], [-81.67802637891155, 28.52851909644227], [-81.67811680781962, 28.528250664054177], [-81.67807147254219, 28.528054742879608], [-81.67809935624861, 28.52794073639682], [-81.67814586023422, 28.527946563397848], [-81.67835931970868, 28.527894978287744], [-81.67859314668556, 28.52780677842471], [-81.67898149826435, 28.527838656095057], [-81.67914122051849, 28.528004148325245], [-81.67910366195646, 28.52813372810865], [-81.67902769053457, 28.528213733770507], [-81.67884744536944, 28.528269481193643], [-81.67872092394987, 28.52836553284385], [-81.67877074092227, 28.52850046718686], [-81.67885853686825, 28.52872408906628], [-81.67890603618721, 28.528981827653784], [-81.67903658744913, 28.52912128353522], [-81.67910185544443, 28.529319699078908], [-81.6790300674768, 28.529450586584858], [-81.67895062406635, 28.529586108306916], [-81.678985132848, 28.529730313778277], [-81.679141543912, 28.529766697381977], [-81.67939077969095, 28.529803154371674], [-81.67986437959357, 28.529429154132913], [-81.68021951237147, 28.529220020969053], [-81.6806057798588, 28.528966954464043], [-81.68070551261827, 28.528917421083964], [-81.68081758014492, 28.528840354292953], [-81.68092977972391, 28.52880182127097], [-81.68099211292315, 28.528763354530984], [-81.68103571265547, 28.528702821417724], [-81.68106691294193, 28.528548820847313], [-81.68105437964707, 28.52847722086427], [-81.68089871238813, 28.528295620927153], [-81.68078651280914, 28.52820755399234], [-81.68055597995439, 28.528059021375924], [-81.68043138003121, 28.52791602116417], [-81.680369112409, 28.527822421293582], [-81.68030677920974, 28.527624354146724], [-81.68031873039628, 28.52740751827111], [-81.6802830672795, 28.527196023602386], [-81.6802179394214, 28.527070362882114], [-81.68011699663124, 28.526917832673455], [-81.68007988812518, 28.52675091886864], [-81.68014445363791, 28.526585553319535], [-81.68008077116909, 28.526415311480502], [-81.67998228706787, 28.52621273028714], [-81.67998229964428, 28.525955347199048], [-81.67989724355992, 28.52582718856558], [-81.67972899898867, 28.52574455837408], [-81.67957620633862, 28.525725412450704], [-81.67946688047024, 28.52572849846631], [-81.67945272212305, 28.52580506082649], [-81.67949502648473, 28.526017387798525], [-81.67957805956306, 28.526156484542973], [-81.67957946812142, 28.526365885029577], [-81.67957949147763, 28.52636928594015], [-81.67953168223988, 28.526480796914583], [-81.67940748206702, 28.52645404268913], [-81.6793349125651, 28.526353220602775], [-81.67912317965265, 28.526149753741343], [-81.679079579022, 28.526061620294296], [-81.67905457890765, 28.525863553785022], [-81.67908577919411, 28.525516820476533], [-81.67927897896395, 28.52528035359867], [-81.67932877886835, 28.525236353608534], [-81.67945351264049, 28.525027153719908], [-81.67949697942214, 28.524906153412175], [-81.6795219795365, 28.524609020259877], [-81.6794721796321, 28.52444395285256], [-81.67932891181901, 28.524174353011123], [-81.67919811172375, 28.52398175342349], [-81.67911091225912, 28.52376722026863], [-81.67903611224035, 28.523266419684592], [-81.67897391199176, 28.52309035310896], [-81.67899251160974, 28.522936353021024], [-81.67901751172408, 28.522914352539082], [-81.67902997944192, 28.522496019691605], [-81.67896151164759, 28.522270420061506], [-81.67888677900245, 28.52188535249302], [-81.67885557871602, 28.52126361977846], [-81.67877471147584, 28.520839819222203], [-81.67860031164825, 28.520322619597785], [-81.67844826010831, 28.52012222885528], [-81.67837688177248, 28.519878353290142]], [[-81.62465190910702, 28.543395659297886], [-81.62413794520374, 28.54348132011025], [-81.62385240940247, 28.543566980063748], [-81.62340982832661, 28.54336710541526], [-81.62296724904738, 28.543352829260222], [-81.62273882004705, 28.543452767039923], [-81.62245328604241, 28.543467043181487], [-81.6222534108917, 28.543309999205068], [-81.62198215201525, 28.54315295420537], [-81.6219107682895, 28.5429102493428], [-81.62196787509042, 28.542553329921887], [-81.62196787509042, 28.54226779477708], [-81.62201070496654, 28.541925151897345], [-81.62198215201525, 28.541568233084455], [-81.62196787509042, 28.541296974861705], [-81.62209636651541, 28.54094005470954], [-81.62216775024113, 28.54051175145607], [-81.62212492036504, 28.540240493669554], [-81.62182510763895, 28.539912127132382], [-81.62153957183767, 28.539769359233862], [-81.62136825053659, 28.53946954854251], [-81.62153957183767, 28.539269673222044], [-81.62183938456376, 28.539026968093374], [-81.62205353574099, 28.53855583375492], [-81.62208208869227, 28.53825602276686], [-81.62229624076781, 28.538027593760148], [-81.62253894579464, 28.53781344274415], [-81.62282448159591, 28.537784889715947], [-81.62286731237035, 28.537984763907403], [-81.62278165082148, 28.5382702988235], [-81.62291014224644, 28.538684324931882], [-81.62312429342367, 28.53884137028005], [-81.62339555140181, 28.538755708851372], [-81.62358114962771, 28.538641495346177], [-81.62373819490232, 28.5388841997845], [-81.62389523927861, 28.53919828886168], [-81.62423788098248, 28.539055520784963], [-81.62440920318188, 28.538784263194774], [-81.62429498868173, 28.53842734399964], [-81.62430926560651, 28.538213192217867], [-81.62469473898315, 28.53845589685373], [-81.62528008571385, 28.538441620822237], [-81.62546568393975, 28.53817036086227], [-81.6255656206168, 28.538027593760148], [-81.62579404871883, 28.53817036086227], [-81.62577977269234, 28.53845589685373], [-81.62569411204177, 28.538798539968948], [-81.62550851381589, 28.53909835178071], [-81.62510876531108, 28.539112628512328], [-81.62488033720905, 28.53934105595575], [-81.62460907743429, 28.539826467363444], [-81.62453769370856, 28.540269047610526], [-81.62465190910702, 28.54079728662579], [-81.62482322861149, 28.541511125899], [-81.62479467566018, 28.542096474265673], [-81.62468046205834, 28.54233917784675], [-81.62459480050947, 28.542781757796156], [-81.62472329193444, 28.54303873994356], [-81.62465190910702, 28.543395659297886]], [[-81.62476612181058, 28.537713505138758], [-81.62478039873538, 28.53754218353441], [-81.62473756885926, 28.53731375534748], [-81.6244520339563, 28.536985390736834], [-81.62430926560651, 28.536842622818188], [-81.62415222033192, 28.53675696292115], [-81.62386668542898, 28.536699854706065], [-81.62372391707918, 28.53654280932254], [-81.62373819490232, 28.536328658445456], [-81.62365253425176, 28.53607167650271], [-81.62368108720305, 28.53592890813519], [-81.62382385465453, 28.53588607821854], [-81.62395234607952, 28.535986016768124], [-81.62412366738062, 28.53605739935897], [-81.6242807126552, 28.53592890813519], [-81.62448058690762, 28.535686203202605], [-81.62460907743429, 28.535457774937957], [-81.62463763038559, 28.53525789989878], [-81.6249802738861, 28.53515796460457], [-81.62502310376222, 28.534986642001734], [-81.62515159518719, 28.534772491118655], [-81.62533719251478, 28.534658276452415], [-81.62545140701495, 28.5345155077482], [-81.6255370676655, 28.534258526907863], [-81.62560845049292, 28.534044374544997], [-81.6258797102677, 28.533958714740756], [-81.62603675374565, 28.534044374544997], [-81.62607958541841, 28.53450123197203], [-81.62622235197156, 28.534986642001734], [-81.62633656737005, 28.535400668386274], [-81.62649361084802, 28.535800418333054], [-81.62655071854726, 28.536014569494544], [-81.62647933482152, 28.536157337746065], [-81.62625090492287, 28.53597173961278], [-81.6258797102677, 28.535786141152567], [-81.62543713009015, 28.536014569494544], [-81.62543713009015, 28.536414319479835], [-81.62573694191789, 28.536699854706065], [-81.6259368170686, 28.536699854706065], [-81.6258939871925, 28.53687117531254], [-81.62586543424119, 28.537128157672853], [-81.62573694191789, 28.53737086244062], [-81.62552279074069, 28.53737086244062], [-81.62539430021403, 28.537399416370206], [-81.62532291558996, 28.537513629643513], [-81.62493744400997, 28.53781344274415], [-81.62476612181058, 28.537713505138758]], [[-81.62018327835374, 28.542396285372394], [-81.61998340320302, 28.542553329921887], [-81.61968359227357, 28.542539052867404], [-81.61955510084859, 28.54238200908572], [-81.61926956504735, 28.542310625255976], [-81.61912679759585, 28.542153580344664], [-81.61915535144547, 28.541925151897345], [-81.61926956504735, 28.541753830828682], [-81.61945516327323, 28.54159678587638], [-81.61958365469822, 28.541439743057428], [-81.61974069817619, 28.541354080584927], [-81.61995485025172, 28.54133980494616], [-81.62002623487575, 28.54142546585202], [-81.61999768192445, 28.541753830828682], [-81.62001195884928, 28.54218213376709], [-81.62018327835374, 28.542396285372394]], [[-81.61915535144547, 28.53702822099576], [-81.61925528902084, 28.537213818846425], [-81.61932667184826, 28.53754218432353], [-81.61916962837029, 28.53767067515833], [-81.619012583994, 28.537684952083453], [-81.61884126269291, 28.537527906589936], [-81.6188269857681, 28.537385140195564], [-81.61868421831662, 28.537228095044274], [-81.61861283369257, 28.53709960366975], [-81.61881270884328, 28.537013943981645], [-81.619012583994, 28.536928282645572], [-81.61915535144547, 28.53702822099576]], [[-81.62031176977871, 28.542096474265673], [-81.6202403869513, 28.541753830828682], [-81.6202403869513, 28.541482573083844], [-81.62038315350446, 28.541525403092855], [-81.62062585942961, 28.54166817097901], [-81.62076862598276, 28.541853768547178], [-81.620825733682, 28.54208219714927], [-81.62072579610664, 28.54218213376709], [-81.62056875173035, 28.54221068718177], [-81.62034032362834, 28.542324902341488], [-81.62031176977871, 28.542096474265673]], [[-81.67294303909418, 28.520613520674345], [-81.67293970005626, 28.520741797726558], [-81.67297197113453, 28.52079717970918], [-81.67294970998347, 28.52088895227711], [-81.67293097741485, 28.52093295250309], [-81.67286251051884, 28.52094395216209], [-81.67273791059566, 28.52088895227711], [-81.67247011023305, 28.520734819528418], [-81.67226437716839, 28.520635752112163], [-81.67216477735957, 28.520553219671413], [-81.67212901632641, 28.52050224265193], [-81.67231097008721, 28.520539868643606], [-81.67241580348087, 28.52059777570519], [-81.67254302648468, 28.520608132119154], [-81.67267372417199, 28.520562967538694], [-81.67284427741352, 28.52052280079457], [-81.67294303909418, 28.520613520674345]], [[-81.62068296533221, 28.539726529300076], [-81.62098277805829, 28.539897851298225], [-81.6208400106068, 28.539983511798244], [-81.62069724225702, 28.54004061823347], [-81.62048309197813, 28.539897851298225], [-81.62035459965483, 28.539954957779884], [-81.62032604670352, 28.539797914091686], [-81.62036887657963, 28.539697976790343], [-81.62068296533221, 28.539726529300076]], [[-81.61838440559055, 28.53719954185751], [-81.6184700662411, 28.537299479161238], [-81.61831302186481, 28.537370863229803], [-81.61818453223646, 28.53739941715939], [-81.61798465708574, 28.537442247250027], [-81.61778478193501, 28.537442247250027], [-81.61782761181115, 28.537313756136665], [-81.6179703783643, 28.53719954185751], [-81.61808459376279, 28.537242372029382], [-81.61824163813908, 28.537113880672273], [-81.61838440559055, 28.53719954185751]], [[-81.67605551829732, 28.527561496042342], [-81.67599731465344, 28.527582178298843], [-81.67586502155817, 28.527599169237167], [-81.67581028900456, 28.527564333390874], [-81.67580933050212, 28.527507609293806], [-81.67595097326287, 28.527391723804676], [-81.67614045939733, 28.52735952003883], [-81.67638791112212, 28.527431554079165], [-81.67641917968054, 28.527506359912703], [-81.67639216823825, 28.52754214129807], [-81.67635144670811, 28.52754669289527], [-81.676274175424, 28.52755532885389], [-81.6761709149804, 28.527525601011675], [-81.67605551829732, 28.527561496042342]]]}, "properties": {"OBJECTID": 2301825, "id3dhp": "JLZXD", "featuredate": 1694649600000, "mainstemid": null, "gnisid": 284856, "gnisidlabel": "Johns Lake", "featuretype": 3, "featuretypelabel": "Lake", "areasqkm": 9.89766288, "workunitid": "NHD", "Shape__Length": 57274.24307503326, "Shape__Area": 12870392.231180927}}]}