{"type": "FeatureCollection", "features": [{"type": "Feature", "id": 16085186, "geometry": {"type": "LineString", "coordinates": [[-81.62958268534476, 28.53764391982771], [-81.64576881849324, 28.533375085034578], [-81.6477061494895, 28.534096307049914], [-81.6487327055686, 28.53377914460589], [-81.64988492697283, 28.53382822901288], [-81.66524405400277, 28.529783530121737], [-81.67075240923894, 28.532793690293854], [-81.67607868944177, 28.533947170312917]]}, "properties": {"OBJECTID": 16085186, "id3dhp": "AD84T", "featuredate": 1694649600000, "mainstemid": "https://geoconnex.us/usgs/mainstems/10371602", "gnisid": null, "gnisidlabel": null, "featuretype": 5, "featuretypelabel": "Waterbody Connector", "lengthkm": 4.8260000000000005, "waterbodyid3dhp": "JLZXD", "flowdirection": 1, "flowdirectionlabel": "Flow direction is in digitized direction, and z-values on vertices flow downslope", "onsurface": 1, "onsurfacelabel": "Feature is on the land surface", "catchmentid3dhp": "", "flowpathid3dhp": null, "streamlevel": 1, "startflag": 0, "terminalflag": 0, "streamorder": 3, "streamcalculator": 3, "hydrosequence": 293618, "dnhydrosequence": 11034, "uphydrosequence": 497698, "dnlevelpath": 11034, "uplevelpath": 11034, "pathlength": 0.8350000000000001, "arbolatesum": 16.29832667, "divergence": 0, "divergencelabel": "No divergence", "rtrndivergence": 0, "levelpath": 11034, "terminalpath": 11034, "workunitid": "NHD", "Shape__Length": 5482.775038212499}}]}