{
  "type": "FeatureCollection",
  "features": [
    {
      "type": "Feature",
      "geometry": {
        "type": "Polygon",
        "coordinates": [
          [
            [
              -81.44273264748983,
              28.35884438436599
            ],
            [
              -81.44274190314525,
              28.35884098527942
            ],
            [
              -81.44309530199915,
              28.35871478577972
            ],
            [
              -81.44310823595947,
              28.358710346937936
            ],
            [
              -81.44320226131816,
              28.358679372342532
            ],
            [
              -81.44320737742757,
              28.359911038210438
            ],
            [
              -81.44312589040216,
              28.35994015235076
            ],
            [
              -81.44279085229356,
              28.36006780916446
            ],
            [
              -81.44246447388599,
              28.3601983606391
            ],
            [
              -81.44212476251623,
              28.36034043949142
            ],
            [
              -81.44170601716125,
              28.3605302851285
            ],
            [
              -81.44128255730062,
              28.360735150747523
            ],
            [
              -81.44096772999126,
              28.360896354192953
            ],
            [
              -81.44065992131951,
              28.361060312809943
            ],
            [
              -81.4403647717444,
              28.36122883176195
            ],
            [
              -81.4400713398378,
              28.361402033653476
            ],
            [
              -81.43976864492252,
              28.361590403428217
            ],
            [
              -81.43946635305721,
              28.36178483932585
            ],
            [
              -81.43918418411242,
              28.361971529187617
            ],
            [
              -81.4389130401134,
              28.362161919620007
            ],
            [
              -81.43862440834583,
              28.362372645543722
            ],
            [
              -81.43835204734182,
              28.36258225864166
            ],
            [
              -81.43808475675148,
              28.36279750920089
            ],
            [
              -81.43782245426546,
              28.36301736096842
            ],
            [
              -81.43756563481797,
              28.363240682880964
            ],
            [
              -81.43731729052192,
              28.36346152167136
            ],
            [
              -81.43515514945823,
              28.365417384339803
            ],
            [
              -81.43344642539103,
              28.36697571367019
            ],
            [
              -81.43313956048992,
              28.367260489991793
            ],
            [
              -81.43294220440194,
              28.367094108960057
            ],
            [
              -81.43294211631691,
              28.367094190280106
            ],
            [
              -81.43313937179825,
              28.36726066500658
            ],
            [
              -81.4310984725391,
              28.369152570440594
            ],
            [
              -81.43109470675518,
              28.36915602426997
            ],
            [
              -81.42901950723189,
              28.371039129742122
            ],
            [
              -81.42901821264104,
              28.371040300211284
            ],
            [
              -81.4287570126893,
              28.371275600897757
            ],
            [
              -81.42875532745954,
              28.371277111900255
            ],
            [
              -81.42849602749253,
              28.371508512578725
            ],
            [
              -81.4284855870096,
              28.371517566485725
            ],
            [
              -81.42821798695306,
              28.37174306716674
            ],
            [
              -81.42820703818205,
              28.37175202708979
            ],
            [
              -81.4279294380328,
              28.371972627775268
            ],
            [
              -81.427922486464,
              28.371978051846654
            ],
            [
              -81.42764588626169,
              28.37218995251635
            ],
            [
              -81.42763897757888,
              28.37219515084272
            ],
            [
              -81.42734857731337,
              28.37240975153192
            ],
            [
              -81.4273395049789,
              28.372416300928734
            ],
            [
              -81.42705020464868,
              28.372620301597067
            ],
            [
              -81.42702838887807,
              28.372634857293484
            ],
            [
              -81.42635428777697,
              28.373060058748134
            ],
            [
              -81.4261965894958,
              28.372864480332826
            ],
            [
              -81.4261943776632,
              28.372865847173294
            ],
            [
              -81.42634957234131,
              28.37306299765008
            ],
            [
              -81.42582407143173,
              28.373386598766693
            ],
            [
              -81.42566807033859,
              28.37318842264813
            ],
            [
              -81.42566644549973,
              28.373189398028657
            ],
            [
              -81.42582059539416,
              28.37338872044601
            ],
            [
              -81.42556769493872,
              28.373541720977226
            ],
            [
              -81.42554814029654,
              28.373552979547956
            ],
            [
              -81.42524943964942,
              28.373716480134355
            ],
            [
              -81.42524274011905,
              28.373720084591206
            ],
            [
              -81.42491573937289,
              28.373892985217736
            ],
            [
              -81.42490639695524,
              28.373897806841082
            ],
            [
              -81.42458769617926,
              28.374058307430715
            ],
            [
              -81.42457355629422,
              28.37406516896883
            ],
            [
              -81.4242531554451,
              28.374214869529613
            ],
            [
              -81.42424753563272,
              28.374217455923194
            ],
            [
              -81.42390513469772,
              28.374372656508886
            ],
            [
              -81.42389415270748,
              28.37437748781123
            ],
            [
              -81.42355765173829,
              28.374521088360645
            ],
            [
              -81.42355102745178,
              28.37452386354212
            ],
            [
              -81.42321492645509,
              28.374662064075107
            ],
            [
              -81.42319967590362,
              28.3746680685647
            ],
            [
              -81.42284377478299,
              28.37480206909055
            ],
            [
              -81.4228327056766,
              28.374806101724115
            ],
            [
              -81.42277695677474,
              28.374825738539375
            ],
            [
              -81.42277200846796,
              28.3735776790271
            ],
            [
              -81.42299744198421,
              28.37348500608228
            ],
            [
              -81.42332030478912,
              28.373347178742232
            ],
            [
              -81.42364984229555,
              28.373197823676435
            ],
            [
              -81.42395497933782,
              28.373055232815847
            ],
            [
              -81.42425563647842,
              28.37290394201809
            ],
            [
              -81.4245705771785,
              28.372737341048957
            ],
            [
              -81.42491023164698,
              28.372552417264092
            ],
            [
              -81.42523997465828,
              28.3723544753527
            ],
            [
              -81.42576484012892,
              28.372030127542097
            ],
            [
              -81.42591934345315,
              28.37222571406804
            ],
            [
              -81.4259218410734,
              28.37222413866112
            ],
            [
              -81.42577019766418,
              28.372026861520766
            ],
            [
              -81.42602858100902,
              28.37187148715317
            ],
            [
              -81.42624951133593,
              28.371722424886876
            ],
            [
              -81.42652526335543,
              28.371527868010254
            ],
            [
              -81.42680357367446,
              28.37132219890487
            ],
            [
              -81.42706953597887,
              28.37111851262208
            ],
            [
              -81.42733327272049,
              28.370908915931434
            ],
            [
              -81.42758444082074,
              28.370697179322942
            ],
            [
              -81.4278346407401,
              28.370474031353524
            ],
            [
              -81.42809303448799,
              28.370241150120105
            ],
            [
              -81.43015730949851,
              28.36836029224134
            ],
            [
              -81.43223745860116,
              28.366439960865865
            ],
            [
              -81.43243423410378,
              28.36660672047509
            ],
            [
              -81.4324371441668,
              28.366604019908195
            ],
            [
              -81.4322437780651,
              28.366434229408906
            ],
            [
              -81.43259671575827,
              28.366119758930484
            ],
            [
              -81.43422170694265,
              28.364621637595246
            ],
            [
              -81.43422511776294,
              28.364618523094805
            ],
            [
              -81.43639181821742,
              28.362658928798115
            ],
            [
              -81.43639490845966,
              28.362656157867857
            ],
            [
              -81.43664890848629,
              28.362430358531057
            ],
            [
              -81.43665284242466,
              28.362426899166923
            ],
            [
              -81.43691794241798,
              28.36219629985195
            ],
            [
              -81.43692466042648,
              28.362190562138856
            ],
            [
              -81.43719786036147,
              28.361961462832205
            ],
            [
              -81.437205528006,
              28.361955163691952
            ],
            [
              -81.4374852278752,
              28.361730064387018
            ],
            [
              -81.4374937306043,
              28.361723373242576
            ],
            [
              -81.43778043040156,
              28.361502773938184
            ],
            [
              -81.4377904923124,
              28.361495231679378
            ],
            [
              -81.43809289201845,
              28.361274432391987
            ],
            [
              -81.4381004540408,
              28.361269017304785
            ],
            [
              -81.43838625370951,
              28.36106831796327
            ],
            [
              -81.4383978378601,
              28.36106041986365
            ],
            [
              -81.43869323743839,
              28.360864920520402
            ],
            [
              -81.43869875747812,
              28.360861318214162
            ],
            [
              -81.43901035699567,
              28.36066081889495
            ],
            [
              -81.43901708216202,
              28.360656564829654
            ],
            [
              -81.4393327816286,
              28.360460265504557
            ],
            [
              -81.4393430112927,
              28.360454067657074
            ],
            [
              -81.43964951071243,
              28.360273168290366
            ],
            [
              -81.43965598210687,
              28.360269411227893
            ],
            [
              -81.43996648148111,
              28.36009211185535
            ],
            [
              -81.43998003469913,
              28.360084635973976
            ],
            [
              -81.4403041339681,
              28.35991203659808
            ],
            [
              -81.44031164565526,
              28.359908113223483
            ],
            [
              -81.44064064487216,
              28.35973961383964
            ],
            [
              -81.44065147390953,
              28.359734222320107
            ],
            [
              -81.44109257278471,
              28.359520823112554
            ],
            [
              -81.44110468026928,
              28.359515151061586
            ],
            [
              -81.44154007908199,
              28.359317751806586
            ],
            [
              -81.44155545846453,
              28.359311065184254
            ],
            [
              -81.44201645711235,
              28.35911906592295
            ],
            [
              -81.44213399542554,
              28.359339892078765
            ],
            [
              -81.4421395689672,
              28.35933766266807
            ],
            [
              -81.44202858214078,
              28.359114186015347
            ],
            [
              -81.44238858103115,
              28.35897428656129
            ],
            [
              -81.44239354855465,
              28.358972383863684
            ],
            [
              -81.44273264748983,
              28.35884438436599
            ]
          ]
        ]
      },
      "properties": {
        "name": "CFX SR417 Estimated ROW Corridor",
        "source": "OpenStreetMap via Overpass API",
        "method": "SR417 centerlines buffered 50.0 m each side",
        "row_half_width_m": 50.0,
        "row_total_width_m": 100.0,
        "row_total_width_ft": 328,
        "aoi_center_lat": 28.36687,
        "aoi_center_lon": -81.43299,
        "aoi_radius_km": 1.0,
        "status": "ESTIMATED \u2014 replace with CFX surveyed boundary when available"
      }
    }
  ]
}