{
"type": "FeatureCollection",
"name": "nhd_flowlines",
"crs": { "type": "name", "properties": { "name": "urn:ogc:def:crs:OGC:1.3:CRS84" } },
"features": [
{ "type": "Feature", "properties": { "OBJECTID": 800351, "permanent_identifier": "{BE242BAE-2801-4A2E-85DA-2C44617A1653}", "fdate": 1414972800000, "resolution": 2, "gnis_id": "00291054", "gnis_name": "Shingle Creek", "lengthkm": 0.03993851, "reachcode": "03090101011836", "flowdir": 1, "wbarea_permanent_identifier": null, "ftype": 460, "fcode": 46006, "innetwork": 1, "mainpath": 0, "visibilityfilter": 250000, "Shape_Length": 45.708839534352478, "globalid": "{32DB008B-0CCC-46A4-978E-10865A7C15F5}" }, "geometry": { "type": "LineString", "coordinates": [ [ -81.437622036955133, 28.374149524282451 ], [ -81.437603304224211, 28.373995523321543 ], [ -81.437603304224211, 28.37386892394553 ], [ -81.437588982316299, 28.373790124272109 ] ] } },
{ "type": "Feature", "properties": { "OBJECTID": 9970531, "permanent_identifier": "{FBBA09FD-6CC5-4023-8606-4D3E8F1D99BE}", "fdate": 1414972800000, "resolution": 2, "gnis_id": "00291054", "gnis_name": "Shingle Creek", "lengthkm": 0.23156965, "reachcode": "03090101011836", "flowdir": 1, "wbarea_permanent_identifier": null, "ftype": 460, "fcode": 46006, "innetwork": 1, "mainpath": 0, "visibilityfilter": 250000, "Shape_Length": 264.72315404008174, "globalid": "{A6DE6111-2707-4BC9-B8D8-AF45DFCF17BC}" }, "geometry": { "type": "LineString", "coordinates": [ [ -81.436955237890899, 28.37611092453762 ], [ -81.437266303404442, 28.375488990876569 ], [ -81.43752763660261, 28.375004790885399 ], [ -81.437578437546264, 28.374864791316291 ], [ -81.437603304224211, 28.374820790445714 ], [ -81.43766563740455, 28.374589724464602 ], [ -81.437665504216199, 28.374452123937971 ], [ -81.437646837038912, 28.374248590700013 ], [ -81.437622036955133, 28.374149524282451 ] ] } },
{ "type": "Feature", "properties": { "OBJECTID": 11990179, "permanent_identifier": "111974241", "fdate": 1414972800000, "resolution": 2, "gnis_id": "00291054", "gnis_name": "Shingle Creek", "lengthkm": 1.46274581, "reachcode": "03090101011836", "flowdir": 1, "wbarea_permanent_identifier": "112052967", "ftype": 558, "fcode": 55800, "innetwork": 1, "mainpath": 0, "visibilityfilter": 250000, "Shape_Length": 1670.3204741622801, "globalid": "{81538654-4C90-11E1-BCF4-0021280458E6}" }, "geometry": { "type": "LineString", "coordinates": [ [ -81.437408220775794, 28.371721507079613 ], [ -81.437385503840744, 28.371629323231293 ], [ -81.437385503840744, 28.371502789697796 ], [ -81.43732950334946, 28.371150589786879 ], [ -81.437286037128914, 28.37084792303401 ], [ -81.43727350389868, 28.370655322877898 ], [ -81.437248637220719, 28.370501323253539 ], [ -81.437236237178837, 28.370336190193985 ], [ -81.437211303906707, 28.370176722372694 ], [ -81.437205104406019, 28.369989589657319 ], [ -81.437174036146317, 28.36974738995114 ], [ -81.437124104048436, 28.369065123143795 ], [ -81.437043303473345, 28.368547923043121 ], [ -81.437030903431449, 28.368272722619075 ], [ -81.436950037302694, 28.367353789597733 ], [ -81.436887837310721, 28.367040122203875 ], [ -81.436862902998072, 28.366825588576368 ], [ -81.436869036945112, 28.366379788450114 ], [ -81.436850436362008, 28.366093722509483 ], [ -81.436862836403904, 28.365989121929484 ], [ -81.436912636353995, 28.365779989130171 ], [ -81.436968703439462, 28.365636922028347 ], [ -81.438368303670586, 28.362896721532422 ], [ -81.438505103696457, 28.362626987394339 ], [ -81.440657505195631, 28.361526387360765 ], [ -81.440893838527501, 28.361234720194254 ], [ -81.44121730408294, 28.360866120019203 ], [ -81.441385304516302, 28.360717520386469 ], [ -81.441627903943015, 28.36043678746918 ], [ -81.441761725961015, 28.360275282106965 ] ] } },
{ "type": "Feature", "properties": { "OBJECTID": 12658203, "permanent_identifier": "{D7A0CBD4-B1CF-4BD7-A412-46696139CB66}", "fdate": 1399327483000, "resolution": 2, "gnis_id": "00291054", "gnis_name": "Shingle Creek", "lengthkm": 0.12728883, "reachcode": "03090101046550", "flowdir": 1, "wbarea_permanent_identifier": null, "ftype": 334, "fcode": 33400, "innetwork": 1, "mainpath": 0, "visibilityfilter": 250000, "Shape_Length": 145.1465205712235, "globalid": "{F42F66E0-446A-4291-8E7C-16816E960C20}" }, "geometry": { "type": "LineString", "coordinates": [ [ -81.441761725961015, 28.360275282106965 ], [ -81.442529910481511, 28.359348172624831 ] ] } },
{ "type": "Feature", "properties": { "OBJECTID": 19624522, "permanent_identifier": "{C534CAAD-A8F0-4935-B512-EC9777773590}", "fdate": 1414972800000, "resolution": 2, "gnis_id": "00291054", "gnis_name": "Shingle Creek", "lengthkm": 0.229879, "reachcode": "03090101011836", "flowdir": 1, "wbarea_permanent_identifier": null, "ftype": 460, "fcode": 46006, "innetwork": 1, "mainpath": 0, "visibilityfilter": 250000, "Shape_Length": 263.08973614939811, "globalid": "{4976556A-60A0-42B8-9D67-A9223847D9AD}" }, "geometry": { "type": "LineString", "coordinates": [ [ -81.437588982316299, 28.373790124272109 ], [ -81.437547303732913, 28.373560790064321 ], [ -81.437541103191691, 28.373423124115689 ], [ -81.43751610436594, 28.373219589818991 ], [ -81.437522437054952, 28.373032523811766 ], [ -81.437460237062965, 28.372663790663566 ], [ -81.437447837021068, 28.372520790522547 ], [ -81.437453904373953, 28.372355722863162 ], [ -81.437435303790835, 28.37221259046856 ], [ -81.437416704248278, 28.371755923448884 ], [ -81.437408220775794, 28.371721507079613 ] ] } },
{ "type": "Feature", "properties": { "OBJECTID": 27037310, "permanent_identifier": "{324B3EAF-FF43-42F5-A502-3EDFBF456E67}", "fdate": 1414972800000, "resolution": 2, "gnis_id": "00291054", "gnis_name": "Shingle Creek", "lengthkm": 0.33791511, "reachcode": "03090101012101", "flowdir": 1, "wbarea_permanent_identifier": "112053251", "ftype": 558, "fcode": 55800, "innetwork": 1, "mainpath": 0, "visibilityfilter": 500000, "Shape_Length": 385.37510128085296, "globalid": "{5982B9BE-F147-4F0B-8D29-DB784560EF29}" }, "geometry": { "type": "LineString", "coordinates": [ [ -81.442529910481511, 28.359348172624831 ], [ -81.443369637947427, 28.358334719890582 ], [ -81.443562438464582, 28.358153186646696 ], [ -81.443661905176427, 28.35803758658254 ], [ -81.443960438500284, 28.357580919910141 ], [ -81.444072305254011, 28.357300319710848 ], [ -81.444221705104269, 28.357140585984116 ], [ -81.444499592155466, 28.356866081194795 ] ] } }
]
}
