{"type": "FeatureCollection", "features": [{"type": "Feature", "id": 8724076, "geometry": {"type": "LineString", "coordinates": [[-81.43695523666354, 28.376110924463333], [-81.4372663034835, 28.375488990928794], [-81.43752763687438, 28.37500479081494], [-81.43757843660372, 28.374864790073318], [-81.43760330376739, 28.374820790682833], [-81.43766563696664, 28.374589724028752], [-81.43766550401597, 28.37445212474128], [-81.43764683702437, 28.374248590652584], [-81.43762203723433, 28.374149524239666]]}, "properties": {"OBJECTID": 8724076, "id3dhp": "5ZVRF", "featuredate": 1694649600000, "mainstemid": "https://geoconnex.us/ref/mainstems/2510223", "gnisid": 291054, "gnisidlabel": "Shingle Creek", "featuretype": 1, "featuretypelabel": "Channel Line", "lengthkm": 0.23156965000000002, "waterbodyid3dhp": null, "flowdirection": 1, "flowdirectionlabel": "Flow direction is in digitized direction, and z-values on vertices flow downslope", "onsurface": 1, "onsurfacelabel": "Feature is on the land surface", "catchmentid3dhp": "", "flowpathid3dhp": null, "streamlevel": 1, "startflag": 0, "terminalflag": 0, "streamorder": 2, "streamcalculator": 2, "hydrosequence": 13104455, "dnhydrosequence": 13094613, "uphydrosequence": 13114454, "dnlevelpath": 101, "uplevelpath": 101, "pathlength": 325.8460935, "arbolatesum": 12.85408416, "divergence": 0, "divergencelabel": "No divergence", "rtrndivergence": 0, "levelpath": 101, "terminalpath": 101, "workunitid": "NHD", "Shape__Length": 264.72320234093104}}, {"type": "Feature", "id": 10770430, "geometry": {"type": "LineString", "coordinates": [[-81.43740822202703, 28.37172150667418], [-81.43738550363351, 28.371629323981598], [-81.43738550363351, 28.37150278981479], [-81.437329503557, 28.371150589372135], [-81.43728603677535, 28.370847923333415], [-81.43727350348051, 28.370655323330645], [-81.4372486363168, 28.370501323225447], [-81.43723623687096, 28.370336189000934], [-81.43721130413023, 28.3701767234408], [-81.43720510395815, 28.369989589592485], [-81.43717403662237, 28.369747389524004], [-81.43712410376729, 28.369065122940647], [-81.43704330390074, 28.36854792283814], [-81.43703090355655, 28.368272722639976], [-81.43695003631638, 28.367353788373002], [-81.43688783606778, 28.367040122704072], [-81.43686290332708, 28.366825588735995], [-81.43686903612551, 28.366379788785892], [-81.43685043650757, 28.366093722120844], [-81.43686283685174, 28.365989122020807], [-81.43691263675616, 28.365779987909768], [-81.43696870330798, 28.36563692224688], [-81.43836830367347, 28.36289672120709], [-81.43850510361649, 28.362626987543532], [-81.44065750476649, 28.361526387442368], [-81.4408938371447, 28.36123472129723], [-81.44121730430884, 28.360866121189417], [-81.44138530453833, 28.36071752097435], [-81.44162790446228, 28.36043678675591], [-81.44176172559182, 28.36027528185448]]}, "properties": {"OBJECTID": 10770430, "id3dhp": "77MD9", "featuredate": 1694649600000, "mainstemid": "https://geoconnex.us/ref/mainstems/2510223", "gnisid": 291054, "gnisidlabel": "Shingle Creek", "featuretype": 4, "featuretypelabel": "Surface Connector", "lengthkm": 1.46274581, "waterbodyid3dhp": null, "flowdirection": 1, "flowdirectionlabel": "Flow direction is in digitized direction, and z-values on vertices flow downslope", "onsurface": 1, "onsurfacelabel": "Feature is on the land surface", "catchmentid3dhp": "", "flowpathid3dhp": null, "streamlevel": 1, "startflag": 0, "terminalflag": 0, "streamorder": 2, "streamcalculator": 2, "hydrosequence": 13074636, "dnhydrosequence": 13064657, "uphydrosequence": 13084643, "dnlevelpath": 101, "uplevelpath": 101, "pathlength": 324.11353018, "arbolatesum": 14.58664748, "divergence": 0, "divergencelabel": "No divergence", "rtrndivergence": 0, "levelpath": 101, "terminalpath": 101, "workunitid": "NHD", "Shape__Length": 1670.3204116495276}}, {"type": "Feature", "id": 11446938, "geometry": {"type": "LineString", "coordinates": [[-81.44176172559182, 28.36027528185448], [-81.4425299109239, 28.359348172500916]]}, "properties": {"OBJECTID": 11446938, "id3dhp": "7M355", "featuredate": 1694649600000, "mainstemid": "https://geoconnex.us/ref/mainstems/2510223", "gnisid": 291054, "gnisidlabel": "Shingle Creek", "featuretype": 4, "featuretypelabel": "Surface Connector", "lengthkm": 0.12728883000000002, "waterbodyid3dhp": null, "flowdirection": 1, "flowdirectionlabel": "Flow direction is in digitized direction, and z-values on vertices flow downslope", "onsurface": 1, "onsurfacelabel": "Feature is on the land surface", "catchmentid3dhp": "", "flowpathid3dhp": null, "streamlevel": 1, "startflag": 0, "terminalflag": 0, "streamorder": 2, "streamcalculator": 2, "hydrosequence": 13064657, "dnhydrosequence": 13054658, "uphydrosequence": 13074636, "dnlevelpath": 101, "uplevelpath": 101, "pathlength": 323.98624135, "arbolatesum": 14.713936310000001, "divergence": 0, "divergencelabel": "No divergence", "rtrndivergence": 0, "levelpath": 101, "terminalpath": 101, "workunitid": "NHD", "Shape__Length": 145.14656065573578}}, {"type": "Feature", "id": 18504527, "geometry": {"type": "LineString", "coordinates": [[-81.43758898282515, 28.37379012416232], [-81.43754730369089, 28.373560790188694], [-81.43754110351881, 28.37342312396334], [-81.43751610430277, 28.373219590271557], [-81.4375224365272, 28.37303252423226], [-81.43746023717694, 28.372663789633904], [-81.43744783683276, 28.372520790161886], [-81.43745390405418, 28.37235572389407], [-81.43743530353791, 28.372212589637265], [-81.43741670391995, 28.37175592360169], [-81.43740822202703, 28.37172150667418]]}, "properties": {"OBJECTID": 18504527, "id3dhp": "BSYMV", "featuredate": 1694649600000, "mainstemid": "https://geoconnex.us/ref/mainstems/2510223", "gnisid": 291054, "gnisidlabel": "Shingle Creek", "featuretype": 1, "featuretypelabel": "Channel Line", "lengthkm": 0.229879, "waterbodyid3dhp": null, "flowdirection": 1, "flowdirectionlabel": "Flow direction is in digitized direction, and z-values on vertices flow downslope", "onsurface": 1, "onsurfacelabel": "Feature is on the land surface", "catchmentid3dhp": "", "flowpathid3dhp": null, "streamlevel": 1, "startflag": 0, "terminalflag": 0, "streamorder": 2, "streamcalculator": 2, "hydrosequence": 13084643, "dnhydrosequence": 13074636, "uphydrosequence": 13094613, "dnlevelpath": 101, "uplevelpath": 101, "pathlength": 325.57627599, "arbolatesum": 13.12390167, "divergence": 0, "divergencelabel": "No divergence", "rtrndivergence": 0, "levelpath": 101, "terminalpath": 101, "workunitid": "NHD", "Shape__Length": 263.0897346082912}}, {"type": "Feature", "id": 26012099, "geometry": {"type": "LineString", "coordinates": [[-81.4425299109239, 28.359348172500916], [-81.44336963808519, 28.358334720079824], [-81.44356243810472, 28.35815318590078], [-81.44366190496288, 28.35803758587165], [-81.44396043848798, 28.357580920493938], [-81.44407230569031, 28.357300320273474], [-81.44422170540354, 28.357140586110333], [-81.44449959115184, 28.356866081240913]]}, "properties": {"OBJECTID": 26012099, "id3dhp": "G9IW4", "featuredate": 1694649600000, "mainstemid": "https://geoconnex.us/ref/mainstems/2510223", "gnisid": 291054, "gnisidlabel": "Shingle Creek", "featuretype": 4, "featuretypelabel": "Surface Connector", "lengthkm": 0.33791511, "waterbodyid3dhp": null, "flowdirection": 1, "flowdirectionlabel": "Flow direction is in digitized direction, and z-values on vertices flow downslope", "onsurface": 1, "onsurfacelabel": "Feature is on the land surface", "catchmentid3dhp": "", "flowpathid3dhp": null, "streamlevel": 1, "startflag": 0, "terminalflag": 0, "streamorder": 2, "streamcalculator": 2, "hydrosequence": 13054658, "dnhydrosequence": 13044606, "uphydrosequence": 13064657, "dnlevelpath": 101, "uplevelpath": 101, "pathlength": 323.64832624, "arbolatesum": 15.05185142, "divergence": 0, "divergencelabel": "No divergence", "rtrndivergence": 0, "levelpath": 101, "terminalpath": 101, "workunitid": "NHD", "Shape__Length": 385.37493648151553}}, {"type": "Feature", "id": 27781642, "geometry": {"type": "LineString", "coordinates": [[-81.43762203723433, 28.374149524239666], [-81.43760330376739, 28.373995524464256], [-81.43760330376739, 28.37386892435516], [-81.43758898282515, 28.37379012416232]]}, "properties": {"OBJECTID": 27781642, "id3dhp": "HBUL", "featuredate": 1694649600000, "mainstemid": "https://geoconnex.us/ref/mainstems/2510223", "gnisid": 291054, "gnisidlabel": "Shingle Creek", "featuretype": 1, "featuretypelabel": "Channel Line", "lengthkm": 0.03993851, "waterbodyid3dhp": null, "flowdirection": 1, "flowdirectionlabel": "Flow direction is in digitized direction, and z-values on vertices flow downslope", "onsurface": 1, "onsurfacelabel": "Feature is on the land surface", "catchmentid3dhp": "", "flowpathid3dhp": null, "streamlevel": 1, "startflag": 0, "terminalflag": 0, "streamorder": 2, "streamcalculator": 2, "hydrosequence": 13094613, "dnhydrosequence": 13084643, "uphydrosequence": 13104455, "dnlevelpath": 101, "uplevelpath": 101, "pathlength": 325.80615499000004, "arbolatesum": 12.89402267, "divergence": 0, "divergencelabel": "No divergence", "rtrndivergence": 0, "levelpath": 101, "terminalpath": 101, "workunitid": "NHD", "Shape__Length": 45.70883978544015}}]}