{"type": "FeatureCollection", "features": [{"type": "Feature", "id": 975229, "geometry": {"type": "Polygon", "coordinates": [[[-81.4349468354536, 28.363749522105728], [-81.43477883612243, 28.363821122237887], [-81.43466690244476, 28.363986187554627], [-81.43441810234873, 28.363997187736828], [-81.43403230288365, 28.363832121646716], [-81.43327343487772, 28.3633753879232], [-81.43309923537446, 28.36333678745514], [-81.43274463529752, 28.36361192219745], [-81.43274463529752, 28.3637549882189], [-81.43311790236605, 28.36401372199816], [-81.43344763527931, 28.36429978794654], [-81.43372130253904, 28.364657522252685], [-81.43392043568133, 28.36477312218607], [-81.43399503537579, 28.36475098839296], [-81.4351957029233, 28.363821122237887], [-81.43515210319096, 28.363749587714896], [-81.4349468354536, 28.363749522105728]]]}, "properties": {"OBJECTID": 975229, "id3dhp": "IOMRB", "featuredate": 1694649600000, "mainstemid": null, "gnisid": null, "gnisidlabel": null, "featuretype": 3, "featuretypelabel": "Lake", "areasqkm": 0.015472020000000001, "workunitid": "NHD", "Shape__Length": 719.1399742826609, "Shape__Area": 20055.68559339558}}, {"type": "Feature", "id": 1002953, "geometry": {"type": "Polygon", "coordinates": [[[-81.43754090319449, 28.359864721009075], [-81.43725470353823, 28.35985918671242], [-81.4368379032127, 28.35999132122677], [-81.436072835933, 28.360624120845447], [-81.43568090277117, 28.3611743214702], [-81.43546943576003, 28.36144952110514], [-81.43486603558706, 28.36175212146449], [-81.43405730209969, 28.36165852146219], [-81.43369643537534, 28.36153198726261], [-81.43332323568043, 28.361559521552394], [-81.43322370234698, 28.361944721817554], [-81.4334165023665, 28.36210972128059], [-81.43472283604594, 28.36285812135542], [-81.4350837027703, 28.36285818775563], [-81.43614130282901, 28.36212632144617], [-81.43788930399766, 28.360717587375884], [-81.43873523672093, 28.360161786862808], [-81.4398487039055, 28.35940798681298], [-81.44042103764099, 28.35920438671251], [-81.44096223756539, 28.358697986714972], [-81.44132290486375, 28.357421520352087], [-81.44101803731758, 28.357245386237135], [-81.4407320370873, 28.357157386264344], [-81.4405142369534, 28.356931786345843], [-81.44036490371552, 28.356452986221214], [-81.44016583704855, 28.3563925196406], [-81.43947530388628, 28.35639798613269], [-81.43944430392415, 28.356546519666516], [-81.43959983733413, 28.357223386053146], [-81.43958743698994, 28.35837892077263], [-81.43936970422969, 28.35888518632492], [-81.4384304365484, 28.359666586527442], [-81.43754090319449, 28.359864721009075]]]}, "properties": {"OBJECTID": 1002953, "id3dhp": "IPJSL", "featuredate": 1694649600000, "mainstemid": null, "gnisid": null, "gnisidlabel": null, "featuretype": 3, "featuretypelabel": "Lake", "areasqkm": 0.11495363, "workunitid": "NHD", "Shape__Length": 2721.5344037540485, "Shape__Area": 148997.82819163916}}, {"type": "Feature", "id": 1007817, "geometry": {"type": "Polygon", "coordinates": [[[-81.42982915124627, 28.360900487884354], [-81.42977862011323, 28.360961481527237], [-81.4297729930663, 28.361043074570198], [-81.42988553400508, 28.361175311165056], [-81.42995868831025, 28.361209074615342], [-81.43011624742118, 28.361076837272087], [-81.43001512586629, 28.360923551309767], [-81.42982915124627, 28.360900487884354]]]}, "properties": {"OBJECTID": 1007817, "id3dhp": "IPPC0", "featuredate": 1694649600000, "mainstemid": null, "gnisid": null, "gnisidlabel": null, "featuretype": 3, "featuretypelabel": "Lake", "areasqkm": 0.00074627, "workunitid": "NHD", "Shape__Length": 117.55136867445725, "Shape__Area": 967.3062856282406}}, {"type": "Feature", "id": 1007818, "geometry": {"type": "Polygon", "coordinates": [[[-81.44254170580359, 28.35894906885043], [-81.44257709852747, 28.358854688516047], [-81.44243552853024, 28.35881255520161], [-81.44220969296616, 28.358790646250917], [-81.44206306814884, 28.35875525358255], [-81.44195014901932, 28.35865076166422], [-81.44193498006743, 28.358551326539686], [-81.44192149725332, 28.35848896867072], [-81.4418220618362, 28.358448520581458], [-81.44163835815723, 28.3589625517485], [-81.4416282467204, 28.35900974029722], [-81.44165858282754, 28.35910243592432], [-81.44177824291495, 28.359188387664908], [-81.44190633009805, 28.359198500606333], [-81.44254170580359, 28.35894906885043]]]}, "properties": {"OBJECTID": 1007818, "id3dhp": "IPPC1", "featuredate": 1694649600000, "mainstemid": null, "gnisid": null, "gnisidlabel": null, "featuretype": 3, "featuretypelabel": "Lake", "areasqkm": 0.00371631, "workunitid": "NHD", "Shape__Length": 317.98458302217625, "Shape__Area": 4816.835737236498}}, {"type": "Feature", "id": 1008884, "geometry": {"type": "Polygon", "coordinates": [[[-81.43656423595299, 28.363892721531258], [-81.43591730342133, 28.364574988172333], [-81.43545690336352, 28.36497672188019], [-81.43517070280893, 28.36526278839458], [-81.43504630321006, 28.365334321897553], [-81.43504010303798, 28.365383922467945], [-81.43507743612287, 28.365471921943946], [-81.43558130296236, 28.365846122247714], [-81.43569330311536, 28.36594512211115], [-81.4359172360477, 28.365989122020807], [-81.4361537031732, 28.366066188217], [-81.43627190349828, 28.366049722254534], [-81.43629670328833, 28.365934122130863], [-81.43635903648757, 28.36575812229155], [-81.43702463601082, 28.364343922127418], [-81.43732323690958, 28.36365052177498], [-81.43732323690958, 28.363595521463463], [-81.43726103666098, 28.36347992182826], [-81.43713650321314, 28.36346892159249], [-81.43698730382424, 28.36350198790577], [-81.43656423595299, 28.363892721531258]]]}, "properties": {"OBJECTID": 1008884, "id3dhp": "IPQFA", "featuredate": 1694649600000, "mainstemid": null, "gnisid": null, "gnisidlabel": null, "featuretype": 3, "featuretypelabel": "Lake", "areasqkm": 0.02637857, "workunitid": "NHD", "Shape__Length": 873.6746442632469, "Shape__Area": 34193.922245947026}}, {"type": "Feature", "id": 1009566, "geometry": {"type": "Polygon", "coordinates": [[[-81.43230930182938, 28.358010320233753], [-81.4323156349521, 28.357894720839575], [-81.4324027014661, 28.357751586839555], [-81.43253330213535, 28.357459986211634], [-81.43253330213535, 28.357355520686472], [-81.43245243489517, 28.357267520014467], [-81.43234043474217, 28.357201386655113], [-81.43204190211537, 28.357091320030737], [-81.43191743514288, 28.357091320030737], [-81.43185530136961, 28.3571573206511], [-81.43187390188588, 28.35722332043993], [-81.43196723504728, 28.35733898617841], [-81.43193623508515, 28.35753152023058], [-81.43184903472219, 28.35770758667684], [-81.43183663437802, 28.357768120492814], [-81.4318926344545, 28.3579827202011], [-81.43206050173333, 28.358367986411157], [-81.43227823449358, 28.3586375206226], [-81.43234663491427, 28.358632120648682], [-81.43258930221185, 28.358499986813893], [-81.4326141020019, 28.358362386423988], [-81.43247730205886, 28.35823032023756], [-81.43230930182938, 28.358010320233753]]]}, "properties": {"OBJECTID": 1009566, "id3dhp": "IPRV0", "featuredate": 1694649600000, "mainstemid": null, "gnisid": null, "gnisidlabel": null, "featuretype": 3, "featuretypelabel": "Lake", "areasqkm": 0.007942290000000001, "workunitid": "NHD", "Shape__Length": 496.3772620381102, "Shape__Area": 10294.054257334443}}, {"type": "Feature", "id": 1841098, "geometry": {"type": "Polygon", "coordinates": [[[-81.43497033717807, 28.3734719730346], [-81.43501893872988, 28.37346850239034], [-81.43512308581066, 28.373399068931292], [-81.43526195008222, 28.37337129822233], [-81.43536262607275, 28.373388655410277], [-81.43542164359029, 28.37337129822233], [-81.4354910743786, 28.37328797893815], [-81.43548413129976, 28.373211604846162], [-81.43543552884964, 28.373124814781104], [-81.43535221010704, 28.37304496833274], [-81.43523764885715, 28.373031081747193], [-81.43512308581066, 28.3731005138663], [-81.43507101227027, 28.373110928996397], [-81.43496339409924, 28.373138702144768], [-81.4348453599625, 28.373135229908808], [-81.43452944673157, 28.37302761108856], [-81.43440099752742, 28.373013725291155], [-81.43374834182909, 28.373159530815634], [-81.43357823415195, 28.373256735177712], [-81.43354004676921, 28.373336581466667], [-81.43353657478063, 28.3734233713585], [-81.43361642153467, 28.373492803220863], [-81.43497033717807, 28.3734719730346]]]}, "properties": {"OBJECTID": 1841098, "id3dhp": "JALGA", "featuredate": 1694649600000, "mainstemid": null, "gnisid": null, "gnisidlabel": null, "featuretype": 3, "featuretypelabel": "Lake", "areasqkm": 0.00758065, "workunitid": "NHD", "Shape__Length": 497.6689893607997, "Shape__Area": 9828.149204425099}}, {"type": "Feature", "id": 1950206, "geometry": {"type": "Polygon", "coordinates": [[[-81.43432115167168, 28.37541605738669], [-81.43439752733546, 28.375377869928094], [-81.43443571292157, 28.37525289255091], [-81.4344739012026, 28.374853661393974], [-81.43442529875247, 28.374721741402468], [-81.43434198090819, 28.374648838158063], [-81.43420311933156, 28.374593292644832], [-81.43213058469854, 28.374621065405083], [-81.43186327301943, 28.374756457704787], [-81.43180772838879, 28.37492309232017], [-81.43182508563672, 28.37508278549104], [-81.43187368718851, 28.375363983647933], [-81.43199172222361, 28.375436886400802], [-81.43432115167168, 28.37541605738669]]]}, "properties": {"OBJECTID": 1950206, "id3dhp": "JDAGS", "featuredate": 1694649600000, "mainstemid": null, "gnisid": null, "gnisidlabel": null, "featuretype": 3, "featuretypelabel": "Lake", "areasqkm": 0.022718930000000002, "workunitid": "NHD", "Shape__Length": 743.155688229196, "Shape__Area": 29455.55756261094}}, {"type": "Feature", "id": 2271451, "geometry": {"type": "Polygon", "coordinates": [[[-81.43623450303974, 28.36736478899655], [-81.43631543675527, 28.368019588447062], [-81.43640250326922, 28.36806912294624], [-81.4365020366027, 28.36806358907742], [-81.43654563633503, 28.368041723139314], [-81.43642730305929, 28.366676922562927], [-81.43639003644971, 28.366632922148007], [-81.43621583604813, 28.36656138872994], [-81.43614743652577, 28.366555922761282], [-81.43614123635368, 28.366599922417677], [-81.43614743652577, 28.36667698817029], [-81.43623450303974, 28.36736478899655]]]}, "properties": {"OBJECTID": 2271451, "id3dhp": "JL87S", "featuredate": 1694649600000, "mainstemid": null, "gnisid": null, "gnisidlabel": null, "featuretype": 3, "featuretypelabel": "Lake", "areasqkm": 0.004, "workunitid": "NHD", "Shape__Length": 423.6451341098136, "Shape__Area": 5237.244662203349}}, {"type": "Feature", "id": 2278215, "geometry": {"type": "Polygon", "coordinates": [[[-81.43045210594637, 28.373298403534672], [-81.43068250944368, 28.372790051307213], [-81.42912088354367, 28.372310956766995], [-81.4289599665302, 28.372299985901364], [-81.428751505282, 28.372446273764773], [-81.428586931227, 28.373192343551842], [-81.42822486794668, 28.373203315115603], [-81.4281663534857, 28.373422748523414], [-81.42831264143477, 28.37344103442262], [-81.42856133103803, 28.373433719272928], [-81.42891607933699, 28.373342288948557], [-81.42940248831725, 28.373331317399185], [-81.4302619317024, 28.373349604104583], [-81.43045210594637, 28.373298403534672]]]}, "properties": {"OBJECTID": 2278215, "id3dhp": "JLEIK", "featuredate": 1694649600000, "mainstemid": null, "gnisid": null, "gnisidlabel": null, "featuretype": 3, "featuretypelabel": "Lake", "areasqkm": 0.018706590000000002, "workunitid": "NHD", "Shape__Length": 723.2931607096558, "Shape__Area": 24252.59657618303}}, {"type": "Feature", "id": 2825550, "geometry": {"type": "Polygon", "coordinates": [[[-81.42739102475049, 28.375137977444947], [-81.42751171430723, 28.375057518380643], [-81.42792863410868, 28.374889286600414], [-81.42795057815444, 28.374827114588573], [-81.42803469460102, 28.374768599674134], [-81.42809686610353, 28.374702769665195], [-81.42812978037553, 28.3746552268861], [-81.42822486794668, 28.37462962533855], [-81.42830898349493, 28.374640597544044], [-81.42841138514912, 28.374625967409543], [-81.42844064327792, 28.374614997573726], [-81.42885025079296, 28.37431876257323], [-81.42893436634122, 28.37430779191524], [-81.42912088354367, 28.374428479365815], [-81.42924157130378, 28.37433704989881], [-81.42929277258003, 28.374212704400975], [-81.4292305992809, 28.37411395964517], [-81.42861253141596, 28.374139560526807], [-81.42841138514912, 28.374285848224698], [-81.42796886426038, 28.37456013889287], [-81.42765434431648, 28.374699112529076], [-81.42727033788871, 28.374827114588573], [-81.42715330717013, 28.374830772510656], [-81.42700701922105, 28.37459671029607], [-81.42695947498632, 28.374607682504962], [-81.42688998850248, 28.37467351178249], [-81.42687535853973, 28.374801513872885], [-81.42687901647959, 28.374940487983263], [-81.42690095962702, 28.37504654779905], [-81.42700336128122, 28.375119691047846], [-81.42726667994887, 28.375167234409133], [-81.42739102475049, 28.375137977444947]]]}, "properties": {"OBJECTID": 2825550, "id3dhp": "JYXUT", "featuredate": 1694649600000, "mainstemid": null, "gnisid": null, "gnisidlabel": null, "featuretype": 3, "featuretypelabel": "Lake", "areasqkm": 0.00784099, "workunitid": "NHD", "Shape__Length": 697.7789535046008, "Shape__Area": 10165.959488680759}}, {"type": "Feature", "id": 3044147, "geometry": {"type": "Polygon", "coordinates": [[[-81.43067085739614, 28.3716467976453], [-81.43072294171631, 28.37161424605786], [-81.43076634381926, 28.371533951888715], [-81.43082059577422, 28.371401574861235], [-81.43088570027614, 28.371288728843844], [-81.43091825073043, 28.371197583591993], [-81.43088570027614, 28.37114116048982], [-81.43077936489931, 28.371050015901623], [-81.43087267919607, 28.370665905479502], [-81.43092042195849, 28.370559570960022], [-81.43102241667584, 28.370444553548115], [-81.43101373625525, 28.37035774936301], [-81.43080757559248, 28.370225372448807], [-81.43069473012481, 28.370199330356506], [-81.43056669234906, 28.37029915689315], [-81.43043431571049, 28.370459745458838], [-81.43022381438827, 28.370563909581875], [-81.43010011906858, 28.370720158341154], [-81.42999161156541, 28.370891597928775], [-81.42979630165297, 28.371080397966676], [-81.42972034819738, 28.371193242624823], [-81.42966175468466, 28.37133213056442], [-81.42957712080847, 28.37141025519755], [-81.42957712080847, 28.37149706010234], [-81.42963788375262, 28.371533951888715], [-81.42978545180097, 28.371573012557352], [-81.42988310675719, 28.3715860338309], [-81.42997642195228, 28.371668499224985], [-81.43014786093268, 28.371735772829123], [-81.430293257753, 28.371746622819995], [-81.43045384688136, 28.371692368902426], [-81.43067085739614, 28.3716467976453]]]}, "properties": {"OBJECTID": 3044147, "id3dhp": "K4CFX", "featuredate": 1694649600000, "mainstemid": null, "gnisid": null, "gnisidlabel": null, "featuretype": 3, "featuretypelabel": "Lake", "areasqkm": 0.01373651, "workunitid": "NHD", "Shape__Length": 568.261017991409, "Shape__Area": 17808.38424313334}}, {"type": "Feature", "id": 3262337, "geometry": {"type": "Polygon", "coordinates": [[[-81.42710706639087, 28.360564465317854], [-81.4273575005224, 28.36057978749383], [-81.42766243364561, 28.360684387391967], [-81.42802323389462, 28.360838521108807], [-81.42832790111649, 28.361020121049155], [-81.42845863383812, 28.361031121538776], [-81.42865143385765, 28.36094852139881], [-81.42869503358996, 28.360816387285595], [-81.42866390067717, 28.360755987220482], [-81.4275333996382, 28.36054507445789], [-81.42710855130603, 28.36051693833753], [-81.42710706639087, 28.360564465317854]]]}, "properties": {"OBJECTID": 3262337, "id3dhp": "K9QM4", "featuredate": 1694649600000, "mainstemid": null, "gnisid": null, "gnisidlabel": null, "featuretype": 3, "featuretypelabel": "Lake", "areasqkm": 0.0029440800000000004, "workunitid": "NHD", "Shape__Length": 396.3613070603982, "Shape__Area": 3816.0601905499466}}, {"type": "Feature", "id": 3262394, "geometry": {"type": "Polygon", "coordinates": [[[-81.43391023081969, 28.371157130861288], [-81.43399584385955, 28.37111432425318], [-81.43403864948114, 28.37100588134826], [-81.43403008763816, 28.370891731509563], [-81.433941621549, 28.370788996786807], [-81.43383603267218, 28.370740482408586], [-81.43335945575271, 28.37065487041971], [-81.43321391340533, 28.3706634306732], [-81.43286860909492, 28.370980198297367], [-81.43280297368871, 28.371142861466875], [-81.43284863235965, 28.371259866017976], [-81.4329713449224, 28.371328355540214], [-81.43321105945765, 28.371302672567367], [-81.43391023081969, 28.371157130861288]]]}, "properties": {"OBJECTID": 3262394, "id3dhp": "K9QNX", "featuredate": 1694649600000, "mainstemid": null, "gnisid": null, "gnisidlabel": null, "featuretype": 3, "featuretypelabel": "Lake", "areasqkm": 0.00637066, "workunitid": "NHD", "Shape__Length": 355.96836705411084, "Shape__Area": 8259.081547574799}}, {"type": "Feature", "id": 3371999, "geometry": {"type": "Polygon", "coordinates": [[[-81.42723119290189, 28.373444618094933], [-81.42724893462875, 28.373329290021765], [-81.42722232114014, 28.37318439132126], [-81.42676396564788, 28.37322283407878], [-81.42669890875669, 28.373107506554895], [-81.42631152466346, 28.373151863127294], [-81.42612522575163, 28.373163691490745], [-81.4261370547673, 28.373335205379366], [-81.42634700991383, 28.3734061762082], [-81.42679353818706, 28.37341504844768], [-81.42723119290189, 28.373444618094933]]]}, "properties": {"OBJECTID": 3371999, "id3dhp": "KCGCJ", "featuredate": 1694649600000, "mainstemid": null, "gnisid": null, "gnisidlabel": null, "featuretype": 3, "featuretypelabel": "Lake", "areasqkm": 0.0029175700000000004, "workunitid": "NHD", "Shape__Length": 310.47852668123227, "Shape__Area": 3782.5698268667993}}, {"type": "Feature", "id": 3809546, "geometry": {"type": "Polygon", "coordinates": [[[-81.42920341356545, 28.36444598645089], [-81.42923390328451, 28.36442747529927], [-81.429238258317, 28.36440243014392], [-81.42922192514852, 28.36435124976085], [-81.42915223295046, 28.364266313209832], [-81.4290781857199, 28.36421840134813], [-81.42900849531846, 28.36421731208265], [-81.42878744328326, 28.36434580502098], [-81.42875150797693, 28.364411141090542], [-81.42876566362918, 28.36450805546174], [-81.42881684424418, 28.364585370149282], [-81.4288702014771, 28.36459190334809], [-81.42920341356545, 28.36444598645089]]]}, "properties": {"OBJECTID": 3809546, "id3dhp": "KN9QC", "featuredate": 1694649600000, "mainstemid": null, "gnisid": null, "gnisidlabel": null, "featuretype": 3, "featuretypelabel": "Lake", "areasqkm": 0.0012742900000000002, "workunitid": "NHD", "Shape__Length": 155.0819826941892, "Shape__Area": 1651.8218517409705}}, {"type": "Feature", "id": 3918906, "geometry": {"type": "Polygon", "coordinates": [[[-81.43858590348304, 28.35830738653421], [-81.43810690380725, 28.358433986237785], [-81.43808203664356, 28.358499986813893], [-81.43809450346308, 28.358571586534893], [-81.43818783662445, 28.358747720820887], [-81.43836190407536, 28.358846720191288], [-81.4384304365484, 28.358841186632088], [-81.43853623652932, 28.358786186199875], [-81.43880370361694, 28.358323986503944], [-81.4387725033305, 28.3582909201585], [-81.43867923664445, 28.358279986578488], [-81.43858590348304, 28.35830738653421]]]}, "properties": {"OBJECTID": 3918906, "id3dhp": "KPYWP", "featuredate": 1694649600000, "mainstemid": null, "gnisid": null, "gnisidlabel": null, "featuretype": 3, "featuretypelabel": "Lake", "areasqkm": 0.0026793700000000004, "workunitid": "NHD", "Shape__Length": 235.1075255723458, "Shape__Area": 3472.7966928118417}}, {"type": "Feature", "id": 4028206, "geometry": {"type": "Polygon", "coordinates": [[[-81.43503460984002, 28.370860339235044], [-81.43507741725826, 28.370903146736058], [-81.43515732240277, 28.370848925584767], [-81.43522866570432, 28.370746189239735], [-81.4353256945348, 28.370612063608938], [-81.43543128251329, 28.37054642783562], [-81.43582510123889, 28.370475083595444], [-81.43584793012522, 28.370349517110327], [-81.43589644543876, 28.370312418611658], [-81.43594781200501, 28.370203976467963], [-81.43592783526972, 28.369910039565532], [-81.43586219986351, 28.369847256007194], [-81.43580227145428, 28.36983013457739], [-81.43554543233475, 28.370109802167825], [-81.43545125835026, 28.37017829243252], [-81.43528288711656, 28.370144047305715], [-81.43390166987504, 28.369313604536867], [-81.43380178799524, 28.369310751082807], [-81.43371617495539, 28.36936497222975], [-81.43315113104842, 28.369935723665932], [-81.43304554217161, 28.370058434045124], [-81.43310832542682, 28.370181146653664], [-81.43322818224527, 28.37021539018765], [-81.433390846482, 28.37011265639084], [-81.43370761401074, 28.370044165293386], [-81.43381890988455, 28.369992798719704], [-81.43386742340147, 28.369852964467206], [-81.43388740103505, 28.369770205203952], [-81.4340215266935, 28.369784473992546], [-81.43420131281952, 28.369864379015073], [-81.43441819846846, 28.36998138339525], [-81.43471213621258, 28.370206830688435], [-81.43488050744628, 28.37040659273193], [-81.43498609722143, 28.37065201542089], [-81.43503460984002, 28.370860339235044]]]}, "properties": {"OBJECTID": 4028206, "id3dhp": "KSOBG", "featuredate": 1694649600000, "mainstemid": null, "gnisid": null, "gnisidlabel": null, "featuretype": 3, "featuretypelabel": "Lake", "areasqkm": 0.015034810000000001, "workunitid": "NHD", "Shape__Length": 942.3667458182483, "Shape__Area": 19491.185492160756}}, {"type": "Feature", "id": 4028284, "geometry": {"type": "Polygon", "coordinates": [[[-81.4228336323623, 28.373334524844555], [-81.42328769929738, 28.37305392438509], [-81.42335623266872, 28.373004390632367], [-81.4233686330129, 28.37296592408361], [-81.42332509975593, 28.372943923996832], [-81.42277143301203, 28.37296592408361], [-81.42256609969765, 28.37305392438509], [-81.42242289925821, 28.373169390287522], [-81.42238563264864, 28.37327952481014], [-81.4224166990861, 28.373422590443447], [-81.4225038320754, 28.373505124755447], [-81.42260343278254, 28.373505124755447], [-81.4228336323623, 28.373334524844555]]]}, "properties": {"OBJECTID": 4028284, "id3dhp": "KSOE6", "featuredate": 1694649600000, "mainstemid": null, "gnisid": null, "gnisidlabel": null, "featuretype": 3, "featuretypelabel": "Lake", "areasqkm": 0.0031374000000000003, "workunitid": "NHD", "Shape__Length": 282.8422858324404, "Shape__Area": 4067.579911991564}}, {"type": "Feature", "id": 4137795, "geometry": {"type": "Polygon", "coordinates": [[[-81.43465443562525, 28.36065158738814], [-81.43490330309494, 28.360436986751555], [-81.43491583549147, 28.36037092097811], [-81.43455503524244, 28.35985918671242], [-81.43454250284591, 28.35979872128153], [-81.43447410242523, 28.35974358696019], [-81.43443683581567, 28.35972718720944], [-81.43404490265384, 28.36004078674736], [-81.43399510274942, 28.36011778690864], [-81.43405110282592, 28.360354521324275], [-81.43414443508898, 28.360536121302218], [-81.43433103583476, 28.36066258712547], [-81.43445543543362, 28.360695587121022], [-81.43456110246386, 28.360695587121022], [-81.43465443562525, 28.36065158738814]]]}, "properties": {"OBJECTID": 4137795, "id3dhp": "KVDSJ", "featuredate": 1694649600000, "mainstemid": null, "gnisid": null, "gnisidlabel": null, "featuretype": 3, "featuretypelabel": "Lake", "areasqkm": 0.00603697, "workunitid": "NHD", "Shape__Length": 336.3948640908795, "Shape__Area": 7824.906914671773}}, {"type": "Feature", "id": 4683514, "geometry": {"type": "Polygon", "coordinates": [[[-81.43036749632469, 28.366926291101667], [-81.43036081735055, 28.36677934745882], [-81.43033076061946, 28.36663574247514], [-81.43039087497995, 28.36647543979846], [-81.43034411946606, 28.366422005255615], [-81.43026062824691, 28.366482119904873], [-81.42998009875673, 28.366605685593512], [-81.42976302266497, 28.366806063853193], [-81.42955930452145, 28.36711998948056], [-81.4293155107365, 28.367500709087913], [-81.42922868047944, 28.36784469078026], [-81.42920864355703, 28.368195353727376], [-81.4293322095193, 28.3685393363296], [-81.42948583221268, 28.368622826915427], [-81.4296594945234, 28.368606128961595], [-81.42975300375458, 28.368462524869322], [-81.42977638061323, 28.36789144696075], [-81.42984651388409, 28.36751740721571], [-81.43004355125683, 28.367233537895526], [-81.43036749632469, 28.366926291101667]]]}, "properties": {"OBJECTID": 4683514, "id3dhp": "L8W17", "featuredate": 1694649600000, "mainstemid": null, "gnisid": null, "gnisidlabel": null, "featuretype": 3, "featuretypelabel": "Lake", "areasqkm": 0.01207924, "workunitid": "NHD", "Shape__Length": 660.4181004964937, "Shape__Area": 15658.82571055834}}, {"type": "Feature", "id": 4902252, "geometry": {"type": "Polygon", "coordinates": [[[-81.43084342735548, 28.374702769665195], [-81.4309202288207, 28.374388250757807], [-81.43104091658081, 28.374157845512084], [-81.43127497801797, 28.373960357387265], [-81.43162241223388, 28.373828698696556], [-81.43170287163895, 28.373762867313975], [-81.43170652778214, 28.37367143727327], [-81.4316260692754, 28.373609265338064], [-81.43083611417076, 28.373612923302133], [-81.43028021780832, 28.374578425386442], [-81.4303058188956, 28.37469179825652], [-81.43048136497347, 28.374764941749923], [-81.43068982532337, 28.3747576274819], [-81.43084342735548, 28.374702769665195]]]}, "properties": {"OBJECTID": 4902252, "id3dhp": "LEAWS", "featuredate": 1694649600000, "mainstemid": null, "gnisid": null, "gnisidlabel": null, "featuretype": 3, "featuretypelabel": "Lake", "areasqkm": 0.007957470000000001, "workunitid": "NHD", "Shape__Length": 489.5325467804787, "Shape__Area": 10316.870101784192}}, {"type": "Feature", "id": 5230126, "geometry": {"type": "Polygon", "coordinates": [[[-81.43175010685322, 28.366675817513656], [-81.4318402770465, 28.36668917770085], [-81.43193044723976, 28.366615704554988], [-81.43208073089521, 28.36647543979846], [-81.43210744769009, 28.366341854181293], [-81.43194380608635, 28.36616151384519], [-81.43183359807233, 28.366108080725144], [-81.4316532567875, 28.36616151384519], [-81.43151967191484, 28.366174873306683], [-81.43101872549835, 28.36621494851921], [-81.43078161158583, 28.366248345176835], [-81.4307114801116, 28.366335175646974], [-81.43076825363757, 28.36647543979846], [-81.43071815908573, 28.366669139000315], [-81.43075823382888, 28.36672925271916], [-81.43081166831692, 28.36672257341875], [-81.43096529280692, 28.366679157955836], [-81.43119238691075, 28.366645761433805], [-81.43142616178534, 28.36664910187694], [-81.43175010685322, 28.366675817513656]]]}, "properties": {"OBJECTID": 5230126, "id3dhp": "LMEW1", "featuredate": 1694649600000, "mainstemid": null, "gnisid": null, "gnisidlabel": null, "featuretype": 3, "featuretypelabel": "Lake", "areasqkm": 0.00676438, "workunitid": "NHD", "Shape__Length": 405.5935438076503, "Shape__Area": 8768.7643286808}}, {"type": "Feature", "id": 5339889, "geometry": {"type": "Polygon", "coordinates": [[[-81.42230349968222, 28.375290190870345], [-81.42225989994989, 28.37537272531006], [-81.42202343282439, 28.375554191304186], [-81.42178083200214, 28.37568619087949], [-81.42137643202079, 28.375658725066785], [-81.420940831753, 28.375642191039315], [-81.42007609908745, 28.375697125037284], [-81.41860783150166, 28.375757390927124], [-81.41827803121477, 28.3757793912208], [-81.41814109832107, 28.375823391004086], [-81.41809129841666, 28.375944391301957], [-81.41814103094742, 28.376021390988534], [-81.41825309847405, 28.376059991584338], [-81.42278243288268, 28.376038524855627], [-81.42283223278707, 28.37599999143436], [-81.42282609998864, 28.375510324984187], [-81.4227886995301, 28.37538372510216], [-81.42273283240426, 28.37529572515261], [-81.42267683232777, 28.37517459053943], [-81.4226146329775, 28.375141591094614], [-81.42252123244246, 28.375141591094614], [-81.42239063267151, 28.37520212524112], [-81.42230349968222, 28.375290190870345]]]}, "properties": {"OBJECTID": 5339889, "id3dhp": "LP4M3", "featuredate": 1694649600000, "mainstemid": null, "gnisid": null, "gnisidlabel": null, "featuretype": 3, "featuretypelabel": "Lake", "areasqkm": 0.02134015, "workunitid": "NHD", "Shape__Length": 1195.0377753942796, "Shape__Area": 27667.42013780322}}, {"type": "Feature", "id": 5668671, "geometry": {"type": "Polygon", "coordinates": [[[-81.43509610311447, 28.366313788367084], [-81.43533250286633, 28.366313788367084], [-81.43550663589427, 28.366302788425067], [-81.4355067032679, 28.3662863224993], [-81.43493430305706, 28.3657965226838], [-81.43485970246431, 28.365790988696464], [-81.43350350240515, 28.367045588647798], [-81.43350970257723, 28.36712818878505], [-81.43368390297881, 28.36722718903327], [-81.43373370288322, 28.36722172230848], [-81.43378343541399, 28.367194188697326], [-81.43375850267327, 28.36708972247715], [-81.43379590223348, 28.366913588597367], [-81.43389543556697, 28.36677598883946], [-81.43401990253948, 28.36663838890314], [-81.43424383547182, 28.366489788865728], [-81.43459223537667, 28.366379922372357], [-81.43509610311447, 28.366313788367084]]]}, "properties": {"OBJECTID": 5668671, "id3dhp": "LX9ZK", "featuredate": 1694649600000, "mainstemid": null, "gnisid": null, "gnisidlabel": null, "featuretype": 3, "featuretypelabel": "Lake", "areasqkm": 0.00563728, "workunitid": "NHD", "Shape__Length": 617.9742346457225, "Shape__Area": 7307.744037482493}}, {"type": "Feature", "id": 6219051, "geometry": {"type": "Polygon", "coordinates": [[[-81.42750523386077, 28.372635190387257], [-81.4275992335721, 28.372751590213575], [-81.4277174338972, 28.373021324224435], [-81.4277361008888, 28.37304332429517], [-81.42776710085093, 28.37302119064637], [-81.42779210096529, 28.37296079041429], [-81.4278854341267, 28.372613990122655], [-81.42817170115657, 28.371744724249517], [-81.42820283406938, 28.371607123643066], [-81.42814063382079, 28.371623589533517], [-81.42771130109874, 28.372047323706596], [-81.42715130123209, 28.372382924194607], [-81.42713890088791, 28.372404990001527], [-81.4273442342023, 28.37249852440611], [-81.42747483397324, 28.372597524385917], [-81.42750523386077, 28.372635190387257]]]}, "properties": {"OBJECTID": 6219051, "id3dhp": "MAVOG", "featuredate": 1694649600000, "mainstemid": null, "gnisid": null, "gnisidlabel": null, "featuretype": 3, "featuretypelabel": "Lake", "areasqkm": 0.00557321, "workunitid": "NHD", "Shape__Length": 456.3952017217906, "Shape__Area": 7225.434866470497}}, {"type": "Feature", "id": 6768410, "geometry": {"type": "Polygon", "coordinates": [[[-81.42842967215334, 28.3756609578993], [-81.42836384271102, 28.375383009803542], [-81.42812246719082, 28.37545615361069], [-81.42817732461026, 28.37574141571549], [-81.42842967215334, 28.3756609578993]]]}, "properties": {"OBJECTID": 6768410, "id3dhp": "MOHEM", "featuredate": 1694649600000, "mainstemid": null, "gnisid": null, "gnisidlabel": null, "featuretype": 3, "featuretypelabel": "Lake", "areasqkm": 0.0008055100000000001, "workunitid": "NHD", "Shape__Length": 130.82371890672, "Shape__Area": 1044.3722904134556}}, {"type": "Feature", "id": 6878193, "geometry": {"type": "Polygon", "coordinates": [[[-81.42407351227025, 28.375162900717864], [-81.42410065127332, 28.37474224254107], [-81.42320505698619, 28.375135761989938], [-81.42407351227025, 28.375162900717864]]]}, "properties": {"OBJECTID": 6878193, "id3dhp": "MR75B", "featuredate": 1694649600000, "mainstemid": null, "gnisid": null, "gnisidlabel": null, "featuretype": 3, "featuretypelabel": "Lake", "areasqkm": 0.00198825, "workunitid": "NHD", "Shape__Length": 261.48205762768424, "Shape__Area": 2577.817158945802}}, {"type": "Feature", "id": 6988030, "geometry": {"type": "Polygon", "coordinates": [[[-81.43255810192541, 28.359677587157314], [-81.43229063483776, 28.359804121196095], [-81.4321662352389, 28.35993072069558], [-81.43177430207707, 28.360282786840322], [-81.43178050135084, 28.360436986751555], [-81.43250830202099, 28.361361387072467], [-81.43283803493424, 28.361559521552394], [-81.43315523545095, 28.361641987624406], [-81.43322990251906, 28.361333921503935], [-81.43311170219398, 28.360783587322558], [-81.43280070184935, 28.360073721324788], [-81.43262030217397, 28.35975458679159], [-81.43255810192541, 28.359677587157314]]]}, "properties": {"OBJECTID": 6988030, "id3dhp": "MTX2X", "featuredate": 1694649600000, "mainstemid": null, "gnisid": null, "gnisidlabel": null, "featuretype": 3, "featuretypelabel": "Lake", "areasqkm": 0.01711954, "workunitid": "NHD", "Shape__Length": 624.3552346632193, "Shape__Area": 22189.913580565684}}]}