{
"type": "FeatureCollection",
"name": "nhd_waterbodies",
"crs": { "type": "name", "properties": { "name": "urn:ogc:def:crs:OGC:1.3:CRS84" } },
"features": [
{ "type": "Feature", "properties": { "OBJECTID": 982216, "PERMANENT_IDENTIFIER": "112033191", "FDATE": 1373414400000, "RESOLUTION": 2, "GNIS_ID": null, "GNIS_NAME": null, "AREASQKM": 0.00267937, "ELEVATION": null, "REACHCODE": "03090101030344", "FTYPE": 436, "FCODE": 43600, "VISIBILITYFILTER": 5000000, "SHAPE_Length": 235.10754092040241, "SHAPE_Area": 3472.7993486988507, "GLOBALID": "{02112525-4CB5-11E1-BCF4-0021280458E6}" }, "geometry": { "type": "Polygon", "coordinates": [ [ [ -81.438585903231015, 28.358307386407969 ], [ -81.438106903878278, 28.358433986953067 ], [ -81.438082037200303, 28.358499986999433 ], [ -81.438094503836382, 28.35857158719201 ], [ -81.438187836601159, 28.358747720072298 ], [ -81.438361903346888, 28.358846720291702 ], [ -81.438430437068405, 28.358841186962113 ], [ -81.438536237509794, 28.358786186950486 ], [ -81.438803703614468, 28.358323986479352 ], [ -81.438772504247495, 28.358290920020949 ], [ -81.438679237036339, 28.35827998699051 ], [ -81.438585903231015, 28.358307386407969 ] ] ] } },
{ "type": "Feature", "properties": { "OBJECTID": 1464804, "PERMANENT_IDENTIFIER": "112032577", "FDATE": 1373414400000, "RESOLUTION": 2, "GNIS_ID": null, "GNIS_NAME": null, "AREASQKM": 0.00557321, "ELEVATION": null, "REACHCODE": "03090101030081", "FTYPE": 436, "FCODE": 43600, "VISIBILITYFILTER": 5000000, "SHAPE_Length": 456.39506255451028, "SHAPE_Area": 7225.4336916079174, "GLOBALID": "{19C86D23-4CB6-11E1-BCF4-0021280458E6}" }, "geometry": { "type": "Polygon", "coordinates": [ [ [ -81.427505234324471, 28.372635190101462 ], [ -81.427599234071465, 28.372751590926082 ], [ -81.427717434554751, 28.373021324047624 ], [ -81.42773610069149, 28.373043323485096 ], [ -81.427767101316505, 28.373021190379216 ], [ -81.427792101182789, 28.372960790551765 ], [ -81.42788543394758, 28.37261399076182 ], [ -81.428171701458396, 28.371744723549988 ], [ -81.428202834231215, 28.371607123910895 ], [ -81.428140634239227, 28.371623590062939 ], [ -81.427711300607697, 28.37204732365624 ], [ -81.42715130089735, 28.372382923636049 ], [ -81.427138900855454, 28.372404990040497 ], [ -81.427344234602842, 28.37249852363859 ], [ -81.427474834087491, 28.372597523847972 ], [ -81.427505234324471, 28.372635190101462 ] ] ] } },
{ "type": "Feature", "properties": { "OBJECTID": 1705667, "PERMANENT_IDENTIFIER": "112032943", "FDATE": 1373414400000, "RESOLUTION": 2, "GNIS_ID": null, "GNIS_NAME": null, "AREASQKM": 0.01547202, "ELEVATION": null, "REACHCODE": "03090101030232", "FTYPE": 436, "FCODE": 43600, "VISIBILITYFILTER": 5000000, "SHAPE_Length": 719.13979401040217, "SHAPE_Area": 20055.675929134937, "GLOBALID": "{8B6D5A2C-4CB6-11E1-BCF4-0021280458E6}" }, "geometry": { "type": "Polygon", "coordinates": [ [ [ -81.434946835871301, 28.363749521526472 ], [ -81.434778836478458, 28.363821121840317 ], [ -81.434666903130562, 28.363986188127406 ], [ -81.434418103162628, 28.363997188325598 ], [ -81.434032302345784, 28.363832121139978 ], [ -81.43327343580593, 28.363375387835823 ], [ -81.433099235871879, 28.363336788024597 ], [ -81.432744635462569, 28.363611921590827 ], [ -81.432744635462569, 28.363754987760149 ], [ -81.433117902008632, 28.364013721582854 ], [ -81.433447635739981, 28.364299788552472 ], [ -81.433721302385877, 28.364657521340018 ], [ -81.433920435592057, 28.364773121519132 ], [ -81.433995035625927, 28.364750988519251 ], [ -81.43519570243339, 28.363821121840317 ], [ -81.435152103024521, 28.363749588366527 ], [ -81.434946835871301, 28.363749521526472 ] ] ] } },
{ "type": "Feature", "properties": { "OBJECTID": 2067249, "PERMANENT_IDENTIFIER": "112033053", "FDATE": 1373414400000, "RESOLUTION": 2, "GNIS_ID": null, "GNIS_NAME": null, "AREASQKM": 0.01711954, "ELEVATION": null, "REACHCODE": "03090101030281", "FTYPE": 436, "FCODE": 43600, "VISIBILITYFILTER": 5000000, "SHAPE_Length": 624.35508300506194, "SHAPE_Area": 22189.913805524324, "GLOBALID": "{2BEDBA62-4CB7-11E1-BCF4-0021280458E6}" }, "geometry": { "type": "Polygon", "coordinates": [ [ [ -81.43255810208079, 28.359677587249461 ], [ -81.432290634935569, 28.359804120233495 ], [ -81.432166234951609, 28.35993072082475 ], [ -81.431774302268792, 28.360282787665373 ], [ -81.431780501769481, 28.360436987079925 ], [ -81.432508302130699, 28.361361387751984 ], [ -81.432838035862048, 28.361559520568328 ], [ -81.433155235322658, 28.361641987287904 ], [ -81.43322990195071, 28.361333921365645 ], [ -81.433111702507944, 28.360783587686161 ], [ -81.432800702548022, 28.36007372053567 ], [ -81.432620302072777, 28.359754587160531 ], [ -81.43255810208079, 28.359677587249461 ] ] ] } },
{ "type": "Feature", "properties": { "OBJECTID": 2790201, "PERMANENT_IDENTIFIER": "112033099", "FDATE": 1373414400000, "RESOLUTION": 2, "GNIS_ID": null, "GNIS_NAME": null, "AREASQKM": 0.00603697, "ELEVATION": null, "REACHCODE": "03090101030299", "FTYPE": 436, "FCODE": 43600, "VISIBILITYFILTER": 5000000, "SHAPE_Length": 336.39489247459119, "SHAPE_Area": 7824.9137258789342, "GLOBALID": "{6EC8BF13-4CB8-11E1-BCF4-0021280458E6}" }, "geometry": { "type": "Polygon", "coordinates": [ [ [ -81.434654436494498, 28.360651587645258 ], [ -81.434903303056586, 28.360436987079925 ], [ -81.434915836286805, 28.360370920480136 ], [ -81.434555036376821, 28.359859187475791 ], [ -81.434542502106055, 28.359798720638878 ], [ -81.434474102613393, 28.359743587438253 ], [ -81.434436835893536, 28.359727187200953 ], [ -81.4340449021702, 28.360040787391419 ], [ -81.433995102220109, 28.360117787039016 ], [ -81.434051102711408, 28.360354520339754 ], [ -81.434144435476199, 28.360536120323562 ], [ -81.434331035452146, 28.360662587273417 ], [ -81.434455435436107, 28.360695587066722 ], [ -81.434561102689159, 28.360695587066722 ], [ -81.434654436494498, 28.360651587645258 ] ] ] } },
{ "type": "Feature", "properties": { "OBJECTID": 3030992, "PERMANENT_IDENTIFIER": "112033001", "FDATE": 1373414400000, "RESOLUTION": 2, "GNIS_ID": null, "GNIS_NAME": null, "AREASQKM": 0.11495363, "ELEVATION": null, "REACHCODE": "03090101030259", "FTYPE": 436, "FCODE": 43600, "VISIBILITYFILTER": 5000000, "SHAPE_Length": 2721.534475849478, "SHAPE_Area": 148997.83255945912, "GLOBALID": "{D91B7AB5-4CB8-11E1-BCF4-0021280458E6}" }, "geometry": { "type": "Polygon", "coordinates": [ [ [ -81.4375409034092, 28.359864720752302 ], [ -81.437254703533071, 28.359859187475791 ], [ -81.436837903131774, 28.359991320355665 ], [ -81.436072836050684, 28.360624121075233 ], [ -81.435680903367881, 28.361174320982599 ], [ -81.435469436713987, 28.361449520586785 ], [ -81.434866036336743, 28.36175212075258 ], [ -81.434057302212096, 28.36165852091208 ], [ -81.433696435707915, 28.361531987391803 ], [ -81.433323235756021, 28.361559520568328 ], [ -81.433223702450007, 28.361944721502983 ], [ -81.433416501926644, 28.362109721120543 ], [ -81.434722835987159, 28.362858121547106 ], [ -81.435083702491326, 28.362858187472078 ], [ -81.436141303178076, 28.36212632059728 ], [ -81.437889303277302, 28.360717587228407 ], [ -81.438735237527638, 28.360161787597363 ], [ -81.43984870447683, 28.35940798685677 ], [ -81.440421037634906, 28.35920438721902 ], [ -81.440962238020177, 28.358697986892345 ], [ -81.441322904741838, 28.357421519910119 ], [ -81.441018037688423, 28.357245386660683 ], [ -81.440732037594813, 28.357157386770574 ], [ -81.440514237211346, 28.356931786452694 ], [ -81.440364903955256, 28.356452986702735 ], [ -81.440165837343244, 28.35639251975687 ], [ -81.439475303701897, 28.356397986369412 ], [ -81.439444304117416, 28.356546519710584 ], [ -81.43959983687418, 28.357223386694997 ], [ -81.439587436832284, 28.358378919887038 ], [ -81.439369704083532, 28.358885187134014 ], [ -81.438430437068405, 28.359666587519218 ], [ -81.4375409034092, 28.359864720752302 ] ] ] } },
{ "type": "Feature", "properties": { "OBJECTID": 5803653, "PERMANENT_IDENTIFIER": "112032373", "FDATE": 1373414400000, "RESOLUTION": 2, "GNIS_ID": null, "GNIS_NAME": null, "AREASQKM": 0.02134015, "ELEVATION": null, "REACHCODE": "03090101030006", "FTYPE": 436, "FCODE": 43600, "VISIBILITYFILTER": 5000000, "SHAPE_Length": 1195.0375991541728, "SHAPE_Area": 27667.430261191723, "GLOBALID": "{B7680D27-4CBD-11E1-BCF4-0021280458E6}" }, "geometry": { "type": "Polygon", "coordinates": [ [ [ -81.422303499471241, 28.375290191022465 ], [ -81.422259900062372, 28.37537272489001 ], [ -81.422023432501618, 28.375554191141788 ], [ -81.421780833074905, 28.375686190955076 ], [ -81.421376432715491, 28.375658724614535 ], [ -81.420940832989132, 28.375642191340742 ], [ -81.420076099413706, 28.375697124938803 ], [ -81.418607832272698, 28.375757391374322 ], [ -81.418278031947196, 28.375779391159849 ], [ -81.418141098732988, 28.375823391632792 ], [ -81.418091298782898, 28.375944391237113 ], [ -81.41814103213882, 28.376021391246375 ], [ -81.418253098675052, 28.37605999193622 ], [ -81.422782433270356, 28.376038525036272 ], [ -81.422832233220433, 28.375999991170957 ], [ -81.422826099273379, 28.375510324222457 ], [ -81.422788699365199, 28.375383724823237 ], [ -81.422732833102756, 28.375295724409877 ], [ -81.422676832611444, 28.375174591315435 ], [ -81.422614632619471, 28.375141591447235 ], [ -81.422521233260511, 28.375141591447235 ], [ -81.422390632735343, 28.375202124614198 ], [ -81.422303499471241, 28.375290191022465 ] ] ] } },
{ "type": "Feature", "properties": { "OBJECTID": 5924197, "PERMANENT_IDENTIFIER": "112032909", "FDATE": 1373414400000, "RESOLUTION": 2, "GNIS_ID": null, "GNIS_NAME": null, "AREASQKM": 0.02637857, "ELEVATION": null, "REACHCODE": "03090101030216", "FTYPE": 436, "FCODE": 43600, "VISIBILITYFILTER": 5000000, "SHAPE_Length": 873.67478982157945, "SHAPE_Area": 34193.929926183955, "GLOBALID": "{EDB8F966-4CBD-11E1-BCF4-0021280458E6}" }, "geometry": { "type": "Polygon", "coordinates": [ [ [ -81.436564236485879, 28.36389272119024 ], [ -81.43591730329392, 28.364574988292851 ], [ -81.435456903483754, 28.364976721461804 ], [ -81.435170702567092, 28.36526278858236 ], [ -81.435046302583132, 28.365334321951764 ], [ -81.435040103082457, 28.365383922006508 ], [ -81.435077436396469, 28.365471921485387 ], [ -81.435581303467714, 28.365846121948358 ], [ -81.435693303409778, 28.365945121955811 ], [ -81.435917236699751, 28.365989121929484 ], [ -81.436153703219972, 28.366066188678108 ], [ -81.436271903703243, 28.3660497216636 ], [ -81.436296703787036, 28.365934121959548 ], [ -81.43635903696736, 28.365758121864197 ], [ -81.437024636296059, 28.364343921972079 ], [ -81.437323237254617, 28.363650521301981 ], [ -81.437323237254617, 28.363595521035613 ], [ -81.43726103726263, 28.36347992140502 ], [ -81.437136503049786, 28.363468921153217 ], [ -81.436987302982033, 28.363501987829796 ], [ -81.436564236485879, 28.36389272119024 ] ] ] } },
{ "type": "Feature", "properties": { "OBJECTID": 5924201, "PERMANENT_IDENTIFIER": "112033051", "FDATE": 1373414400000, "RESOLUTION": 2, "GNIS_ID": null, "GNIS_NAME": null, "AREASQKM": 0.31189664, "ELEVATION": null, "REACHCODE": null, "FTYPE": 466, "FCODE": 46600, "VISIBILITYFILTER": 5000000, "SHAPE_Length": 3204.6537050150519, "SHAPE_Area": 404254.61423507601, "GLOBALID": "{EDB9674E-4CBD-11E1-BCF4-0021280458E6}" }, "geometry": { "type": "Polygon", "coordinates": [ [ [ -81.428663901023569, 28.36075598746643 ], [ -81.430103042581578, 28.360934453438748 ], [ -81.430308794623571, 28.360728701305128 ], [ -81.430343086457142, 28.360402926888277 ], [ -81.430291648706785, 28.360248613883954 ], [ -81.43001731299762, 28.360248613883954 ], [ -81.429554371163235, 28.360300051271796 ], [ -81.429177157872289, 28.360180029135371 ], [ -81.429136700875645, 28.359638987009038 ], [ -81.429653101177138, 28.358439386617111 ], [ -81.429678034449239, 28.358334786734037 ], [ -81.429678101043422, 28.35824678683133 ], [ -81.429646900635916, 28.358109187087013 ], [ -81.429535034922708, 28.357834119835186 ], [ -81.429528834381486, 28.35778998645565 ], [ -81.429497633973995, 28.357756986674712 ], [ -81.429205434379682, 28.357272786345206 ], [ -81.429161833930266, 28.357239786403483 ], [ -81.42913690065815, 28.357201319880577 ], [ -81.429093434437604, 28.357168187143955 ], [ -81.429031234445631, 28.357096719693224 ], [ -81.42901250067419, 28.357096719693224 ], [ -81.428944101181514, 28.357052719695673 ], [ -81.428881901189527, 28.357030719690066 ], [ -81.428713900756179, 28.357008586906971 ], [ -81.428577100730308, 28.356970120300289 ], [ -81.428303434084413, 28.356854586707872 ], [ -81.428203900778399, 28.356832519816788 ], [ -81.42813543365105, 28.356804986329813 ], [ -81.428042234074582, 28.356788519709745 ], [ -81.427892900818492, 28.35673898706094 ], [ -81.427811900460895, 28.356683920031283 ], [ -81.427731100926337, 28.356606919724172 ], [ -81.427693834206494, 28.356557386990662 ], [ -81.427631634214507, 28.35643078695454 ], [ -81.427569434222519, 28.356161186556797 ], [ -81.42758190085857, 28.356117120242313 ], [ -81.427569500816674, 28.355940986660027 ], [ -81.42754450095039, 28.355874986853994 ], [ -81.427519700866583, 28.355742986203165 ], [ -81.427482434146739, 28.355682386078339 ], [ -81.427438833697337, 28.355654920053883 ], [ -81.427295834170778, 28.355522920045114 ], [ -81.427221234136908, 28.355473319960559 ], [ -81.42716523364561, 28.355451319627608 ], [ -81.426972299940104, 28.35541832003539 ], [ -81.426866633727585, 28.35541832003539 ], [ -81.426791900505378, 28.355434720022725 ], [ -81.426567900621237, 28.355533786514279 ], [ -81.4265058338176, 28.355605320030978 ], [ -81.426368900603393, 28.355715319659073 ], [ -81.426182299586898, 28.355951986776336 ], [ -81.426132499636822, 28.355979519568869 ], [ -81.426039233466199, 28.356083986251598 ], [ -81.425958299702771, 28.356144586147206 ], [ -81.425902300251991, 28.356199519766996 ], [ -81.425821433082731, 28.356254586132199 ], [ -81.425765500226134, 28.35630958653983 ], [ -81.425672233014978, 28.356320586617912 ], [ -81.425554033572226, 28.356386719836291 ], [ -81.425460699766901, 28.356397586217046 ], [ -81.425398499774914, 28.356419720043196 ], [ -81.425336233188773, 28.356408719975356 ], [ -81.42503143272954, 28.356414119742436 ], [ -81.424888433202995, 28.356375586991348 ], [ -81.424820032669786, 28.356386587062612 ], [ -81.424732832811529, 28.35638111953379 ], [ -81.424583632743747, 28.356326120078922 ], [ -81.424446699529582, 28.356287519535456 ], [ -81.424241500011036, 28.356204919544698 ], [ -81.424160632841776, 28.356160920093195 ], [ -81.424079832266685, 28.356133386432017 ], [ -81.423743832440479, 28.35604531969091 ], [ -81.423662899717584, 28.35602878702375 ], [ -81.423532432380739, 28.356034319584268 ], [ -81.423296032454701, 28.355968319836261 ], [ -81.423208899190584, 28.355962786356628 ], [ -81.423128032021324, 28.355973786470678 ], [ -81.42304723248678, 28.355962719511698 ], [ -81.422947632586599, 28.355968186146381 ], [ -81.422823232602624, 28.355995719850419 ], [ -81.422468632193301, 28.356045186916784 ], [ -81.422331898761612, 28.356039720286049 ], [ -81.422182632099677, 28.356012186593446 ], [ -81.422070632157627, 28.356023186702366 ], [ -81.421995898935393, 28.35601758638068 ], [ -81.421921298901523, 28.355973586851544 ], [ -81.421896432223562, 28.355940586505941 ], [ -81.421771899051265, 28.355858119935281 ], [ -81.42167243233942, 28.355852519604881 ], [ -81.42158543226364, 28.355857986245258 ], [ -81.421541831814238, 28.355874519854677 ], [ -81.421492031864148, 28.355907520220814 ], [ -81.421473432321591, 28.355951519777324 ], [ -81.42149209845833, 28.356023119857451 ], [ -81.421535499125227, 28.356072719685145 ], [ -81.421597832305537, 28.35609471988932 ], [ -81.421628898484173, 28.356122186715673 ], [ -81.421747098967472, 28.356144186909557 ], [ -81.421821699001356, 28.356177186276195 ], [ -81.421877698452107, 28.356188186367994 ], [ -81.421921232307355, 28.356221186636613 ], [ -81.42197723175812, 28.356215720014973 ], [ -81.422064298428069, 28.356276319835345 ], [ -81.422238431767951, 28.356441386867889 ], [ -81.422275832716679, 28.356496387178694 ], [ -81.422400232700653, 28.356595386750715 ], [ -81.422574299446353, 28.356837587171654 ], [ -81.422642698939029, 28.356997186750061 ], [ -81.422692432294937, 28.357085186772952 ], [ -81.422717298972898, 28.357261320288206 ], [ -81.422711099472224, 28.357332786712441 ], [ -81.422686232794263, 28.357437386667165 ], [ -81.422549299580055, 28.357750987212913 ], [ -81.422462231869602, 28.357877587505911 ], [ -81.422437298597472, 28.357954586891349 ], [ -81.422319099154734, 28.358169186981506 ], [ -81.422244432526668, 28.358262787152047 ], [ -81.422151098721343, 28.358449787631077 ], [ -81.4221138320015, 28.35862038737233 ], [ -81.422120032542708, 28.358834987032143 ], [ -81.422132299396267, 28.358923121049031 ], [ -81.422206899430151, 28.359209187089061 ], [ -81.422244432526668, 28.359275187569065 ], [ -81.422318899372215, 28.359451387040284 ], [ -81.422406032636331, 28.359561387261323 ], [ -81.422474432128979, 28.359605387134692 ], [ -81.422592699206447, 28.359643987387301 ], [ -81.422779232588226, 28.359654921192917 ], [ -81.422835232038992, 28.359643987387301 ], [ -81.422878832488394, 28.359621921076098 ], [ -81.422934698750822, 28.359566987396033 ], [ -81.42304683292177, 28.359412920403145 ], [ -81.423034299691537, 28.359379787441146 ], [ -81.423109032913757, 28.359269787031909 ], [ -81.423152499134289, 28.359258920945138 ], [ -81.423258299575693, 28.359209320774873 ], [ -81.423301832390379, 28.359209320774873 ], [ -81.42343249950973, 28.359176320519484 ], [ -81.423469832823741, 28.359154320953987 ], [ -81.423612898944469, 28.359154320953987 ], [ -81.423712433290987, 28.359192787684826 ], [ -81.423743499469651, 28.359225920705207 ], [ -81.423936299986806, 28.359368987292797 ], [ -81.423986099936897, 28.359434987673477 ], [ -81.424011033209013, 28.359506520392635 ], [ -81.424129099463443, 28.359589120561338 ], [ -81.424178899413533, 28.359644121072581 ], [ -81.424259833176947, 28.359693721039697 ], [ -81.424278432719532, 28.359765187657601 ], [ -81.424321899980612, 28.359792720376788 ], [ -81.424365499389481, 28.359853187217126 ], [ -81.424433899922661, 28.359913720865535 ], [ -81.42453343322866, 28.360062387550315 ], [ -81.424614299357415, 28.360100787109708 ], [ -81.424689032579607, 28.360150320936796 ], [ -81.424763499425168, 28.360221987774054 ], [ -81.424825699417141, 28.360260387275737 ], [ -81.424856899824647, 28.360298920447981 ], [ -81.424937833588075, 28.360331987196506 ], [ -81.42496270026605, 28.36035952068432 ], [ -81.424993699850504, 28.360364988008225 ], [ -81.425087033655842, 28.360409121232774 ], [ -81.42521769973466, 28.360442121104857 ], [ -81.425317099852336, 28.360480587369004 ], [ -81.425497500327594, 28.360502721259465 ], [ -81.42558470018588, 28.360497188016197 ], [ -81.425684300086047, 28.360519121376932 ], [ -81.42575263298454, 28.360519121376932 ], [ -81.425982833409904, 28.36055772129729 ], [ -81.426063700579164, 28.36055772129729 ], [ -81.426119700029929, 28.360546720742608 ], [ -81.426175633927059, 28.360552187141252 ], [ -81.426231633377824, 28.360535721102437 ], [ -81.426343633319902, 28.360530187860888 ], [ -81.426474233845084, 28.360508187660361 ], [ -81.426499100523046, 28.360519187303368 ], [ -81.426853699891836, 28.360524720545481 ], [ -81.426996833647237, 28.36055772129729 ], [ -81.427107065722296, 28.360564465935123 ], [ -81.427108551604633, 28.360516938479421 ], [ -81.427533399494735, 28.360545074413462 ], [ -81.428663901023569, 28.36075598746643 ] ] ] } },
{ "type": "Feature", "properties": { "OBJECTID": 6044838, "PERMANENT_IDENTIFIER": "112032503", "FDATE": 1373414400000, "RESOLUTION": 2, "GNIS_ID": null, "GNIS_NAME": null, "AREASQKM": 0.0031374, "ELEVATION": null, "REACHCODE": "03090101030058", "FTYPE": 436, "FCODE": 43600, "VISIBILITYFILTER": 5000000, "SHAPE_Length": 282.84223570465724, "SHAPE_Area": 4067.5759595506465, "GLOBALID": "{2419D787-4CBE-11E1-BCF4-0021280458E6}" }, "geometry": { "type": "Polygon", "coordinates": [ [ [ -81.42283363273846, 28.373334524231915 ], [ -81.423287699859628, 28.373053923570321 ], [ -81.423356233581146, 28.373004390273014 ], [ -81.423368633623056, 28.372965923970838 ], [ -81.423325099767823, 28.372943923601781 ], [ -81.422771432746472, 28.372965923970838 ], [ -81.422566100039617, 28.373053923570321 ], [ -81.422422899690034, 28.373169391004559 ], [ -81.422385632970176, 28.373279524407391 ], [ -81.42241669914884, 28.37342259035961 ], [ -81.422503832412943, 28.373505123849167 ], [ -81.422603433353643, 28.373505123849167 ], [ -81.42283363273846, 28.373334524231915 ] ] ] } },
{ "type": "Feature", "properties": { "OBJECTID": 6081891, "PERMANENT_IDENTIFIER": "112052815", "FDATE": 1373414400000, "RESOLUTION": 2, "GNIS_ID": null, "GNIS_NAME": null, "AREASQKM": 0.00772531, "ELEVATION": null, "REACHCODE": null, "FTYPE": 466, "FCODE": 46600, "VISIBILITYFILTER": 5000000, "SHAPE_Length": 362.17430817359315, "SHAPE_Area": 10016.064226239627, "GLOBALID": "{348FF408-4CBE-11E1-BCF4-0021280458E6}" }, "geometry": { "type": "Polygon", "coordinates": [ [ [ -81.429910475143984, 28.375002324474664 ], [ -81.429897075149057, 28.37524672407524 ], [ -81.430021475133017, 28.37548339066657 ], [ -81.430245475017159, 28.375598924120009 ], [ -81.430500474485768, 28.375653924573026 ], [ -81.430736942046508, 28.375593390748374 ], [ -81.430892474803287, 28.375422924492852 ], [ -81.430960875336481, 28.375252324297747 ], [ -81.430942274753377, 28.375092724707194 ], [ -81.430929874711481, 28.375004591302055 ], [ -81.430905941392382, 28.374974791124075 ], [ -81.430737941999553, 28.37482072452816 ], [ -81.430426940999084, 28.374809724536551 ], [ -81.430109674944319, 28.374864791316291 ], [ -81.429929141280738, 28.374980324527947 ], [ -81.429910475143984, 28.375002324474664 ] ] ] } },
{ "type": "Feature", "properties": { "OBJECTID": 6081895, "PERMANENT_IDENTIFIER": "112053251", "FDATE": 1373414400000, "RESOLUTION": 2, "GNIS_ID": null, "GNIS_NAME": null, "AREASQKM": 0.06737255, "ELEVATION": null, "REACHCODE": null, "FTYPE": 466, "FCODE": 46600, "VISIBILITYFILTER": 5000000, "SHAPE_Length": 1656.1664520318204, "SHAPE_Area": 87321.95698230296, "GLOBALID": "{34905F8D-4CBE-11E1-BCF4-0021280458E6}" }, "geometry": { "type": "Polygon", "coordinates": [ [ [ -81.445825790007177, 28.357036283331304 ], [ -81.445116910713494, 28.356963948647003 ], [ -81.444697643206425, 28.356897478819416 ], [ -81.444499592155466, 28.356866081194795 ], [ -81.443930622002796, 28.356775877870902 ], [ -81.443764252085955, 28.357094151226381 ], [ -81.44358341458647, 28.357361789716336 ], [ -81.443373645043266, 28.357745162643482 ], [ -81.443149406876884, 28.35788259895515 ], [ -81.442874535292802, 28.357788563506862 ], [ -81.442664764709065, 28.357593260397639 ], [ -81.442491161000916, 28.357578792808106 ], [ -81.442353725208875, 28.357694527975251 ], [ -81.442324791084076, 28.357817497711157 ], [ -81.442491161000916, 28.358085135293063 ], [ -81.442758799834195, 28.358237038666363 ], [ -81.44299027075138, 28.358367240599925 ], [ -81.44301920487618, 28.358504677021845 ], [ -81.442529910481511, 28.359348172624831 ], [ -81.444321229045485, 28.358743381674177 ], [ -81.445370081964143, 28.358381708082003 ], [ -81.445833023798514, 28.358121303175043 ], [ -81.446064494715699, 28.357694527975251 ], [ -81.446447867967038, 28.357643895114201 ], [ -81.447091648341441, 28.357810263931889 ], [ -81.447569056717924, 28.35779579637191 ], [ -81.447713726301316, 28.357607727069542 ], [ -81.447612457384835, 28.357274987622901 ], [ -81.44732311821808, 28.357101384138748 ], [ -81.446737207133793, 28.35708691739784 ], [ -81.445825790007177, 28.357036283331304 ] ] ] } },
{ "type": "Feature", "properties": { "OBJECTID": 6165387, "PERMANENT_IDENTIFIER": "112033167", "FDATE": 1373414400000, "RESOLUTION": 2, "GNIS_ID": null, "GNIS_NAME": null, "AREASQKM": 0.00794229, "ELEVATION": null, "REACHCODE": "03090101030332", "FTYPE": 436, "FCODE": 43600, "VISIBILITYFILTER": 5000000, "SHAPE_Length": 496.37708311627557, "SHAPE_Area": 10294.044144754274, "GLOBALID": "{5AE69ADA-4CBE-11E1-BCF4-0021280458E6}" }, "geometry": { "type": "Polygon", "coordinates": [ [ [ -81.432309302112856, 28.35801031986707 ], [ -81.432315634801867, 28.357894720563046 ], [ -81.432402701471815, 28.357751586975962 ], [ -81.432533301996969, 28.357459986353231 ], [ -81.432533301996969, 28.357355520108882 ], [ -81.432452434827738, 28.357267520310081 ], [ -81.43234043488566, 28.357201386724757 ], [ -81.432041901561817, 28.357091319960865 ], [ -81.431917434983689, 28.357091319960865 ], [ -81.431855301585855, 28.357157319926394 ], [ -81.431873902168974, 28.357223319850856 ], [ -81.431967234933765, 28.35733898673012 ], [ -81.431936235349283, 28.357531520403324 ], [ -81.431849035491013, 28.357707586334168 ], [ -81.431836635449102, 28.357768120290469 ], [ -81.431892634899896, 28.357982719841903 ], [ -81.432060502144935, 28.358367986865645 ], [ -81.432278234893687, 28.358637520309571 ], [ -81.432346635426867, 28.358632120655617 ], [ -81.432589302488282, 28.358499986999433 ], [ -81.432614101531556, 28.358362386667668 ], [ -81.432477301505685, 28.35823032043492 ], [ -81.432309302112856, 28.35801031986707 ] ] ] } },
{ "type": "Feature", "properties": { "OBJECTID": 6806193, "PERMANENT_IDENTIFIER": "112052967", "FDATE": 1373414400000, "RESOLUTION": 2, "GNIS_ID": null, "GNIS_NAME": null, "AREASQKM": 9.15232342, "ELEVATION": null, "REACHCODE": null, "FTYPE": 466, "FCODE": 46600, "VISIBILITYFILTER": 5000000, "SHAPE_Length": 39030.753186930509, "SHAPE_Area": 11866899.318116946, "GLOBALID": "{7D766165-4CBF-11E1-BCF4-0021280458E6}" }, "geometry": { "type": "MultiPolygon", "coordinates": [ [ [ [ -81.47399523998898, 28.358493602085755 ], [ -81.473820965136497, 28.358257818756982 ], [ -81.473500983288375, 28.357897325637207 ], [ -81.473289197190581, 28.357165701089468 ], [ -81.473212184158712, 28.356607357418582 ], [ -81.472846373037669, 28.356183785598851 ], [ -81.47232653377182, 28.355760214836145 ], [ -81.471902963657286, 28.355355895671813 ], [ -81.471379646927318, 28.35511131839791 ], [ -81.47093171271267, 28.35490791838167 ], [ -81.470863446408345, 28.355056385130741 ], [ -81.470788713186124, 28.355183118665366 ], [ -81.470521312635071, 28.355430718462671 ], [ -81.470490246456436, 28.355469185627108 ], [ -81.470403246380656, 28.355546318618504 ], [ -81.470328513158449, 28.355595784978608 ], [ -81.470285045897384, 28.355645318160818 ], [ -81.470173112549475, 28.355727985432061 ], [ -81.469986512573527, 28.355816118365805 ], [ -81.469930646311084, 28.355832518291688 ], [ -81.469719046468853, 28.355876718414283 ], [ -81.469687912655516, 28.355860185720918 ], [ -81.469470245460386, 28.355876718414283 ], [ -81.469271245442542, 28.355832718826754 ], [ -81.469159245500464, 28.355777785017164 ], [ -81.469084512278258, 28.355706185687243 ], [ -81.46892284557444, 28.35564018573525 ], [ -81.468866711894805, 28.355585184980846 ], [ -81.468817046173569, 28.355552185430192 ], [ -81.468686445648402, 28.355508185708164 ], [ -81.468624112468092, 28.355497185545886 ], [ -81.468543311893001, 28.355502784979333 ], [ -81.468344245280974, 28.355535785461015 ], [ -81.468306911966963, 28.355552318204939 ], [ -81.468250912516169, 28.35559638566955 ], [ -81.468213645796325, 28.355640385355017 ], [ -81.468194912024885, 28.355717385447505 ], [ -81.468201312348597, 28.355761518772983 ], [ -81.468232311933079, 28.355788985685539 ], [ -81.468294645113389, 28.355871519154906 ], [ -81.468419045097349, 28.35597051839396 ], [ -81.468524712350401, 28.356113585706286 ], [ -81.468605845896334, 28.35641611867257 ], [ -81.468599645355127, 28.356559185384377 ], [ -81.468574712083011, 28.356713318785289 ], [ -81.468543645904347, 28.35681231907067 ], [ -81.46845671242275, 28.356944385236208 ], [ -81.468263911905566, 28.35728571930882 ], [ -81.468151911963503, 28.357423319204887 ], [ -81.46815204515184, 28.357494785520057 ], [ -81.468127111879724, 28.357533318780565 ], [ -81.468064911887737, 28.357599319386924 ], [ -81.467953045133996, 28.357764386193615 ], [ -81.467772712293439, 28.357979119439982 ], [ -81.467667045040372, 28.358133185766938 ], [ -81.467571467844067, 28.358241030963992 ], [ -81.467055011353764, 28.358247567893198 ], [ -81.46680897608428, 28.358698631517409 ], [ -81.466409169681825, 28.35949824471458 ], [ -81.466040118338384, 28.360902692582851 ], [ -81.465794082028353, 28.361825322025979 ], [ -81.46550704244143, 28.362532672304635 ], [ -81.465455785743941, 28.36336303977998 ], [ -81.465291762230947, 28.364254915299473 ], [ -81.464779190053491, 28.364972516996843 ], [ -81.463928319510572, 28.365638860355162 ], [ -81.463302981558158, 28.366612747445405 ], [ -81.463147110627887, 28.367587721551605 ], [ -81.463140844533044, 28.367659188347357 ], [ -81.463084910635914, 28.367813322109523 ], [ -81.462929444473303, 28.36797838859588 ], [ -81.462773910676006, 28.36808852189391 ], [ -81.462693044547279, 28.368110521438631 ], [ -81.462562444022083, 28.368220588677875 ], [ -81.462500244030096, 28.368259121706625 ], [ -81.462375844046136, 28.368380188535543 ], [ -81.462276310740123, 28.368517788697414 ], [ -81.462220311289371, 28.368556321618243 ], [ -81.46212711067237, 28.368655388680857 ], [ -81.461896911287539, 28.368820521609678 ], [ -81.461760043626995, 28.368848121563207 ], [ -81.461479658254021, 28.368530958340507 ], [ -81.459976582134132, 28.369106604003967 ], [ -81.458388223859842, 28.370034034748574 ], [ -81.457194289306386, 28.370705622677626 ], [ -81.456384120285563, 28.371121367156029 ], [ -81.455424709575638, 28.371547772498388 ], [ -81.454358698253756, 28.371888896637014 ], [ -81.453495227886449, 28.372070118904535 ], [ -81.453111463394364, 28.372134078876922 ], [ -81.452735038828067, 28.372077024862175 ], [ -81.452421164913645, 28.372064953398056 ], [ -81.451974498069234, 28.372004592394646 ], [ -81.451419181801754, 28.371920088397104 ], [ -81.450731073644818, 28.371823511925083 ], [ -81.45030855134786, 28.371461350058659 ], [ -81.450272334526645, 28.371147475990423 ], [ -81.449958460612237, 28.37094224995997 ], [ -81.449596298643442, 28.371014683152797 ], [ -81.44940314538529, 28.371256123719821 ], [ -81.449523867082092, 28.371582069902598 ], [ -81.449729091573431, 28.371908016915121 ], [ -81.449197919853418, 28.371883872115948 ], [ -81.448413235587665, 28.371895943600666 ], [ -81.44796199767805, 28.372270315503833 ], [ -81.447254316038837, 28.372197745836651 ], [ -81.447073235054418, 28.37199252092228 ], [ -81.446964586671882, 28.371545854421633 ], [ -81.446988730178816, 28.370869817633274 ], [ -81.446868009522547, 28.370507656173555 ], [ -81.446554135608139, 28.369940268255661 ], [ -81.446348910076267, 28.36951774578252 ], [ -81.44607125298306, 28.369022789870275 ], [ -81.44607125298306, 28.368479546915825 ], [ -81.445805666082506, 28.368032880274889 ], [ -81.44597467583371, 28.367670718287464 ], [ -81.446022964928659, 28.367356843992443 ], [ -81.445938459012496, 28.366982609486453 ], [ -81.445733234521171, 28.366620447576775 ], [ -81.445672203048701, 28.365808265586843 ], [ -81.44584389425566, 28.365207344167818 ], [ -81.446079971616186, 28.364692269619827 ], [ -81.446208740801779, 28.364327424475125 ], [ -81.446208740801779, 28.363769426123742 ], [ -81.446552124256186, 28.363340196880081 ], [ -81.446959891783152, 28.362803660173327 ], [ -81.447045737906876, 28.362181276759124 ], [ -81.447045737906876, 28.361730585947647 ], [ -81.446938429731944, 28.361473048789851 ], [ -81.446444816081254, 28.361709125304714 ], [ -81.446150439690143, 28.362059920843482 ], [ -81.446001106434039, 28.362158987561504 ], [ -81.44592650640017, 28.362219387128427 ], [ -81.445468831748158, 28.362131017784485 ], [ -81.445267947323501, 28.36192008915128 ], [ -81.444886265980202, 28.361990398742272 ], [ -81.444757038959693, 28.362120520989986 ], [ -81.444735602921838, 28.362432345115071 ], [ -81.444725905146356, 28.362786320977218 ], [ -81.444869105495926, 28.363154987733349 ], [ -81.444875306037147, 28.363209987312409 ], [ -81.444869105495926, 28.363309120712884 ], [ -81.444807038692275, 28.363771187770602 ], [ -81.444651439341328, 28.364106987894015 ], [ -81.444607905486095, 28.364134521318118 ], [ -81.444527039357368, 28.36422798804238 ], [ -81.444502106085238, 28.364299588033383 ], [ -81.444377706101264, 28.364530721290265 ], [ -81.444352839423317, 28.36462418766553 ], [ -81.444128905092825, 28.364970921094677 ], [ -81.444085438872264, 28.365080922004474 ], [ -81.443948505658085, 28.365510121317612 ], [ -81.44391750503307, 28.365554188310547 ], [ -81.443861505582291, 28.365796321593397 ], [ -81.443811705632214, 28.365823788656066 ], [ -81.443699838878473, 28.365939388480303 ], [ -81.443631305156956, 28.366060388370531 ], [ -81.443569105164983, 28.366131988040848 ], [ -81.443519305214892, 28.366258588408702 ], [ -81.443444705181008, 28.366407121685015 ], [ -81.443382505189021, 28.366506188923005 ], [ -81.443276838976502, 28.366632722006212 ], [ -81.443264438934605, 28.366737321951803 ], [ -81.44312130517919, 28.366957388664503 ], [ -81.443052839092346, 28.367006988876188 ], [ -81.443021705279023, 28.367094988840279 ], [ -81.44272323854932, 28.367276589193057 ], [ -81.441943306401669, 28.367354020325411 ], [ -81.441240210395137, 28.367183267985546 ], [ -81.440748042045954, 28.366450038319755 ], [ -81.44049693625503, 28.365897606065662 ], [ -81.440506980528298, 28.365244731038803 ], [ -81.440366360702654, 28.364611944134506 ], [ -81.440356316429387, 28.3637782728137 ], [ -81.440637555040126, 28.363004866792163 ], [ -81.441410960959473, 28.362171194750289 ], [ -81.442355119524223, 28.361397789836449 ], [ -81.443279188501933, 28.360614339249757 ], [ -81.443952151688691, 28.359991595966161 ], [ -81.444042551188545, 28.359579782732197 ], [ -81.443942108455971, 28.359439163972542 ], [ -81.443736704992816, 28.35942418661508 ], [ -81.443061135268749, 28.359715315775276 ], [ -81.441761725961015, 28.360275282106965 ], [ -81.441441093779247, 28.360413454068947 ], [ -81.440928837924091, 28.360965887401296 ], [ -81.440024857492915, 28.3616087176764 ], [ -81.438869769189708, 28.362151106727097 ], [ -81.438307293008805, 28.36264327456152 ], [ -81.438075903253264, 28.363089188356014 ], [ -81.437814636649264, 28.363413921708375 ], [ -81.437684037164601, 28.363611988430947 ], [ -81.437621837172614, 28.3637881211876 ], [ -81.437572103816706, 28.363887121283728 ], [ -81.437497437188654, 28.363991721188771 ], [ -81.437366703475149, 28.364239321498555 ], [ -81.437205036771331, 28.364795121751222 ], [ -81.437099303964644, 28.365086721449988 ], [ -81.437074303057813, 28.365180188251156 ], [ -81.436950037302694, 28.365482921529576 ], [ -81.436900236312098, 28.365642521842485 ], [ -81.436806836953124, 28.365818522129608 ], [ -81.43678823637002, 28.365884589000689 ], [ -81.43666383638606, 28.366159788293679 ], [ -81.436657636885386, 28.366203722255435 ], [ -81.436601636394073, 28.366357788546551 ], [ -81.436539303213749, 28.366610921754233 ], [ -81.43651450312997, 28.366825521738235 ], [ -81.436495903587399, 28.366885989149761 ], [ -81.436502103088074, 28.366985121863095 ], [ -81.436545636943308, 28.368041722031514 ], [ -81.436534312813407, 28.368250177423366 ], [ -81.436498097032739, 28.369276304006235 ], [ -81.436425664430885, 28.369409097188523 ], [ -81.436063502462062, 28.369433241635328 ], [ -81.436015213367128, 28.369710899174194 ], [ -81.436220438898999, 28.369891980502853 ], [ -81.436618817689009, 28.369976484284688 ], [ -81.436655033469691, 28.370519727814873 ], [ -81.43584620569699, 28.371002610652219 ], [ -81.435568546522717, 28.370978466562566 ], [ -81.435315032936444, 28.371207836565908 ], [ -81.435484042687648, 28.371775223198338 ], [ -81.435471971454433, 28.372077025777706 ], [ -81.435471971454433, 28.372559908851368 ], [ -81.435532331782596, 28.373211800444043 ], [ -81.435906564984592, 28.373417025746328 ], [ -81.436655033469691, 28.373429097972128 ], [ -81.437282782339039, 28.373248016271855 ], [ -81.437234493244091, 28.372740989895139 ], [ -81.437137917135288, 28.372427115950561 ], [ -81.437125845902102, 28.372052881932561 ], [ -81.437234493244091, 28.371726936280691 ], [ -81.437408221816327, 28.371721507079613 ], [ -81.437620799760381, 28.371714863861193 ], [ -81.437995034002924, 28.372004593310226 ], [ -81.438393412792934, 28.372439188289032 ], [ -81.438719357940542, 28.372873783318585 ], [ -81.438610710598553, 28.373501530382573 ], [ -81.438296836684131, 28.373718828232708 ], [ -81.437958818222256, 28.373803331713013 ], [ -81.437588983356832, 28.373790123356567 ], [ -81.43694476387715, 28.373767116990329 ], [ -81.435363322031378, 28.373767116990329 ], [ -81.435001159022022, 28.373851620432177 ], [ -81.434989087788836, 28.374165494739678 ], [ -81.435242601375109, 28.374334504583466 ], [ -81.435508186194596, 28.374334504583466 ], [ -81.435809988875789, 28.374334504583466 ], [ -81.436184223118332, 28.374539729544818 ], [ -81.436630889962757, 28.374551800727332 ], [ -81.437198277463438, 28.374479369033999 ], [ -81.437622036955133, 28.374149524282451 ], [ -81.437970890496004, 28.374093062782578 ], [ -81.438188187261048, 28.374201710241916 ], [ -81.438552269014835, 28.374633686063508 ], [ -81.438837230655679, 28.37542072267604 ], [ -81.438701534636223, 28.376017785047868 ], [ -81.43824016921063, 28.376357024429332 ], [ -81.43771095369425, 28.376262037658371 ], [ -81.4375345499095, 28.376044924458022 ], [ -81.436955236850366, 28.37611092453762 ], [ -81.436438836548888, 28.377150924586552 ], [ -81.436015836646902, 28.378031324762254 ], [ -81.435878903432709, 28.378124924807903 ], [ -81.435594096831423, 28.37802608539107 ], [ -81.435431262648606, 28.377822541616407 ], [ -81.435214149017497, 28.377727554326874 ], [ -81.434779921755251, 28.37779540174558 ], [ -81.434522100358848, 28.377781832265317 ], [ -81.434277846483312, 28.377876819506263 ], [ -81.434182859269697, 28.378121071497791 ], [ -81.434209998473591, 28.378473880869652 ], [ -81.434223569116057, 28.378758843224425 ], [ -81.433762201609412, 28.379260918283681 ], [ -81.433477239968568, 28.380197220010345 ], [ -81.433070152950748, 28.381323496511573 ], [ -81.433124431358536, 28.381852710170048 ], [ -81.433472406688836, 28.381899734635606 ], [ -81.433626506630503, 28.381920558611657 ], [ -81.433925037873294, 28.382056254449186 ], [ -81.434169290708283, 28.382571899245313 ], [ -81.434196428871644, 28.383168961640209 ], [ -81.434169290708283, 28.383738883238916 ], [ -81.433721493844118, 28.38437665413732 ], [ -81.432929436355494, 28.385179126787211 ], [ -81.432650468189621, 28.384584551968583 ], [ -81.431769572001912, 28.384694664364073 ], [ -81.431266202305835, 28.385040730755968 ], [ -81.43117040971903, 28.385353665674828 ], [ -81.431251827330698, 28.385665766630719 ], [ -81.431591067379316, 28.385991436014955 ], [ -81.432031897869379, 28.38636520433618 ], [ -81.431989796829242, 28.386944096318636 ], [ -81.433089583879891, 28.3911551353217 ], [ -81.433165703093181, 28.391446594819914 ], [ -81.433378335145008, 28.391712209717955 ], [ -81.433893162159293, 28.392355315945732 ], [ -81.434506643228502, 28.392654191198318 ], [ -81.434868439969932, 28.393110369132412 ], [ -81.435230236711362, 28.393566548764667 ], [ -81.43688191667313, 28.39345643551464 ], [ -81.436960568545814, 28.392654191198318 ], [ -81.437054950168729, 28.391631721617962 ], [ -81.437636970696943, 28.390640714029669 ], [ -81.438171801974519, 28.390137344482962 ], [ -81.439099888453413, 28.390042963227831 ], [ -81.440059436513835, 28.390090153408192 ], [ -81.44087741161961, 28.390027233163035 ], [ -81.441868420220985, 28.389995771195679 ], [ -81.442922349904293, 28.389948580973261 ], [ -81.443268415854973, 28.38998004112387 ], [ -81.443614481805653, 28.390027233163035 ], [ -81.444369536870028, 28.389995771195679 ], [ -81.445077399562123, 28.390011502180521 ], [ -81.445926835208866, 28.389775547231942 ], [ -81.44691784381024, 28.389523862534116 ], [ -81.447657167043317, 28.389382289342937 ], [ -81.448286379943809, 28.389413751492359 ], [ -81.44885445835898, 28.389702524522836 ], [ -81.449088908324583, 28.390109127604248 ], [ -81.449225841538777, 28.390246527484734 ], [ -81.449524508050942, 28.390411593845194 ], [ -81.450302308144757, 28.390769194636793 ], [ -81.451217108046933, 28.391022327257954 ], [ -81.451789508839695, 28.391126727399282 ], [ -81.452343442237691, 28.391209194019027 ], [ -81.452816308683936, 28.391313727621668 ], [ -81.452841241956065, 28.391330194375648 ], [ -81.453693708677903, 28.391594193925474 ], [ -81.453867909652487, 28.391638194244202 ], [ -81.454421843050483, 28.391682194544668 ], [ -81.454776442419259, 28.391786794503275 ], [ -81.454932042810739, 28.391962794433478 ], [ -81.455168642519297, 28.392259927926514 ], [ -81.4553989095388, 28.392623128195606 ], [ -81.4555171100221, 28.392958594412562 ], [ -81.455585709297267, 28.39331632757764 ], [ -81.455756649238751, 28.393747052963281 ], [ -81.455237309429151, 28.394026194716513 ], [ -81.455237309429151, 28.394257328189124 ], [ -81.455299642609447, 28.394427928015922 ], [ -81.455449043500252, 28.394609528253081 ], [ -81.45578463647773, 28.395258323163521 ], [ -81.456568258358416, 28.395412249309512 ], [ -81.457211948206364, 28.395300303626176 ], [ -81.457785670477136, 28.395314297415155 ], [ -81.45809352178162, 28.395356276024945 ], [ -81.45854130615939, 28.395370269806531 ], [ -81.459101036371464, 28.395342284072225 ], [ -81.459786705517061, 28.395188357824608 ], [ -81.460352511406313, 28.395120395217141 ], [ -81.46023444411135, 28.39550012867965 ], [ -81.460010444227223, 28.395725795267566 ], [ -81.459827036609113, 28.395843468699454 ], [ -81.459450866973611, 28.395832047086124 ], [ -81.459171002908121, 28.395971979613932 ], [ -81.458863151603637, 28.396279830524765 ], [ -81.459045062934052, 28.396517716080037 ], [ -81.459800698616306, 28.3966856349202 ], [ -81.46234746972857, 28.394292789901506 ], [ -81.462169444792067, 28.394190194295689 ], [ -81.462163112103056, 28.393931527671207 ], [ -81.462051044526291, 28.393557394252102 ], [ -81.461882911945125, 28.393331928088379 ], [ -81.461795845275176, 28.393084327949584 ], [ -81.461839311495723, 28.392924594092094 ], [ -81.461857912078827, 28.392693594102987 ], [ -81.462013444835605, 28.392489994268985 ], [ -81.462436444737591, 28.392016594583701 ], [ -81.462672844663629, 28.391664394142381 ], [ -81.463027511667107, 28.391345193774786 ], [ -81.463319845490275, 28.391119527014069 ], [ -81.463711711578924, 28.3908443274848 ], [ -81.464271712329804, 28.390558127052188 ], [ -81.464564112747141, 28.390365393341622 ], [ -81.464813045903412, 28.390161793612794 ], [ -81.465030712057995, 28.389930727187206 ], [ -81.465509712451279, 28.389325193344487 ], [ -81.465652713018372, 28.389033526625933 ], [ -81.46616284618446, 28.388400726922349 ], [ -81.466293445669095, 28.388130993551481 ], [ -81.466610646170224, 28.387767793453463 ], [ -81.467207712817938, 28.387052325999438 ], [ -81.467500113235275, 28.386782726510734 ], [ -81.467705312753793, 28.386545992676744 ], [ -81.46791071309535, 28.386397392394858 ], [ -81.468271513005362, 28.38623219254049 ], [ -81.468539046744738, 28.386044992946356 ], [ -81.469092713766059, 28.385841326333111 ], [ -81.46939764637311, 28.38573672600084 ], [ -81.469982447207769, 28.385565992265821 ], [ -81.470330847075886, 28.385439326142915 ], [ -81.470673047443285, 28.385351192181318 ], [ -81.471064913531947, 28.385235592455231 ], [ -81.472098003403303, 28.384052679768892 ], [ -81.47257131727909, 28.383723112874698 ], [ -81.473471925340078, 28.383096023179519 ], [ -81.474683011012971, 28.382261493764574 ], [ -81.474989632406434, 28.381906846847333 ], [ -81.475527718473899, 28.381284483031351 ], [ -81.475802622314532, 28.380620129303541 ], [ -81.475894097726396, 28.380399067432926 ], [ -81.475588782202919, 28.379513649935138 ], [ -81.474978149074872, 28.378709652237148 ], [ -81.475263110715716, 28.378170261842556 ], [ -81.475385238173743, 28.377529097402594 ], [ -81.475018858921231, 28.376816694637284 ], [ -81.474479466983809, 28.376572441473009 ], [ -81.474041847581233, 28.376511378094033 ], [ -81.473787247677606, 28.376458189874782 ], [ -81.473967514964542, 28.37622712379838 ], [ -81.474359447647345, 28.375852789662339 ], [ -81.475098342180473, 28.374969811609638 ], [ -81.475746439729804, 28.374164067432801 ], [ -81.476009182851342, 28.373428389349176 ], [ -81.475518729301967, 28.372587613119357 ], [ -81.475150890180458, 28.3718169025883 ], [ -81.474660437671631, 28.371361481761916 ], [ -81.473662016307088, 28.370941093614 ], [ -81.472470917208398, 28.370730900288738 ], [ -81.471630557097896, 28.371473664212321 ], [ -81.471472247156271, 28.371613589519519 ], [ -81.471366513309064, 28.371756789557256 ], [ -81.471335447130414, 28.371778722421965 ], [ -81.471142646613245, 28.372009989537158 ], [ -81.471049447036776, 28.372158523002192 ], [ -81.470974713814584, 28.372334589386764 ], [ -81.470918713323272, 28.372433722502706 ], [ -81.470769646443841, 28.372818922417089 ], [ -81.47070124695118, 28.372873989314705 ], [ -81.470564313736986, 28.372917989161714 ], [ -81.470520713287598, 28.372923522672874 ], [ -81.47047104652583, 28.372945523046155 ], [ -81.470203647015325, 28.373022589319831 ], [ -81.470023246540038, 28.37305032276414 ], [ -81.469923646639884, 28.373077789780091 ], [ -81.469886313325844, 28.373094189785249 ], [ -81.469836513375782, 28.373132789709206 ], [ -81.469786846614014, 28.373187789609819 ], [ -81.469805446156599, 28.373297922993533 ], [ -81.469874046472285, 28.373446389652493 ], [ -81.469979713725351, 28.373616990005377 ], [ -81.470073113084311, 28.373875589917329 ], [ -81.470104313491817, 28.3740295901368 ], [ -81.470135512858789, 28.374128723499886 ], [ -81.47015424663023, 28.374255189814509 ], [ -81.470141846588334, 28.374480789927976 ], [ -81.470085847137568, 28.374717523230267 ], [ -81.470011247103699, 28.374888123369942 ], [ -81.469942913164658, 28.374981723442726 ], [ -81.46923312236332, 28.375271456786855 ], [ -81.468880312712756, 28.37567854458144 ], [ -81.468188264054106, 28.375705684078426 ], [ -81.467604771170485, 28.375597126964408 ], [ -81.467021278286865, 28.375122190687637 ], [ -81.466409045858285, 28.374954990251563 ], [ -81.465706045580873, 28.374922123065559 ], [ -81.465182311596806, 28.375007523712341 ], [ -81.464565181375406, 28.375108621780893 ], [ -81.463954550328424, 28.375244317178808 ], [ -81.463628879881753, 28.375488570654827 ], [ -81.464103815949827, 28.375895657616212 ], [ -81.46494513022985, 28.376384163752682 ], [ -81.465989989579597, 28.377035504514872 ], [ -81.466532772616858, 28.377184769752667 ], [ -81.467124045572078, 28.377186123778799 ], [ -81.46744193594715, 28.377049074090628 ], [ -81.467740467189941, 28.376723402877893 ], [ -81.467984720024944, 28.376981226194495 ], [ -81.467916872015223, 28.377795400830088 ], [ -81.467876163209382, 28.378596007163754 ], [ -81.467903302413276, 28.379762991881666 ], [ -81.467998288586344, 28.380753572917172 ], [ -81.467862593607435, 28.381839139377959 ], [ -81.468093276840492, 28.38242263243475 ], [ -81.468174694452173, 28.382978985567522 ], [ -81.46746907515103, 28.383060403010607 ], [ -81.46642421684183, 28.382721164014892 ], [ -81.465107966493719, 28.381730583048849 ], [ -81.464198803163427, 28.381147090761562 ], [ -81.463737436697315, 28.38092997657537 ], [ -81.463516311808206, 28.380526991027097 ], [ -81.46371531182605, 28.380147324774033 ], [ -81.463765045181958, 28.379965724481572 ], [ -81.463752511951739, 28.379839124907342 ], [ -81.463805284707036, 28.379613726610337 ], [ -81.4636424494837, 28.379193069056004 ], [ -81.463547462270071, 28.378582437785905 ], [ -81.463425336893124, 28.377998944656827 ], [ -81.463262500629241, 28.377483300513614 ], [ -81.462828273367009, 28.377171200194276 ], [ -81.462421186349189, 28.377388313835755 ], [ -81.462434755951151, 28.377822540700915 ], [ -81.462638644397032, 28.378590324723792 ], [ -81.462669844804537, 28.379085390714629 ], [ -81.462669911398692, 28.379553191383685 ], [ -81.462775845028403, 28.379982324826699 ], [ -81.462956311057312, 28.3803455250439 ], [ -81.463093311906221, 28.380659191548155 ], [ -81.462394047145324, 28.380265067680174 ], [ -81.461878403311943, 28.380142941477075 ], [ -81.461186352572227, 28.380088662000507 ], [ -81.460779264513889, 28.379776562023931 ], [ -81.460684277300274, 28.379206639271203 ], [ -81.461037086950839, 28.378528159341677 ], [ -81.460982808543065, 28.37774112289857 ], [ -81.460657139136927, 28.377279756612822 ], [ -81.46038574709803, 28.376696264556838 ], [ -81.45987010222413, 28.376316315431261 ], [ -81.459558001379406, 28.375977075919597 ], [ -81.459775115010501, 28.37543429245838 ], [ -81.460195771630268, 28.375176469043801 ], [ -81.460358607894136, 28.374715103504506 ], [ -81.460870255036994, 28.373559574237309 ], [ -81.461249283018972, 28.372877326451846 ], [ -81.461798870107089, 28.37204346737872 ], [ -81.462215799534576, 28.371493879563332 ], [ -81.463029704071928, 28.371168804716074 ], [ -81.463800415008606, 28.371256384652195 ], [ -81.464746287332616, 28.3718169025883 ], [ -81.465394385922494, 28.372289838552234 ], [ -81.466007451818683, 28.372500033366617 ], [ -81.466567969714887, 28.372272322375199 ], [ -81.466655549368028, 28.371904482904952 ], [ -81.466480387980681, 28.371484095077562 ], [ -81.466550453368043, 28.371046191036051 ], [ -81.466427838940163, 28.370503190077919 ], [ -81.465657129044018, 28.370100317814348 ], [ -81.465096611147814, 28.370030253474006 ], [ -81.464676222985801, 28.369592348925252 ], [ -81.464991514107311, 28.368909218651584 ], [ -81.465604580003486, 28.368401249553461 ], [ -81.466410323633866, 28.368173540751844 ], [ -81.467251099957892, 28.368313670007279 ], [ -81.468179455935072, 28.368856671184144 ], [ -81.469353038686933, 28.369399672328822 ], [ -81.470421525438823, 28.369609865544749 ], [ -81.471367397762819, 28.369574833218408 ], [ -81.472470917208398, 28.368961767924194 ], [ -81.473101498410898, 28.36820857262525 ], [ -81.473556919266599, 28.36735028107233 ], [ -81.473679531613385, 28.366719698649465 ], [ -81.473574434572896, 28.366019050983908 ], [ -81.473189079104557, 28.365423501683555 ], [ -81.473154047451388, 28.36460024264299 ], [ -81.473185375844579, 28.364295921006018 ], [ -81.473451912752537, 28.364019131950403 ], [ -81.473574930907546, 28.363424547477344 ], [ -81.473728703081036, 28.362870970508364 ], [ -81.473503170490545, 28.362440409054251 ], [ -81.473564678527509, 28.361999597183257 ], [ -81.474066999365448, 28.361569036772327 ], [ -81.47465133195989, 28.361374258869738 ], [ -81.474231022878456, 28.360933447148906 ], [ -81.474210520199463, 28.360472132300387 ], [ -81.474169513800931, 28.359898050427766 ], [ -81.474241274217945, 28.358985672422715 ], [ -81.47399523998898, 28.358493602085755 ] ] ], [ [ [ -81.450330677259643, 28.379003095931182 ], [ -81.451823332433023, 28.377659705949245 ], [ -81.451796798819856, 28.376967127449337 ], [ -81.450819182929663, 28.375705684078426 ], [ -81.450574307855419, 28.375290390605272 ], [ -81.450263108113006, 28.375004323970224 ], [ -81.450089907091439, 28.374831190769655 ], [ -81.44928242472902, 28.374491440223398 ], [ -81.448546027477136, 28.374322430629629 ], [ -81.448183866548845, 28.37421378329395 ], [ -81.447592333460165, 28.374443151795525 ], [ -81.447459541570709, 28.374708736961331 ], [ -81.44704909154747, 28.374877746855116 ], [ -81.446602424703059, 28.374865674794183 ], [ -81.446228189419983, 28.374938107139247 ], [ -81.445998820381178, 28.375119188701063 ], [ -81.445721162247452, 28.375348557075977 ], [ -81.445359000278614, 28.375505494877732 ], [ -81.444924405707951, 28.375433062920095 ], [ -81.444719180176079, 28.375481349981833 ], [ -81.444455042739179, 28.375732822652907 ], [ -81.444441473137246, 28.376072062945738 ], [ -81.444468612341126, 28.376655555688952 ], [ -81.444550029952794, 28.377279756612822 ], [ -81.444726434778076, 28.378351755350447 ], [ -81.445133522836429, 28.379138791839779 ], [ -81.445717014679516, 28.379885118522296 ], [ -81.445784862689223, 28.380604307209076 ], [ -81.446083393932014, 28.381079242740551 ], [ -81.446721165223423, 28.381296356621156 ], [ -81.44731822770899, 28.381038534639497 ], [ -81.448566630047381, 28.380197220010345 ], [ -81.449217970940722, 28.379980106625982 ], [ -81.449692907008796, 28.379505170749685 ], [ -81.450330677259643, 28.379003095931182 ] ] ], [ [ [ -81.456911931081251, 28.383671035045261 ], [ -81.457291879935696, 28.382992555298308 ], [ -81.457875371778783, 28.382802581655948 ], [ -81.458513143070192, 28.382069823382572 ], [ -81.458486003866298, 28.381527039975548 ], [ -81.457997498196292, 28.380902838415189 ], [ -81.457278310333749, 28.380332915306582 ], [ -81.45683051242905, 28.379437322593741 ], [ -81.456152033372348, 28.378840260245536 ], [ -81.455351426857604, 28.378148211285271 ], [ -81.455147882828427, 28.378134640934658 ], [ -81.454835783024222, 28.378134640934658 ], [ -81.454360846956178, 28.378175350150332 ], [ -81.453980898101719, 28.378351754434959 ], [ -81.453899480490037, 28.379152361146446 ], [ -81.453913050091984, 28.379898688648936 ], [ -81.454170872528948, 28.380889268417029 ], [ -81.454035176509493, 28.381961267289611 ], [ -81.453695937501422, 28.382259797422172 ], [ -81.452945708433049, 28.382344525708486 ], [ -81.4528151089484, 28.38251512548139 ], [ -81.452488119104814, 28.382832544415994 ], [ -81.452501812530272, 28.383019695670061 ], [ -81.452800343773063, 28.383358935541647 ], [ -81.453600949247274, 28.383413213344355 ], [ -81.455297149490363, 28.383752452872468 ], [ -81.456328438197616, 28.38388814911217 ], [ -81.456911931081251, 28.383671035045261 ] ] ] ] } },
{ "type": "Feature", "properties": { "OBJECTID": 7375033, "PERMANENT_IDENTIFIER": "112032855", "FDATE": 1373414400000, "RESOLUTION": 2, "GNIS_ID": null, "GNIS_NAME": null, "AREASQKM": 0.00563728, "ELEVATION": null, "REACHCODE": "03090101030194", "FTYPE": 436, "FCODE": 43600, "VISIBILITYFILTER": 5000000, "SHAPE_Length": 617.97449664504188, "SHAPE_Area": 7307.7447471923642, "GLOBALID": "{7E5D1753-4CC0-11E1-BCF4-0021280458E6}" }, "geometry": { "type": "Polygon", "coordinates": [ [ [ -81.435096102533223, 28.366313788725748 ], [ -81.435332503499779, 28.366313788725748 ], [ -81.435506636839676, 28.366302788767701 ], [ -81.435506703433845, 28.366286321789911 ], [ -81.434934302641068, 28.365796522109687 ], [ -81.434859702607184, 28.365790988226784 ], [ -81.433503503042942, 28.367045589183633 ], [ -81.433509702543645, 28.367128188978402 ], [ -81.433683902477696, 28.367227188705357 ], [ -81.433733702427759, 28.367221722650541 ], [ -81.43378343578371, 28.367194189111839 ], [ -81.43375850251158, 28.367089722376885 ], [ -81.433795902419746, 28.366913588690874 ], [ -81.433895435725759, 28.366775989195467 ], [ -81.434019902303902, 28.366638388606052 ], [ -81.434243835593875, 28.366489788815116 ], [ -81.43459223650251, 28.366379922126896 ], [ -81.435096102533223, 28.366313788725748 ] ] ] } },
{ "type": "Feature", "properties": { "OBJECTID": 7479156, "PERMANENT_IDENTIFIER": "112032835", "FDATE": 1069286400000, "RESOLUTION": 2, "GNIS_ID": null, "GNIS_NAME": null, "AREASQKM": 0.004, "ELEVATION": null, "REACHCODE": "03090101027780", "FTYPE": 436, "FCODE": 43613, "VISIBILITYFILTER": 5000000, "SHAPE_Length": 423.64514723612194, "SHAPE_Area": 5237.2433835985394, "GLOBALID": "{ADD9AF28-4CC0-11E1-BCF4-0021280458E6}" }, "geometry": { "type": "Polygon", "coordinates": [ [ [ -81.436234503795049, 28.367364788531258 ], [ -81.436315436517958, 28.3680195887978 ], [ -81.436402503187892, 28.368069122591237 ], [ -81.436502036493891, 28.368063588826868 ], [ -81.436545636943308, 28.368041722031514 ], [ -81.436427303271685, 28.366676922209365 ], [ -81.436390036551828, 28.366632922520886 ], [ -81.436215836617777, 28.366561389111279 ], [ -81.436147437125115, 28.366555922106574 ], [ -81.436141236583893, 28.366599921826985 ], [ -81.436147437125115, 28.366676989047576 ], [ -81.436234503795049, 28.367364788531258 ] ] ] } },
{ "type": "Feature", "properties": { "OBJECTID": 8017049, "PERMANENT_IDENTIFIER": "{32FEA0D7-9E0F-455E-A166-5120BE394895}", "FDATE": 1373414400000, "RESOLUTION": 2, "GNIS_ID": null, "GNIS_NAME": null, "AREASQKM": 0.00291757, "ELEVATION": null, "REACHCODE": "03090101045726", "FTYPE": 436, "FCODE": 43600, "VISIBILITYFILTER": 5000000, "SHAPE_Length": 310.47862896560281, "SHAPE_Area": 3782.5632151398445, "GLOBALID": "{957B14B0-FBB9-4065-BE90-9EA120BDBF8F}" }, "geometry": { "type": "Polygon", "coordinates": [ [ [ -81.427231193086399, 28.373444619010922 ], [ -81.427248935229073, 28.373329291037468 ], [ -81.427222320454248, 28.373184392057087 ], [ -81.426763965293091, 28.373222834476174 ], [ -81.426698909035693, 28.373107506261622 ], [ -81.426311524526341, 28.373151863986312 ], [ -81.42612522526467, 28.373163691794232 ], [ -81.426137055094017, 28.373335205389466 ], [ -81.42634700985225, 28.37340617575666 ], [ -81.426793537265127, 28.373415048193667 ], [ -81.427231193086399, 28.373444619010922 ] ] ] } },
{ "type": "Feature", "properties": { "OBJECTID": 8017050, "PERMANENT_IDENTIFIER": "{14E049FA-E165-4AD4-BE4A-D9DBC089BAB1}", "FDATE": 1373414400000, "RESOLUTION": 2, "GNIS_ID": null, "GNIS_NAME": null, "AREASQKM": 0.00784099, "ELEVATION": null, "REACHCODE": "03090101045727", "FTYPE": 436, "FCODE": 43600, "VISIBILITYFILTER": 5000000, "SHAPE_Length": 697.77884612951664, "SHAPE_Area": 10165.965432676529, "GLOBALID": "{E9B6E19E-4E0C-4605-88FC-9F2A2348A4D2}" }, "geometry": { "type": "Polygon", "coordinates": [ [ [ -81.42739102532903, 28.375137977894674 ], [ -81.427511713728762, 28.37505751932715 ], [ -81.427928634831986, 28.374889286997043 ], [ -81.427950578650368, 28.374827114868182 ], [ -81.428034694366303, 28.374768599297685 ], [ -81.428096866263871, 28.374702770501123 ], [ -81.428129780430638, 28.374655226489615 ], [ -81.428224867535491, 28.374629625718335 ], [ -81.428308983251426, 28.374640597347398 ], [ -81.428411385309261, 28.374625968203219 ], [ -81.428440643040076, 28.374614997488145 ], [ -81.428850250230866, 28.374318763033148 ], [ -81.428934365946816, 28.374307792286295 ], [ -81.429120883720586, 28.374428479594435 ], [ -81.429241571079771, 28.374337048829418 ], [ -81.429292772628969, 28.374212703887913 ], [ -81.429230599690854, 28.374113959702523 ], [ -81.428612531948446, 28.374139560598252 ], [ -81.428411385309261, 28.374285848042643 ], [ -81.427968863951719, 28.374560138402632 ], [ -81.427654343865797, 28.374699112988541 ], [ -81.427270337969844, 28.374827114868182 ], [ -81.427153307046609, 28.374830772376363 ], [ -81.427007018392558, 28.374596710824274 ], [ -81.426959475360405, 28.374607682456759 ], [ -81.42688998850987, 28.374673512227844 ], [ -81.426875359644441, 28.374801514138412 ], [ -81.426879016080406, 28.374940487492541 ], [ -81.426900959898774, 28.375046547741189 ], [ -81.427003360916075, 28.375119691320965 ], [ -81.427266680493361, 28.375167235124337 ], [ -81.42739102532903, 28.375137977894674 ] ] ] } },
{ "type": "Feature", "properties": { "OBJECTID": 8017051, "PERMANENT_IDENTIFIER": "{F1251E59-E98F-4CDC-BAD9-025AA138D5B6}", "FDATE": 1373414400000, "RESOLUTION": 2, "GNIS_ID": null, "GNIS_NAME": null, "AREASQKM": 0.00795747, "ELEVATION": null, "REACHCODE": "03090101045728", "FTYPE": 436, "FCODE": 43600, "VISIBILITYFILTER": 5000000, "SHAPE_Length": 489.53257583537538, "SHAPE_Area": 10316.875865381875, "GLOBALID": "{75C3A397-7D5B-4063-A992-8E14782C59AA}" }, "geometry": { "type": "Polygon", "coordinates": [ [ [ -81.430843427159175, 28.374702769585607 ], [ -81.430920228962677, 28.374388250506964 ], [ -81.431040916321876, 28.374157845509867 ], [ -81.431274978168346, 28.373960356945091 ], [ -81.431622412421035, 28.373828698308007 ], [ -81.431702870660473, 28.373762868012651 ], [ -81.431706528136985, 28.373671437589469 ], [ -81.431626068856986, 28.373609265662367 ], [ -81.430836113246755, 28.373612923212569 ], [ -81.430280217401901, 28.374578425072787 ], [ -81.430305818696766, 28.374691797962953 ], [ -81.430481364041071, 28.37476494178734 ], [ -81.43068982459269, 28.374757627681838 ], [ -81.430843427159175, 28.374702769585607 ] ] ] } },
{ "type": "Feature", "properties": { "OBJECTID": 8017052, "PERMANENT_IDENTIFIER": "{F1B76F3F-2BE4-48E0-9D67-D538A6C1DE09}", "FDATE": 1373414400000, "RESOLUTION": 2, "GNIS_ID": null, "GNIS_NAME": null, "AREASQKM": 0.01870659, "ELEVATION": null, "REACHCODE": "03090101045729", "FTYPE": 436, "FCODE": 43600, "VISIBILITYFILTER": 5000000, "SHAPE_Length": 723.29326680933821, "SHAPE_Area": 24252.609154854028, "GLOBALID": "{D1C81AEE-909C-47AF-A6A8-C79C60CBFA3F}" }, "geometry": { "type": "Polygon", "coordinates": [ [ [ -81.43045210631027, 28.373298402733706 ], [ -81.430682510680256, 28.372790050897226 ], [ -81.429120883720586, 28.372310957388869 ], [ -81.428959966201148, 28.372299986434374 ], [ -81.428751505649515, 28.372446273668874 ], [ -81.428586931694113, 28.373192343483854 ], [ -81.428224867535491, 28.373203315261588 ], [ -81.42816635311442, 28.373422747831366 ], [ -81.428312640727924, 28.37344103469761 ], [ -81.428561331439795, 28.373433719585272 ], [ -81.428916079604917, 28.37334228979396 ], [ -81.42940248755869, 28.373331318030601 ], [ -81.430261932100549, 28.373349603997042 ], [ -81.43045210631027, 28.373298402733706 ] ] ] } },
{ "type": "Feature", "properties": { "OBJECTID": 8017053, "PERMANENT_IDENTIFIER": "{C7CAAC45-B291-49E3-AD30-10B6B1F4DC4F}", "FDATE": 1373414400000, "RESOLUTION": 2, "GNIS_ID": null, "GNIS_NAME": null, "AREASQKM": 0.00080551, "ELEVATION": null, "REACHCODE": "03090101045730", "FTYPE": 436, "FCODE": 43600, "VISIBILITYFILTER": 5000000, "SHAPE_Length": 130.82392281339006, "SHAPE_Area": 1044.3756865745611, "GLOBALID": "{9A08E51C-DCB2-4F18-80BF-359584C56ADB}" }, "geometry": { "type": "Polygon", "coordinates": [ [ [ -81.428429672691692, 28.375660957553841 ], [ -81.428363842277093, 28.375383009804736 ], [ -81.428122466518204, 28.37545615406804 ], [ -81.428177324503324, 28.375741416579185 ], [ -81.428429672691692, 28.375660957553841 ] ] ] } },
{ "type": "Feature", "properties": { "OBJECTID": 8017054, "PERMANENT_IDENTIFIER": "{25D1CDB7-FE7D-409B-8069-73AF558D467D}", "FDATE": 1373414400000, "RESOLUTION": 2, "GNIS_ID": null, "GNIS_NAME": null, "AREASQKM": 0.02271893, "ELEVATION": null, "REACHCODE": "03090101045731", "FTYPE": 436, "FCODE": 43600, "VISIBILITYFILTER": 5000000, "SHAPE_Length": 743.15553529716249, "SHAPE_Area": 29455.550326740657, "GLOBALID": "{82DBC9FA-BF9B-404A-BEB2-418267356783}" }, "geometry": { "type": "Polygon", "coordinates": [ [ [ -81.434321152461635, 28.375416057204674 ], [ -81.434397526605721, 28.375377870094031 ], [ -81.434435713157512, 28.375252892834286 ], [ -81.434473900749822, 28.374853661325222 ], [ -81.434425298454201, 28.374721741957437 ], [ -81.434341980827725, 28.374648838885797 ], [ -81.43420311846377, 28.374593293175195 ], [ -81.432130584180811, 28.374621065576363 ], [ -81.431863273115695, 28.374756457644636 ], [ -81.431807728378217, 28.374923092601893 ], [ -81.431825085523357, 28.375082785830621 ], [ -81.431873687819007, 28.375363983535699 ], [ -81.431991721816857, 28.375436887031331 ], [ -81.434321152461635, 28.375416057204674 ] ] ] } },
{ "type": "Feature", "properties": { "OBJECTID": 8017055, "PERMANENT_IDENTIFIER": "{9CF3B689-B722-4504-84D2-AD3EE372350E}", "FDATE": 1373414400000, "RESOLUTION": 2, "GNIS_ID": null, "GNIS_NAME": null, "AREASQKM": 0.00758065, "ELEVATION": null, "REACHCODE": "03090101045732", "FTYPE": 436, "FCODE": 43600, "VISIBILITYFILTER": 5000000, "SHAPE_Length": 497.66881441804696, "SHAPE_Area": 9828.1372980397828, "GLOBALID": "{745D3CFF-8003-4370-992F-6763696D638A}" }, "geometry": { "type": "Polygon", "coordinates": [ [ [ -81.434970337368838, 28.373471972398654 ], [ -81.435018939664459, 28.373468501612393 ], [ -81.435123086697558, 28.373399069383645 ], [ -81.435261950102046, 28.373371297578078 ], [ -81.435362625914223, 28.373388655186304 ], [ -81.435421642913155, 28.373371297578078 ], [ -81.435491074615413, 28.373287979371103 ], [ -81.435484131133023, 28.37321160543501 ], [ -81.435435528837388, 28.373124815389584 ], [ -81.435352210170379, 28.373044968704814 ], [ -81.435237649474502, 28.373031081841045 ], [ -81.435123086697558, 28.373100514310625 ], [ -81.435071012140483, 28.37311092853626 ], [ -81.434963393886449, 28.373138702241075 ], [ -81.434845360929117, 28.373135229612839 ], [ -81.434529446527833, 28.373027611040353 ], [ -81.434400997826657, 28.373013725089876 ], [ -81.433748341698518, 28.373159530683832 ], [ -81.433578234184097, 28.373256734912186 ], [ -81.433540046591773, 28.37333658143756 ], [ -81.433536574330319, 28.373423370394221 ], [ -81.433616421776421, 28.373492802607053 ], [ -81.434970337368838, 28.373471972398654 ] ] ] } },
{ "type": "Feature", "properties": { "OBJECTID": 8017056, "PERMANENT_IDENTIFIER": "{3C5E9157-156B-4160-B984-FA614897F7E2}", "FDATE": 1373414400000, "RESOLUTION": 2, "GNIS_ID": null, "GNIS_NAME": null, "AREASQKM": 0.01373651, "ELEVATION": null, "REACHCODE": "03090101045733", "FTYPE": 436, "FCODE": 43600, "VISIBILITYFILTER": 5000000, "SHAPE_Length": 568.26106488918845, "SHAPE_Area": 17808.385298894977, "GLOBALID": "{44861167-0A8B-4AE5-B059-3ACD11F56F66}" }, "geometry": { "type": "Polygon", "coordinates": [ [ [ -81.430670857741674, 28.371646797399265 ], [ -81.430722941663561, 28.371614245052754 ], [ -81.430766343371005, 28.371533951358263 ], [ -81.430820595765425, 28.37140157466451 ], [ -81.430885699887384, 28.371288728362678 ], [ -81.430918250907823, 28.37119758420631 ], [ -81.430885699887384, 28.37114116050412 ], [ -81.430779364611581, 28.371050016220952 ], [ -81.430872678646764, 28.370665905806135 ], [ -81.430920421461451, 28.370559570172553 ], [ -81.431022416670544, 28.37044455309967 ], [ -81.431013736537153, 28.370357748888306 ], [ -81.430807575565339, 28.370225371642562 ], [ -81.430694729669256, 28.370199330332806 ], [ -81.430566691978953, 28.370299156692127 ], [ -81.430434315262502, 28.370459744973804 ], [ -81.430223814223993, 28.370563909918797 ], [ -81.430100118681437, 28.370720158975637 ], [ -81.429991611811516, 28.370891596868034 ], [ -81.429796301526707, 28.37108039704701 ], [ -81.429720348798824, 28.371193243570438 ], [ -81.429661754256642, 28.371332131011947 ], [ -81.429577120354821, 28.371410255003433 ], [ -81.429577120354821, 28.37149706018479 ], [ -81.429637883369566, 28.371533951358263 ], [ -81.42978545188025, 28.371573013286884 ], [ -81.429883107022661, 28.371586034231754 ], [ -81.42997642105783, 28.371668498652866 ], [ -81.430147861496096, 28.371735772236178 ], [ -81.430293258412647, 28.37174662239665 ], [ -81.43045384608287, 28.37169236975204 ], [ -81.430670857741674, 28.371646797399265 ] ] ] } },
{ "type": "Feature", "properties": { "OBJECTID": 8017057, "PERMANENT_IDENTIFIER": "{BE92B2F6-9257-466D-8003-ED31F8369056}", "FDATE": 1373414400000, "RESOLUTION": 2, "GNIS_ID": null, "GNIS_NAME": null, "AREASQKM": 0.00637066, "ELEVATION": null, "REACHCODE": "03090101045734", "FTYPE": 436, "FCODE": 43600, "VISIBILITYFILTER": 5000000, "SHAPE_Length": 355.96844382811872, "SHAPE_Area": 8259.0819548634481, "GLOBALID": "{76FDBD37-DD62-4DC1-BAE4-0F030C952C15}" }, "geometry": { "type": "Polygon", "coordinates": [ [ [ -81.433910231076581, 28.371157130498666 ], [ -81.433995843080211, 28.371114324718711 ], [ -81.434038649602286, 28.371005881928305 ], [ -81.43403008808977, 28.37089173145468 ], [ -81.433941621901795, 28.370788996014937 ], [ -81.433836032688774, 28.370740482505937 ], [ -81.433359455698834, 28.370654869676947 ], [ -81.433213914148084, 28.370663430138944 ], [ -81.43286860986818, 28.370980197876438 ], [ -81.432802972992889, 28.371142861602088 ], [ -81.432848632658789, 28.371259865581919 ], [ -81.432971343856309, 28.371328355276979 ], [ -81.433211059963725, 28.371302672218743 ], [ -81.433910231076581, 28.371157130498666 ] ] ] } },
{ "type": "Feature", "properties": { "OBJECTID": 8017058, "PERMANENT_IDENTIFIER": "{96B29183-8934-47FD-BC82-B2394638C736}", "FDATE": 1373414400000, "RESOLUTION": 2, "GNIS_ID": null, "GNIS_NAME": null, "AREASQKM": 0.01503481, "ELEVATION": null, "REACHCODE": "03090101045735", "FTYPE": 436, "FCODE": 43600, "VISIBILITYFILTER": 5000000, "SHAPE_Length": 942.36671218740707, "SHAPE_Area": 19491.201271171118, "GLOBALID": "{B8CF16AB-5B97-459A-B1C9-AEA32523B00D}" }, "geometry": { "type": "Polygon", "coordinates": [ [ [ -81.435034610104253, 28.370860339801105 ], [ -81.435077416626342, 28.370903145683549 ], [ -81.43515732234232, 28.370848925567632 ], [ -81.43522866550525, 28.370746190086436 ], [ -81.435325694246274, 28.370612063694328 ], [ -81.435431282418747, 28.370546427332481 ], [ -81.435825101589444, 28.37047508333524 ], [ -81.435847930902113, 28.370349518003263 ], [ -81.435896444752359, 28.370312418585755 ], [ -81.435947812786964, 28.37020397589124 ], [ -81.435927835577544, 28.369910040002299 ], [ -81.435862199742814, 28.369847256104975 ], [ -81.435802271236213, 28.369830134133004 ], [ -81.435545432103751, 28.370109802123334 ], [ -81.435451258587619, 28.370178292560823 ], [ -81.435282887724185, 28.370144046889838 ], [ -81.433901669564065, 28.36931360429568 ], [ -81.433801787679215, 28.369310751382478 ], [ -81.433716174635066, 28.369364971368938 ], [ -81.433151131457151, 28.36993572339766 ], [ -81.43304554224413, 28.370058434495132 ], [ -81.433108324935063, 28.370181146366257 ], [ -81.433228182988771, 28.370215391109667 ], [ -81.43339084652402, 28.370112655930615 ], [ -81.433707614163069, 28.370044165450775 ], [ -81.433818909663728, 28.369992797790765 ], [ -81.433867423513973, 28.369852964649095 ], [ -81.433887400723378, 28.369770204920425 ], [ -81.434021526577226, 28.369784474001616 ], [ -81.434201313137535, 28.369864378989757 ], [ -81.434418198891734, 28.369981383463948 ], [ -81.434712136177581, 28.370206830611526 ], [ -81.434880507040987, 28.370406593089346 ], [ -81.434986097294541, 28.370652015884286 ], [ -81.435034610104253, 28.370860339801105 ] ] ] } },
{ "type": "Feature", "properties": { "OBJECTID": 8017059, "PERMANENT_IDENTIFIER": "{0D5D785F-62F1-4BD1-9C2B-30231CCB30DD}", "FDATE": 1373414400000, "RESOLUTION": 2, "GNIS_ID": null, "GNIS_NAME": null, "AREASQKM": 0.01207924, "ELEVATION": null, "REACHCODE": "03090101045736", "FTYPE": 436, "FCODE": 43600, "VISIBILITYFILTER": 5000000, "SHAPE_Length": 660.4180267020198, "SHAPE_Area": 15658.822470841882, "GLOBALID": "{1C93DD07-3B90-4DAD-86AD-3F5261DD358F}" }, "geometry": { "type": "Polygon", "coordinates": [ [ [ -81.43036749634075, 28.366926290666793 ], [ -81.430360817153968, 28.366779347582991 ], [ -81.430330761333678, 28.36663574346036 ], [ -81.430390875055295, 28.366475439634204 ], [ -81.430344119707257, 28.366422005582081 ], [ -81.430260628311643, 28.366482118888815 ], [ -81.429980098304455, 28.366605685481339 ], [ -81.429763022132562, 28.366806063606877 ], [ -81.429559304334248, 28.367119989888408 ], [ -81.429315510374664, 28.367500708996456 ], [ -81.429228680946437, 28.367844691775048 ], [ -81.429208643386076, 28.368195353500894 ], [ -81.429332209902441, 28.368539335858753 ], [ -81.429485832239067, 28.36862282717636 ], [ -81.429659494217105, 28.368606128918085 ], [ -81.429753003872648, 28.368462524520989 ], [ -81.429776380506127, 28.36789144686087 ], [ -81.429846512487643, 28.367517406513088 ], [ -81.430043551099189, 28.367233538301338 ], [ -81.43036749634075, 28.366926290666793 ] ] ] } },
{ "type": "Feature", "properties": { "OBJECTID": 8017060, "PERMANENT_IDENTIFIER": "{ED00DC1C-DA73-48D1-97D5-E610CEB4D4C7}", "FDATE": 1373414400000, "RESOLUTION": 2, "GNIS_ID": null, "GNIS_NAME": null, "AREASQKM": 0.00676438, "ELEVATION": null, "REACHCODE": "03090101045737", "FTYPE": 436, "FCODE": 43600, "VISIBILITYFILTER": 5000000, "SHAPE_Length": 405.59349735356687, "SHAPE_Area": 8768.7649210109903, "GLOBALID": "{8EC00402-DCE6-43FC-8EE8-BBE2995A3289}" }, "geometry": { "type": "Polygon", "coordinates": [ [ [ -81.43175010673518, 28.366675818005675 ], [ -81.43184027731759, 28.366689177404854 ], [ -81.431930446859482, 28.366615704808641 ], [ -81.432080731163495, 28.366475439634204 ], [ -81.432107447910653, 28.366341854453406 ], [ -81.43194380627358, 28.366161514192605 ], [ -81.431833598130808, 28.366108080897963 ], [ -81.431653256965959, 28.366161514192605 ], [ -81.431519672189694, 28.366174872740949 ], [ -81.431018725896976, 28.366214948375895 ], [ -81.430781612164722, 28.366248344726799 ], [ -81.430711480183191, 28.366335175189953 ], [ -81.430768253791143, 28.366475439634204 ], [ -81.430718159369988, 28.366669138763211 ], [ -81.430758234490696, 28.366729252845595 ], [ -81.430811667984983, 28.366722573606502 ], [ -81.430965292402689, 28.366679158084523 ], [ -81.431192386834496, 28.366645761869211 ], [ -81.431426162534152, 28.36664910103341 ], [ -81.43175010673518, 28.366675818005675 ] ] ] } },
{ "type": "Feature", "properties": { "OBJECTID": 8018039, "PERMANENT_IDENTIFIER": "{3EB0E67B-C5D6-4874-9692-0B7C06554925}", "FDATE": 1373414400000, "RESOLUTION": 2, "GNIS_ID": null, "GNIS_NAME": null, "AREASQKM": 0.00198825, "ELEVATION": null, "REACHCODE": "03090101045631", "FTYPE": 436, "FCODE": 43600, "VISIBILITYFILTER": 5000000, "SHAPE_Length": 261.48162340197496, "SHAPE_Area": 2577.8040543807288, "GLOBALID": "{FD2FE9ED-183E-4636-B2A1-CA93625A3669}" }, "geometry": { "type": "Polygon", "coordinates": [ [ [ -81.424073511023551, 28.375162900143991 ], [ -81.424100651267963, 28.374742243247969 ], [ -81.423205057539619, 28.375135762339216 ], [ -81.424073511023551, 28.375162900143991 ] ] ] } },
{ "type": "Feature", "properties": { "OBJECTID": 8018209, "PERMANENT_IDENTIFIER": "{E9F3E4D7-675E-41D1-87A3-D1DD3045A2FD}", "FDATE": 1373414400000, "RESOLUTION": 2, "GNIS_ID": null, "GNIS_NAME": null, "AREASQKM": 0.00371631, "ELEVATION": null, "REACHCODE": "03090101045863", "FTYPE": 436, "FCODE": 43600, "VISIBILITYFILTER": 5000000, "SHAPE_Length": 317.98464576324909, "SHAPE_Area": 4816.8290728350976, "GLOBALID": "{60ECCAD0-B2D5-499C-A106-BCFC8DEEA958}" }, "geometry": { "type": "Polygon", "coordinates": [ [ [ -81.442541705973227, 28.358949068066156 ], [ -81.442577098691615, 28.358854689274711 ], [ -81.442435528858596, 28.358812555204523 ], [ -81.442209692432215, 28.358790646213958 ], [ -81.442063067685723, 28.358755253208528 ], [ -81.441950148952273, 28.358650761684675 ], [ -81.441934980049808, 28.358551326343139 ], [ -81.44192149785269, 28.358488967918277 ], [ -81.441822062356877, 28.358448520353772 ], [ -81.441638359227156, 28.35896255113623 ], [ -81.441628246278682, 28.359009741410137 ], [ -81.441658583043093, 28.359102436170268 ], [ -81.441778242354829, 28.359188387955903 ], [ -81.441906329990758, 28.359198500464707 ], [ -81.442541705973227, 28.358949068066156 ] ] ] } },
{ "type": "Feature", "properties": { "OBJECTID": 8018210, "PERMANENT_IDENTIFIER": "{DED3D49E-61D8-49E3-A499-4F0AC5A95B91}", "FDATE": 1373414400000, "RESOLUTION": 2, "GNIS_ID": null, "GNIS_NAME": null, "AREASQKM": 0.00127429, "ELEVATION": null, "REACHCODE": "03090101045864", "FTYPE": 436, "FCODE": 43600, "VISIBILITYFILTER": 5000000, "SHAPE_Length": 155.0819696989885, "SHAPE_Area": 1651.8208604108397, "GLOBALID": "{F5A31743-1490-4D86-9474-2E2FE4B97620}" }, "geometry": { "type": "Polygon", "coordinates": [ [ [ -81.4292034126224, 28.364445986099948 ], [ -81.429233903385821, 28.364427475189846 ], [ -81.429238258019993, 28.364402430473604 ], [ -81.429221924760142, 28.36435124961406 ], [ -81.42915223396497, 28.364266313761288 ], [ -81.429078186454575, 28.364218400658967 ], [ -81.42900849461887, 28.364217311995098 ], [ -81.428787442567113, 28.364345805385803 ], [ -81.428751508771114, 28.364411141600307 ], [ -81.428765663153087, 28.364508055354531 ], [ -81.42881684389161, 28.364585369477766 ], [ -81.428870201426932, 28.364591903269389 ], [ -81.4292034126224, 28.364445986099948 ] ] ] } },
{ "type": "Feature", "properties": { "OBJECTID": 8018211, "PERMANENT_IDENTIFIER": "{6B88DC9D-8AB7-4891-92FD-24EDCDB9BCE2}", "FDATE": 1373414400000, "RESOLUTION": 2, "GNIS_ID": null, "GNIS_NAME": null, "AREASQKM": 0.00074627, "ELEVATION": null, "REACHCODE": "03090101045865", "FTYPE": 436, "FCODE": 43600, "VISIBILITYFILTER": 5000000, "SHAPE_Length": 117.55128955460637, "SHAPE_Area": 967.30622079528598, "GLOBALID": "{B31BBABE-8BEB-4024-A666-7DA19F996F6F}" }, "geometry": { "type": "Polygon", "coordinates": [ [ [ -81.429829151180371, 28.360900488633462 ], [ -81.429778619734989, 28.360961481336378 ], [ -81.429772992527916, 28.361043074084044 ], [ -81.429885534588124, 28.361175311704276 ], [ -81.429958688279953, 28.3612090740654 ], [ -81.430116246956132, 28.361076837402894 ], [ -81.430015126835997, 28.360923550896768 ], [ -81.429829151180371, 28.360900488633462 ] ] ] } },
{ "type": "Feature", "properties": { "OBJECTID": 8018212, "PERMANENT_IDENTIFIER": "{2364789B-1A26-4261-9586-16F431345CAA}", "FDATE": 1373414400000, "RESOLUTION": 2, "GNIS_ID": null, "GNIS_NAME": null, "AREASQKM": 0.00294408, "ELEVATION": null, "REACHCODE": "03090101045866", "FTYPE": 436, "FCODE": 43600, "VISIBILITYFILTER": 5000000, "SHAPE_Length": 396.36142536580661, "SHAPE_Area": 3816.0590844240678, "GLOBALID": "{67B2904C-1BFD-4BFA-A37D-0D34627B530C}" }, "geometry": { "type": "Polygon", "coordinates": [ [ [ -81.427107065722296, 28.360564465935123 ], [ -81.427357500368913, 28.360579787413972 ], [ -81.427662434016469, 28.360684387831682 ], [ -81.428023233926467, 28.360838520736579 ], [ -81.428327901197363, 28.36102012080794 ], [ -81.428458633870349, 28.361031121313552 ], [ -81.428651434387518, 28.360948521351357 ], [ -81.428695033796387, 28.3608163878318 ], [ -81.428663901023569, 28.36075598746643 ], [ -81.427533399494735, 28.360545074413462 ], [ -81.427108551604633, 28.360516938479421 ], [ -81.427107065722296, 28.360564465935123 ] ] ] } }
]
}
