{
  "type": "FeatureCollection",
  "crs": {
    "type": "name",
    "properties": {
      "name": "EPSG:4326"
    }
  },
  "features": [
    {
      "type": "Feature",
      "geometry": {
        "type": "Point",
        "coordinates": [
          -81.450905,
          28.3041775
        ]
      },
      "properties": {
        "agency": "USGS",
        "site_no": "02263800",
        "station_nm": "SHINGLE CREEK AT AIRPORT NEAR KISSIMMEE, FL",
        "site_tp": "ST",
        "dist_km": 7.19,
        "huc": "03090101",
        "is_shingle": true
      }
    },
    {
      "type": "Feature",
      "geometry": {
        "type": "Point",
        "coordinates": [
          -81.5069722,
          28.3805
        ]
      },
      "properties": {
        "agency": "USGS",
        "site_no": "02264030",
        "station_nm": "LK BUENA VIS TR AT HOTEL PL BLVD AT LK BUENA VISTA",
        "site_tp": "ST",
        "dist_km": 7.4,
        "huc": "03090101",
        "is_shingle": false
      }
    },
    {
      "type": "Feature",
      "geometry": {
        "type": "Point",
        "coordinates": [
          -81.515,
          28.37444444
        ]
      },
      "properties": {
        "agency": "USGS",
        "site_no": "02264051",
        "station_nm": "BLACK LK OUTLET AT S-101A, AT LAKE BUENA VISTA, FL",
        "site_tp": "ST",
        "dist_km": 8.07,
        "huc": "03090101",
        "is_shingle": false
      }
    },
    {
      "type": "Feature",
      "geometry": {
        "type": "Point",
        "coordinates": [
          -81.519517,
          28.390564
        ]
      },
      "properties": {
        "agency": "USGS",
        "site_no": "02264000",
        "station_nm": "CYPRESS CREEK AT VINELAND, FL",
        "site_tp": "ST",
        "dist_km": 8.87,
        "huc": "030901010503",
        "is_shingle": false
      }
    },
    {
      "type": "Feature",
      "geometry": {
        "type": "Point",
        "coordinates": [
          -81.5250729,
          28.38945214
        ]
      },
      "properties": {
        "agency": "USGS",
        "site_no": "02264003",
        "station_nm": "CYPRESS CREEK CANAL AT S-103A NEAR VINELAND, FL",
        "site_tp": "ST",
        "dist_km": 9.35,
        "huc": "03090101",
        "is_shingle": false
      }
    },
    {
      "type": "Feature",
      "geometry": {
        "type": "Point",
        "coordinates": [
          -81.52535068,
          28.38917437
        ]
      },
      "properties": {
        "agency": "USGS",
        "site_no": "02264004",
        "station_nm": "LATERAL 103 BELOW S-103A NR VINELAND",
        "site_tp": "ST",
        "dist_km": 9.37,
        "huc": "03090101",
        "is_shingle": false
      }
    },
    {
      "type": "Feature",
      "geometry": {
        "type": "Point",
        "coordinates": [
          -81.5289619,
          28.37111947
        ]
      },
      "properties": {
        "agency": "USGS",
        "site_no": "02264060",
        "station_nm": "LATERAL 101 AT S-101, NEAR LAKE BUENA VISTA, FL",
        "site_tp": "ST",
        "dist_km": 9.4,
        "huc": "03090101",
        "is_shingle": false
      }
    },
    {
      "type": "Feature",
      "geometry": {
        "type": "Point",
        "coordinates": [
          -81.5289619,
          28.3708417
        ]
      },
      "properties": {
        "agency": "USGS",
        "site_no": "02264061",
        "station_nm": "LATERAL 101 BELOW S-101 NR BUENA VISTA,FL",
        "site_tp": "ST",
        "dist_km": 9.4,
        "huc": "03090101",
        "is_shingle": false
      }
    },
    {
      "type": "Feature",
      "geometry": {
        "type": "Point",
        "coordinates": [
          -81.5206284,
          28.32528785
        ]
      },
      "properties": {
        "agency": "USGS",
        "site_no": "02264100",
        "station_nm": "BONNET CREEK NEAR VINELAND, FL",
        "site_tp": "ST",
        "dist_km": 9.74,
        "huc": "03090101",
        "is_shingle": false
      }
    },
    {
      "type": "Feature",
      "geometry": {
        "type": "Point",
        "coordinates": [
          -81.5245174,
          28.30806625
        ]
      },
      "properties": {
        "agency": "USGS",
        "site_no": "02264140",
        "station_nm": "BONNET CREEK NEAR KISSIMMEE, FL",
        "site_tp": "ST",
        "dist_km": 11.09,
        "huc": "03090101",
        "is_shingle": false
      }
    },
    {
      "type": "Feature",
      "geometry": {
        "type": "Point",
        "coordinates": [
          -81.5245174,
          28.30806625
        ]
      },
      "properties": {
        "agency": "USGS",
        "site_no": "02264141",
        "station_nm": "BONNET CREEK BELOW CULVERTS NEAR KISSIMMEE, FL",
        "site_tp": "ST",
        "dist_km": 11.09,
        "huc": "03090101",
        "is_shingle": false
      }
    },
    {
      "type": "Feature",
      "geometry": {
        "type": "Point",
        "coordinates": [
          -81.4478495,
          28.26723444
        ]
      },
      "properties": {
        "agency": "USGS",
        "site_no": "02264495",
        "station_nm": "SHINGLE CREEK AT CAMPBELL, FL",
        "site_tp": "ST",
        "dist_km": 11.17,
        "huc": "03090101",
        "is_shingle": false
      }
    },
    {
      "type": "Feature",
      "geometry": {
        "type": "Point",
        "coordinates": [
          -81.5409065,
          28.3319542
        ]
      },
      "properties": {
        "agency": "USGS",
        "site_no": "02263130",
        "station_nm": "C-2 CANAL NEAR VINELAND, FL",
        "site_tp": "ST",
        "dist_km": 11.25,
        "huc": "03090101",
        "is_shingle": false
      }
    },
    {
      "type": "Feature",
      "geometry": {
        "type": "Point",
        "coordinates": [
          -81.5378509,
          28.41278456
        ]
      },
      "properties": {
        "agency": "USGS",
        "site_no": "02263869",
        "station_nm": "SOUTH LAKE OUTLET AT S-15, NEAR VINELAND, FL",
        "site_tp": "ST",
        "dist_km": 11.46,
        "huc": "03090101",
        "is_shingle": false
      }
    },
    {
      "type": "Feature",
      "geometry": {
        "type": "Point",
        "coordinates": [
          -81.5378509,
          28.41278456
        ]
      },
      "properties": {
        "agency": "USGS",
        "site_no": "02263870",
        "station_nm": "SOUTH LAKE OUTLET BELOW S-15 NEAR VINELAND, FLA.",
        "site_tp": "ST",
        "dist_km": 11.46,
        "huc": "03090101",
        "is_shingle": false
      }
    },
    {
      "type": "Feature",
      "geometry": {
        "type": "Point",
        "coordinates": [
          -81.42923779,
          28.47194903
        ]
      },
      "properties": {
        "agency": "USGS",
        "site_no": "02263692",
        "station_nm": "SHINGLE CREEK AT OAK RIDGE ROAD NR PINE CASTLE, FL",
        "site_tp": "ST",
        "dist_km": 11.69,
        "huc": "03090101",
        "is_shingle": true
      }
    },
    {
      "type": "Feature",
      "geometry": {
        "type": "Point",
        "coordinates": [
          -81.42923779,
          28.47194903
        ]
      },
      "properties": {
        "agency": "USGS",
        "site_no": "282818081254600",
        "station_nm": "SHINGLE CREEK AT OAK RIDGE ROAD RAINGAGE",
        "site_tp": "ST",
        "dist_km": 11.69,
        "huc": "03090101",
        "is_shingle": false
      }
    },
    {
      "type": "Feature",
      "geometry": {
        "type": "Point",
        "coordinates": [
          -81.3106247,
          28.37139699
        ]
      },
      "properties": {
        "agency": "USGS",
        "site_no": "02262900",
        "station_nm": "BOGGY CREEK NEAR TAFT, FL",
        "site_tp": "ST",
        "dist_km": 11.98,
        "huc": "03090101",
        "is_shingle": false
      }
    },
    {
      "type": "Feature",
      "geometry": {
        "type": "Point",
        "coordinates": [
          -81.55729559,
          28.41361778
        ]
      },
      "properties": {
        "agency": "USGS",
        "site_no": "02263851",
        "station_nm": "BAY LAKE OUTLET AT S-105A, NEAR VINELAND, FLA.",
        "site_tp": "ST",
        "dist_km": 13.22,
        "huc": "03090101",
        "is_shingle": false
      }
    },
    {
      "type": "Feature",
      "geometry": {
        "type": "Point",
        "coordinates": [
          -81.57623889,
          28.34655556
        ]
      },
      "properties": {
        "agency": "USGS",
        "site_no": "02266299",
        "station_nm": "401 CANAL NR VINELAND, FL",
        "site_tp": "ST-CA",
        "dist_km": 14.2,
        "huc": "03090101",
        "is_shingle": false
      }
    },
    {
      "type": "Feature",
      "geometry": {
        "type": "Point",
        "coordinates": [
          -81.5817405,
          28.36000857
        ]
      },
      "properties": {
        "agency": "USGS",
        "site_no": "282135081345500",
        "station_nm": "LATERAL 405 BL L-410 NR VINELAND, FLA",
        "site_tp": "ST",
        "dist_km": 14.57,
        "huc": "03090101",
        "is_shingle": false
      }
    },
    {
      "type": "Feature",
      "geometry": {
        "type": "Point",
        "coordinates": [
          -81.5811849,
          28.3486201
        ]
      },
      "properties": {
        "agency": "USGS",
        "site_no": "02266298",
        "station_nm": "REEDY CREEK ABOVE HW-192 NEAR VINELAND, FL",
        "site_tp": "ST",
        "dist_km": 14.64,
        "huc": "03090101",
        "is_shingle": false
      }
    },
    {
      "type": "Feature",
      "geometry": {
        "type": "Point",
        "coordinates": [
          -81.5828516,
          28.3800078
        ]
      },
      "properties": {
        "agency": "USGS",
        "site_no": "022662947",
        "station_nm": "CANAL 405 AT FORCE MAIN NEAR VINELAND, FL",
        "site_tp": "ST",
        "dist_km": 14.73,
        "huc": "03090101",
        "is_shingle": false
      }
    },
    {
      "type": "Feature",
      "geometry": {
        "type": "Point",
        "coordinates": [
          -81.54368439,
          28.27584517
        ]
      },
      "properties": {
        "agency": "USGS",
        "site_no": "02266496",
        "station_nm": "REEDY CREEK BELOW S-40, NEAR LOUGHMAN, FL",
        "site_tp": "ST",
        "dist_km": 14.83,
        "huc": "03090101",
        "is_shingle": false
      }
    },
    {
      "type": "Feature",
      "geometry": {
        "type": "Point",
        "coordinates": [
          -81.5439622,
          28.27584517
        ]
      },
      "properties": {
        "agency": "USGS",
        "site_no": "02266495",
        "station_nm": "REEDY CREEK AT S-40, NEAR LOUGHMAN, FL",
        "site_tp": "ST",
        "dist_km": 14.85,
        "huc": "03090101",
        "is_shingle": false
      }
    },
    {
      "type": "Feature",
      "geometry": {
        "type": "Point",
        "coordinates": [
          -81.579796,
          28.33278738
        ]
      },
      "properties": {
        "agency": "USGS",
        "site_no": "02266300",
        "station_nm": "REEDY CREEK NEAR VINELAND, FL",
        "site_tp": "ST",
        "dist_km": 14.86,
        "huc": "03090101",
        "is_shingle": false
      }
    },
    {
      "type": "Feature",
      "geometry": {
        "type": "Point",
        "coordinates": [
          -81.5843974,
          28.39459399
        ]
      },
      "properties": {
        "agency": "USGS",
        "site_no": "02266294",
        "station_nm": "10B LATERAL 405 BL S-405 NEAR VINELAND FLA",
        "site_tp": "ST",
        "dist_km": 15.13,
        "huc": "03090101",
        "is_shingle": false
      }
    },
    {
      "type": "Feature",
      "geometry": {
        "type": "Point",
        "coordinates": [
          -81.5844807,
          28.39476065
        ]
      },
      "properties": {
        "agency": "USGS",
        "site_no": "02266293",
        "station_nm": "10B LATERAL 405 AB S-405 NEAR VINELAND, FLA",
        "site_tp": "ST",
        "dist_km": 15.14,
        "huc": "03090101",
        "is_shingle": false
      }
    },
    {
      "type": "Feature",
      "geometry": {
        "type": "Point",
        "coordinates": [
          -81.536462,
          28.2636234
        ]
      },
      "properties": {
        "agency": "USGS",
        "site_no": "02266500",
        "station_nm": "REEDY CREEK NEAR LOUGHMAN, FL",
        "site_tp": "ST",
        "dist_km": 15.31,
        "huc": "03090101",
        "is_shingle": false
      }
    },
    {
      "type": "Feature",
      "geometry": {
        "type": "Point",
        "coordinates": [
          -81.5775738,
          28.298622
        ]
      },
      "properties": {
        "agency": "USGS",
        "site_no": "02266320",
        "station_nm": "REEDY CREEK AT I-4 NEAR LOUGHMAN, FL",
        "site_tp": "ST",
        "dist_km": 16.06,
        "huc": "03090101",
        "is_shingle": false
      }
    },
    {
      "type": "Feature",
      "geometry": {
        "type": "Point",
        "coordinates": [
          -81.5985,
          28.366444
        ]
      },
      "properties": {
        "agency": "USGS",
        "site_no": "02266295",
        "station_nm": "LATERAL 410 AT S-410 NEAR VINELAND, FL",
        "site_tp": "ST",
        "dist_km": 16.19,
        "huc": "030901010503",
        "is_shingle": false
      }
    },
    {
      "type": "Feature",
      "geometry": {
        "type": "Point",
        "coordinates": [
          -81.598417,
          28.366417
        ]
      },
      "properties": {
        "agency": "USGS",
        "site_no": "02266296",
        "station_nm": "LATERAL 410 BL S-410 NR VINELAND, FL",
        "site_tp": "ST",
        "dist_km": 16.19,
        "huc": "030901010503",
        "is_shingle": false
      }
    },
    {
      "type": "Feature",
      "geometry": {
        "type": "Point",
        "coordinates": [
          -81.3103472,
          28.26584547
        ]
      },
      "properties": {
        "agency": "USGS",
        "site_no": "02263500",
        "station_nm": "ST. CLOUD CANAL AT S-59 NR ST. CLOUD, FLA.",
        "site_tp": "ST",
        "dist_km": 16.44,
        "huc": "03090101",
        "is_shingle": false
      }
    },
    {
      "type": "Feature",
      "geometry": {
        "type": "Point",
        "coordinates": [
          -81.2661795,
          28.34556457
        ]
      },
      "properties": {
        "agency": "USGS",
        "site_no": "282043081155900",
        "station_nm": "JIM BRANCH NR NARCOOSSEE",
        "site_tp": "ST",
        "dist_km": 16.49,
        "huc": "03090101",
        "is_shingle": false
      }
    },
    {
      "type": "Feature",
      "geometry": {
        "type": "Point",
        "coordinates": [
          -81.6106298,
          28.39306277
        ]
      },
      "properties": {
        "agency": "USGS",
        "site_no": "02266206",
        "station_nm": "WHITTENHORSE BELOW S-411 NR VINELAND,FL",
        "site_tp": "ST",
        "dist_km": 17.62,
        "huc": "03090101",
        "is_shingle": false
      }
    },
    {
      "type": "Feature",
      "geometry": {
        "type": "Point",
        "coordinates": [
          -81.6109075,
          28.39306276
        ]
      },
      "properties": {
        "agency": "USGS",
        "site_no": "02266205",
        "station_nm": "WHITTENHORSE CREEK AT S-411, NEAR VINELAND, FL",
        "site_tp": "ST",
        "dist_km": 17.65,
        "huc": "03090101",
        "is_shingle": false
      }
    },
    {
      "type": "Feature",
      "geometry": {
        "type": "Point",
        "coordinates": [
          -81.61146309,
          28.40417345
        ]
      },
      "properties": {
        "agency": "USGS",
        "site_no": "02266026",
        "station_nm": "10B REEDY CREEK BELOW S-46 NR VINELAND FLA",
        "site_tp": "ST",
        "dist_km": 17.95,
        "huc": "03090101",
        "is_shingle": false
      }
    },
    {
      "type": "Feature",
      "geometry": {
        "type": "Point",
        "coordinates": [
          -81.61146309,
          28.4052845
        ]
      },
      "properties": {
        "agency": "USGS",
        "site_no": "02266025",
        "station_nm": "REEDY CREEK AT S-46 NEAR VINELAND, FL",
        "site_tp": "ST",
        "dist_km": 17.97,
        "huc": "03090101",
        "is_shingle": false
      }
    },
    {
      "type": "Feature",
      "geometry": {
        "type": "Point",
        "coordinates": [
          -81.6164632,
          28.38500749
        ]
      },
      "properties": {
        "agency": "USGS",
        "site_no": "02266200",
        "station_nm": "WHITTENHORSE CREEK NEAR VINELAND, FL",
        "site_tp": "ST",
        "dist_km": 18.06,
        "huc": "03090101",
        "is_shingle": false
      }
    },
    {
      "type": "Feature",
      "geometry": {
        "type": "Point",
        "coordinates": [
          -81.605194,
          28.426889
        ]
      },
      "properties": {
        "agency": "USGS",
        "site_no": "02266292",
        "station_nm": "LATERAL 405 BL S405A NR DR PHILLIPS, FL",
        "site_tp": "ST",
        "dist_km": 18.12,
        "huc": "030901010503",
        "is_shingle": false
      }
    },
    {
      "type": "Feature",
      "geometry": {
        "type": "Point",
        "coordinates": [
          -81.605278,
          28.427028
        ]
      },
      "properties": {
        "agency": "USGS",
        "site_no": "02266291",
        "station_nm": "LATERAL 405 AT S-405A, NEAR DOCTOR PHILLIPS, FL",
        "site_tp": "ST",
        "dist_km": 18.13,
        "huc": "030901010503",
        "is_shingle": false
      }
    },
    {
      "type": "Feature",
      "geometry": {
        "type": "Point",
        "coordinates": [
          -81.5909074,
          28.271123
        ]
      },
      "properties": {
        "agency": "USGS",
        "site_no": "02266480",
        "station_nm": "DAVENPORT CREEK NEAR LOUGHMAN, FL",
        "site_tp": "ST",
        "dist_km": 18.77,
        "huc": "03090101",
        "is_shingle": false
      }
    },
    {
      "type": "Feature",
      "geometry": {
        "type": "Point",
        "coordinates": [
          -81.637019,
          28.3977847
        ]
      },
      "properties": {
        "agency": "USGS",
        "site_no": "282351081381600",
        "station_nm": "INTERMITTENT STREAM AT SR545 NR VINELAND",
        "site_tp": "ST",
        "dist_km": 20.25,
        "huc": "03090101",
        "is_shingle": false
      }
    },
    {
      "type": "Feature",
      "geometry": {
        "type": "Point",
        "coordinates": [
          -81.22315,
          28.34526944
        ]
      },
      "properties": {
        "agency": "USGS",
        "site_no": "02262499",
        "station_nm": "LAKE AJAY AT LAKE NONA, FL",
        "site_tp": "ST",
        "dist_km": 20.67,
        "huc": "03090101",
        "is_shingle": false
      }
    },
    {
      "type": "Feature",
      "geometry": {
        "type": "Point",
        "coordinates": [
          -81.1897886,
          28.3819517
        ]
      },
      "properties": {
        "agency": "USGS",
        "site_no": "02262000",
        "station_nm": "MARY JANE-HART CANAL NR NARCOOSSEE, FLA.",
        "site_tp": "ST",
        "dist_km": 23.85,
        "huc": "030901010103",
        "is_shingle": false
      }
    },
    {
      "type": "Feature",
      "geometry": {
        "type": "Point",
        "coordinates": [
          -81.4409055,
          28.15001585
        ]
      },
      "properties": {
        "agency": "USGS",
        "site_no": "02266550",
        "station_nm": "REEDY CREEK AT STATE HWY 531 NEAR POINSIANNA, FL",
        "site_tp": "ST",
        "dist_km": 24.13,
        "huc": "03090101",
        "is_shingle": false
      }
    },
    {
      "type": "Feature",
      "geometry": {
        "type": "Point",
        "coordinates": [
          -81.6853534,
          28.3111212
        ]
      },
      "properties": {
        "agency": "USGS",
        "site_no": "02236350",
        "station_nm": "GREEN SWAMP RUN NEAR EVA, FL",
        "site_tp": "ST",
        "dist_km": 25.46,
        "huc": "03080102",
        "is_shingle": false
      }
    },
    {
      "type": "Feature",
      "geometry": {
        "type": "Point",
        "coordinates": [
          -81.3531245,
          28.5850004
        ]
      },
      "properties": {
        "agency": "USGS",
        "site_no": "02234263",
        "station_nm": "SUE LAKE OUTLET AT WINTER PARK",
        "site_tp": "ST",
        "dist_km": 25.48,
        "huc": "03080101",
        "is_shingle": false
      }
    },
    {
      "type": "Feature",
      "geometry": {
        "type": "Point",
        "coordinates": [
          -81.243956,
          28.5250021
        ]
      },
      "properties": {
        "agency": "USGS",
        "site_no": "02233200",
        "station_nm": "LITTLE ECONLOCKHATCHEE RIVER NEAR UNION PARK, FL",
        "site_tp": "ST",
        "dist_km": 25.51,
        "huc": "03080101",
        "is_shingle": false
      }
    },
    {
      "type": "Feature",
      "geometry": {
        "type": "Point",
        "coordinates": [
          -81.173955,
          28.33973105
        ]
      },
      "properties": {
        "agency": "USGS",
        "site_no": "02261500",
        "station_nm": "MYRTLE-MARY JANE CANAL NR NARCOOSSEE, FLA.",
        "site_tp": "ST",
        "dist_km": 25.53,
        "huc": "03090101",
        "is_shingle": false
      }
    },
    {
      "type": "Feature",
      "geometry": {
        "type": "Point",
        "coordinates": [
          -81.427015,
          28.6030555
        ]
      },
      "properties": {
        "agency": "USGS",
        "site_no": "02234815",
        "station_nm": "LAKE WEKIVA OUTLET NR MAITLAND, FLA.",
        "site_tp": "ST",
        "dist_km": 26.27,
        "huc": "03080101",
        "is_shingle": false
      }
    },
    {
      "type": "Feature",
      "geometry": {
        "type": "Point",
        "coordinates": [
          -81.3514594,
          28.13973824
        ]
      },
      "properties": {
        "agency": "USGS",
        "site_no": "02265000",
        "station_nm": "SOUTH PORT CANAL AT S-61 NR ST. CLOUD, FLA.",
        "site_tp": "ST",
        "dist_km": 26.49,
        "huc": "03090101",
        "is_shingle": false
      }
    },
    {
      "type": "Feature",
      "geometry": {
        "type": "Point",
        "coordinates": [
          -81.5981304,
          28.17557077
        ]
      },
      "properties": {
        "agency": "USGS",
        "site_no": "02266700",
        "station_nm": "HORSE CREEK AT DAVENPORT, FLA.",
        "site_tp": "ST",
        "dist_km": 26.72,
        "huc": "03090101",
        "is_shingle": false
      }
    },
    {
      "type": "Feature",
      "geometry": {
        "type": "Point",
        "coordinates": [
          -81.6753534,
          28.2555678
        ]
      },
      "properties": {
        "agency": "USGS",
        "site_no": "02236300",
        "station_nm": "GREEN SWAMP RUN NR LOUGHMAN, FLA.",
        "site_tp": "ST",
        "dist_km": 26.76,
        "huc": "03080102",
        "is_shingle": false
      }
    },
    {
      "type": "Feature",
      "geometry": {
        "type": "Point",
        "coordinates": [
          -81.27,
          28.57416667
        ]
      },
      "properties": {
        "agency": "USGS",
        "site_no": "02233460",
        "station_nm": "LITTLE ECON RIV TRIB AT BANNER DAM AT UNION PK, FL",
        "site_tp": "ST",
        "dist_km": 28.02,
        "huc": "03080101",
        "is_shingle": false
      }
    },
    {
      "type": "Feature",
      "geometry": {
        "type": "Point",
        "coordinates": [
          -81.3653468,
          28.616666
        ]
      },
      "properties": {
        "agency": "USGS",
        "site_no": "02234287",
        "station_nm": "PARK LAKE OUTLET AT MAITLAND, FL",
        "site_tp": "ST",
        "dist_km": 28.55,
        "huc": "03080101",
        "is_shingle": false
      }
    },
    {
      "type": "Feature",
      "geometry": {
        "type": "Point",
        "coordinates": [
          -81.3578466,
          28.62749896
        ]
      },
      "properties": {
        "agency": "USGS",
        "site_no": "02234299",
        "station_nm": "LAKE MINNEHAHA OUTLET AT MAITLAND,FL",
        "site_tp": "ST",
        "dist_km": 29.9,
        "huc": "03080101",
        "is_shingle": false
      }
    },
    {
      "type": "Feature",
      "geometry": {
        "type": "Point",
        "coordinates": [
          -81.1398111,
          28.27562778
        ]
      },
      "properties": {
        "agency": "USGS",
        "site_no": "02261400",
        "station_nm": "CAT ISLAND SWAMP AT NOVA RD NR NARCOOSSEE, FL",
        "site_tp": "ST",
        "dist_km": 30.44,
        "huc": "03090101",
        "is_shingle": false
      }
    },
    {
      "type": "Feature",
      "geometry": {
        "type": "Point",
        "coordinates": [
          -81.2070119,
          28.1780702
        ]
      },
      "properties": {
        "agency": "USGS",
        "site_no": "02260500",
        "station_nm": "95E BRICK-ALLIGATOR CANAL NR ASHTON,FL",
        "site_tp": "ST",
        "dist_km": 30.5,
        "huc": "03090101",
        "is_shingle": false
      }
    },
    {
      "type": "Feature",
      "geometry": {
        "type": "Point",
        "coordinates": [
          -81.32463889,
          28.6315
        ]
      },
      "properties": {
        "agency": "USGS",
        "site_no": "02234308",
        "station_nm": "HOWELL CREEK NEAR ALTAMONTE SPRINGS, FL",
        "site_tp": "ST",
        "dist_km": 31.27,
        "huc": "03080101",
        "is_shingle": false
      }
    },
    {
      "type": "Feature",
      "geometry": {
        "type": "Point",
        "coordinates": [
          -81.74007599,
          28.44778229
        ]
      },
      "properties": {
        "agency": "USGS",
        "site_no": "02236500",
        "station_nm": "BIG CREEK NEAR CLERMONT, FL",
        "site_tp": "ST",
        "dist_km": 31.35,
        "huc": "03080102",
        "is_shingle": false
      }
    },
    {
      "type": "Feature",
      "geometry": {
        "type": "Point",
        "coordinates": [
          -81.1883985,
          28.56555599
        ]
      },
      "properties": {
        "agency": "USGS",
        "site_no": "02233102",
        "station_nm": "ECONLOCKHATCHEE RIVER TRIB. NR BITHLO, FLA.",
        "site_tp": "ST",
        "dist_km": 32.55,
        "huc": "03080101",
        "is_shingle": false
      }
    },
    {
      "type": "Feature",
      "geometry": {
        "type": "Point",
        "coordinates": [
          -81.2256215,
          28.5972218
        ]
      },
      "properties": {
        "agency": "USGS",
        "site_no": "02233473",
        "station_nm": "LT ECONLOCKHATCHEE R AT UNIV BLVD NR UNION PK, FL",
        "site_tp": "ST",
        "dist_km": 32.66,
        "huc": "03080101",
        "is_shingle": false
      }
    },
    {
      "type": "Feature",
      "geometry": {
        "type": "Point",
        "coordinates": [
          -81.154231,
          28.565278
        ]
      },
      "properties": {
        "agency": "USGS",
        "site_no": "02233100",
        "station_nm": "ECONLOCKHATCHEE RIVER NR BITHLO, FLA.",
        "site_tp": "ST",
        "dist_km": 35.06,
        "huc": "03080101",
        "is_shingle": false
      }
    },
    {
      "type": "Feature",
      "geometry": {
        "type": "Point",
        "coordinates": [
          -81.1686111,
          28.58305556
        ]
      },
      "properties": {
        "agency": "USGS",
        "site_no": "02233104",
        "station_nm": "ECONLOCKHATCHEE RIVER AT HWY 420 NR BITHLO",
        "site_tp": "ST",
        "dist_km": 35.29,
        "huc": "03080101",
        "is_shingle": false
      }
    },
    {
      "type": "Feature",
      "geometry": {
        "type": "Point",
        "coordinates": [
          -81.20784299,
          28.6199987
        ]
      },
      "properties": {
        "agency": "USGS",
        "site_no": "02233475",
        "station_nm": "LT ECONLOCKHATCHEE R AT STATE HWY434 NR OVIEDO, FL",
        "site_tp": "ST",
        "dist_km": 35.73,
        "huc": "03080101",
        "is_shingle": false
      }
    }
  ]
}