{
  "type": "FeatureCollection",
  "features": [
    {
      "type": "Feature",
      "id": 335,
      "geometry": {
        "type": "Point",
        "coordinates": [
          -81.21766834949109,
          28.36309635872869
        ]
      },
      "properties": {
        "OBJECTID": 335,
        "EXPERT": "Terri Bennett",
        "SOURCEID": 115,
        "HYDROID": 220147,
        "NEXTDOWNID": null,
        "LENGTHDOWN": null,
        "STRUCTURETYPE": "SPILLWAY",
        "NAME": "S62",
        "FIELDSTA": "ST. Cloud",
        "CANAL": "C-29",
        "HYDRO_ORDER": "PRIMARY",
        "QCSTATUS": 3,
        "ISACTIVE": 1,
        "ROTATION": 180,
        "VIEW_PRIORITY": 1,
        "FUNC_LOC": "NK-200-S62",
        "NUMBER_COMPONENTS": 1,
        "FORMER_NAME": null,
        "WM_FEATURE": "Kissimmee Upper Basin",
        "CONTROL": "Spillway/Hydraulic Cable Lift",
        "WOD": "WOD",
        "OWNER": "SFWMD",
        "OPER_MAINT": "SFWMD",
        "STARTUP_DATE": 10382400000,
        "DECOMMISSION_DATE": null,
        "ISCOASTAL": "NO",
        "MAP_ORDER": "PRIMARY",
        "MAP_DISPLAY": "YES",
        "MAP_OPER_MAINT": "SFWMD",
        "_source_layer": "All WMS Structures"
      }
    },
    {
      "type": "Feature",
      "id": 999,
      "geometry": {
        "type": "Point",
        "coordinates": [
          -81.52477733728351,
          28.309836664635196
        ]
      },
      "properties": {
        "OBJECTID": 999,
        "EXPERT": "Ken Konyha",
        "SOURCEID": 568,
        "HYDROID": 832069,
        "NEXTDOWNID": null,
        "LENGTHDOWN": null,
        "STRUCTURETYPE": "CULVERT",
        "NAME": "RCID",
        "FIELDSTA": "ST. Cloud",
        "CANAL": null,
        "HYDRO_ORDER": "PRIMARY",
        "QCSTATUS": 3,
        "ISACTIVE": 1,
        "ROTATION": 90,
        "VIEW_PRIORITY": 2,
        "FUNC_LOC": null,
        "NUMBER_COMPONENTS": null,
        "FORMER_NAME": null,
        "WM_FEATURE": "Reedy Creek",
        "CONTROL": null,
        "WOD": null,
        "OWNER": "NOT SFWMD",
        "OPER_MAINT": null,
        "STARTUP_DATE": null,
        "DECOMMISSION_DATE": null,
        "ISCOASTAL": "NO",
        "MAP_ORDER": " ",
        "MAP_DISPLAY": "NO",
        "MAP_OPER_MAINT": " ",
        "_source_layer": "All WMS Structures"
      }
    },
    {
      "type": "Feature",
      "id": 347,
      "geometry": {
        "type": "Point",
        "coordinates": [
          -81.25415352759713,
          28.118850159593702
        ]
      },
      "properties": {
        "OBJECTID": 347,
        "EXPERT": "Terri Bennett",
        "SOURCEID": 115,
        "HYDROID": 220166,
        "NEXTDOWNID": null,
        "LENGTHDOWN": null,
        "STRUCTURETYPE": "SPILLWAY",
        "NAME": "S63",
        "FIELDSTA": "ST. Cloud",
        "CANAL": "C-34",
        "HYDRO_ORDER": "PRIMARY",
        "QCSTATUS": 3,
        "ISACTIVE": 1,
        "ROTATION": 185,
        "VIEW_PRIORITY": 1,
        "FUNC_LOC": "NK-200-S63",
        "NUMBER_COMPONENTS": 1,
        "FORMER_NAME": null,
        "WM_FEATURE": "Kissimmee Upper Basin",
        "CONTROL": "Cable Drum",
        "WOD": "WOD",
        "OWNER": "SFWMD",
        "OPER_MAINT": "SFWMD",
        "STARTUP_DATE": -84312000000,
        "DECOMMISSION_DATE": null,
        "ISCOASTAL": "NO",
        "MAP_ORDER": "PRIMARY",
        "MAP_DISPLAY": "YES",
        "MAP_OPER_MAINT": "SFWMD",
        "_source_layer": "All WMS Structures"
      }
    },
    {
      "type": "Feature",
      "id": 336,
      "geometry": {
        "type": "Point",
        "coordinates": [
          -81.35199516230156,
          28.140286790069762
        ]
      },
      "properties": {
        "OBJECTID": 336,
        "EXPERT": "Terri Bennett",
        "SOURCEID": 115,
        "HYDROID": 220150,
        "NEXTDOWNID": null,
        "LENGTHDOWN": null,
        "STRUCTURETYPE": "SPILLWAY",
        "NAME": "S61",
        "FIELDSTA": "ST. Cloud",
        "CANAL": "C-35",
        "HYDRO_ORDER": "PRIMARY",
        "QCSTATUS": 3,
        "ISACTIVE": 1,
        "ROTATION": 174,
        "VIEW_PRIORITY": 1,
        "FUNC_LOC": "NK-200-S61",
        "NUMBER_COMPONENTS": 1,
        "FORMER_NAME": null,
        "WM_FEATURE": "Kissimmee Upper Basin",
        "CONTROL": "Spillway/Hydraulic Cable Lift",
        "WOD": "WOD",
        "OWNER": "SFWMD",
        "OPER_MAINT": "SFWMD",
        "STARTUP_DATE": -189370800000,
        "DECOMMISSION_DATE": null,
        "ISCOASTAL": "NO",
        "MAP_ORDER": "PRIMARY",
        "MAP_DISPLAY": "YES",
        "MAP_OPER_MAINT": "SFWMD",
        "_source_layer": "All WMS Structures"
      }
    },
    {
      "type": "Feature",
      "id": 536,
      "geometry": {
        "type": "Point",
        "coordinates": [
          -81.16112286884542,
          28.271903926366452
        ]
      },
      "properties": {
        "OBJECTID": 536,
        "EXPERT": "Terri Bennett",
        "SOURCEID": 115,
        "HYDROID": 297899,
        "NEXTDOWNID": null,
        "LENGTHDOWN": null,
        "STRUCTURETYPE": "CULVERT",
        "NAME": "S58",
        "FIELDSTA": "ST. Cloud",
        "CANAL": "C-32",
        "HYDRO_ORDER": "PRIMARY",
        "QCSTATUS": 3,
        "ISACTIVE": 1,
        "ROTATION": 12,
        "VIEW_PRIORITY": 1,
        "FUNC_LOC": "NK-200-S58",
        "NUMBER_COMPONENTS": 2,
        "FORMER_NAME": null,
        "WM_FEATURE": "Kissimmee Upper Basin",
        "CONTROL": "Single Stem Lift, Conc. Gated",
        "WOD": "WOD",
        "OWNER": "SFWMD",
        "OPER_MAINT": "SFWMD",
        "STARTUP_DATE": 10382400000,
        "DECOMMISSION_DATE": null,
        "ISCOASTAL": "NO",
        "MAP_ORDER": "PRIMARY",
        "MAP_DISPLAY": "YES",
        "MAP_OPER_MAINT": "SFWMD",
        "_source_layer": "All WMS Structures"
      }
    },
    {
      "type": "Feature",
      "id": 342,
      "geometry": {
        "type": "Point",
        "coordinates": [
          -81.31113902887097,
          28.265511615052457
        ]
      },
      "properties": {
        "OBJECTID": 342,
        "EXPERT": "Terri Bennett",
        "SOURCEID": 115,
        "HYDROID": 220161,
        "NEXTDOWNID": null,
        "LENGTHDOWN": null,
        "STRUCTURETYPE": "SPILLWAY",
        "NAME": "S59",
        "FIELDSTA": "ST. Cloud",
        "CANAL": "C-31",
        "HYDRO_ORDER": "PRIMARY",
        "QCSTATUS": 3,
        "ISACTIVE": 1,
        "ROTATION": 230,
        "VIEW_PRIORITY": 1,
        "FUNC_LOC": "NK-200-S59",
        "NUMBER_COMPONENTS": 1,
        "FORMER_NAME": null,
        "WM_FEATURE": "Kissimmee Upper Basin",
        "CONTROL": "Cable Drum",
        "WOD": "WOD",
        "OWNER": "SFWMD",
        "OPER_MAINT": "SFWMD",
        "STARTUP_DATE": -210542400000,
        "DECOMMISSION_DATE": null,
        "ISCOASTAL": "NO",
        "MAP_ORDER": "PRIMARY",
        "MAP_DISPLAY": "YES",
        "MAP_OPER_MAINT": "SFWMD",
        "_source_layer": "All WMS Structures"
      }
    },
    {
      "type": "Feature",
      "id": 348,
      "geometry": {
        "type": "Point",
        "coordinates": [
          -81.23415525959058,
          28.17670824192189
        ]
      },
      "properties": {
        "OBJECTID": 348,
        "EXPERT": "Terri Bennett",
        "SOURCEID": 115,
        "HYDROID": 220406,
        "NEXTDOWNID": null,
        "LENGTHDOWN": null,
        "STRUCTURETYPE": "SPILLWAY",
        "NAME": "S60",
        "FIELDSTA": "ST. Cloud",
        "CANAL": "C-33",
        "HYDRO_ORDER": "PRIMARY",
        "QCSTATUS": 3,
        "ISACTIVE": 1,
        "ROTATION": 235,
        "VIEW_PRIORITY": 1,
        "FUNC_LOC": "NK-200-S60",
        "NUMBER_COMPONENTS": 1,
        "FORMER_NAME": null,
        "WM_FEATURE": "Kissimmee Upper Basin",
        "CONTROL": "Cable Drum",
        "WOD": "WOD",
        "OWNER": "SFWMD",
        "OPER_MAINT": "SFWMD",
        "STARTUP_DATE": -84312000000,
        "DECOMMISSION_DATE": null,
        "ISCOASTAL": "NO",
        "MAP_ORDER": "PRIMARY",
        "MAP_DISPLAY": "YES",
        "MAP_OPER_MAINT": "SFWMD",
        "_source_layer": "All WMS Structures"
      }
    },
    {
      "type": "Feature",
      "id": 345,
      "geometry": {
        "type": "Point",
        "coordinates": [
          -81.31176610037622,
          28.26507519082354
        ]
      },
      "properties": {
        "OBJECTID": 345,
        "EXPERT": "Terri Bennett",
        "SOURCEID": 115,
        "HYDROID": 220164,
        "NEXTDOWNID": null,
        "LENGTHDOWN": null,
        "STRUCTURETYPE": "FLUME",
        "NAME": "S59WEIR",
        "FIELDSTA": "ST. Cloud",
        "CANAL": "C-31",
        "HYDRO_ORDER": "PRIMARY",
        "QCSTATUS": 3,
        "ISACTIVE": 1,
        "ROTATION": 230,
        "VIEW_PRIORITY": 2,
        "FUNC_LOC": "NK-200-S59WEIR",
        "NUMBER_COMPONENTS": 1,
        "FORMER_NAME": null,
        "WM_FEATURE": "Kissimmee Upper Basin",
        "CONTROL": "Fixed Weir",
        "WOD": null,
        "OWNER": "SFWMD",
        "OPER_MAINT": "SFWMD",
        "STARTUP_DATE": 274075200000,
        "DECOMMISSION_DATE": null,
        "ISCOASTAL": "NO",
        "MAP_ORDER": "PRIMARY",
        "MAP_DISPLAY": "YES",
        "MAP_OPER_MAINT": "SFWMD",
        "_source_layer": "All WMS Structures"
      }
    },
    {
      "type": "Feature",
      "id": 340,
      "geometry": {
        "type": "Point",
        "coordinates": [
          -81.3514889581158,
          28.139979650485998
        ]
      },
      "properties": {
        "OBJECTID": 340,
        "EXPERT": "Terri Bennett",
        "SOURCEID": 115,
        "HYDROID": 220158,
        "NEXTDOWNID": null,
        "LENGTHDOWN": null,
        "STRUCTURETYPE": "LOCK",
        "NAME": "S61_LOCK",
        "FIELDSTA": "ST. Cloud",
        "CANAL": "C-35",
        "HYDRO_ORDER": "PRIMARY",
        "QCSTATUS": 3,
        "ISACTIVE": 1,
        "ROTATION": 174,
        "VIEW_PRIORITY": 2,
        "FUNC_LOC": null,
        "NUMBER_COMPONENTS": 1,
        "FORMER_NAME": null,
        "WM_FEATURE": "Kissimmee Upper Basin",
        "CONTROL": "Lock - Sector Gates",
        "WOD": null,
        "OWNER": "SFWMD",
        "OPER_MAINT": "SFWMD",
        "STARTUP_DATE": -189370800000,
        "DECOMMISSION_DATE": null,
        "ISCOASTAL": "NO",
        "MAP_ORDER": "PRIMARY",
        "MAP_DISPLAY": "YES",
        "MAP_OPER_MAINT": "SFWMD",
        "_source_layer": "All WMS Structures"
      }
    },
    {
      "type": "Feature",
      "id": 538,
      "geometry": {
        "type": "Point",
        "coordinates": [
          -81.17425115858697,
          28.33880706294002
        ]
      },
      "properties": {
        "OBJECTID": 538,
        "EXPERT": "Terri Bennett",
        "SOURCEID": 115,
        "HYDROID": 297902,
        "NEXTDOWNID": null,
        "LENGTHDOWN": null,
        "STRUCTURETYPE": "CULVERT",
        "NAME": "S57",
        "FIELDSTA": "ST. Cloud",
        "CANAL": "C-30",
        "HYDRO_ORDER": "PRIMARY",
        "QCSTATUS": 3,
        "ISACTIVE": 1,
        "ROTATION": 0,
        "VIEW_PRIORITY": 1,
        "FUNC_LOC": "NK-200-S57",
        "NUMBER_COMPONENTS": 2,
        "FORMER_NAME": null,
        "WM_FEATURE": "Kissimmee Upper Basin",
        "CONTROL": "Single Stem Lift, Conc. Gated",
        "WOD": "WOD",
        "OWNER": "SFWMD",
        "OPER_MAINT": "SFWMD",
        "STARTUP_DATE": 10382400000,
        "DECOMMISSION_DATE": null,
        "ISCOASTAL": "NO",
        "MAP_ORDER": "PRIMARY",
        "MAP_DISPLAY": "YES",
        "MAP_OPER_MAINT": "SFWMD",
        "_source_layer": "All WMS Structures"
      }
    },
    {
      "type": "Feature",
      "id": 856,
      "geometry": {
        "type": "Point",
        "coordinates": [
          -81.17449842546827,
          28.33845772881237
        ]
      },
      "properties": {
        "CONDITION": "Good",
        "OBJECTID": 856,
        "MAPID": "394",
        "CULVERT_ID": "C30_PC15",
        "LOCATION": "C30",
        "NUMBER": "PC15",
        "FUNC_LOC": "NK-200-C30    -RC1",
        "SAP_EQUIPMENT": 10010579,
        "AHED_NAME": "NA",
        "STATUS": "Operational",
        "CULVERT_TYPE": "PROJECT",
        "STRUCTURE_TYPE": "Culvert with Riser",
        "CONTROL_MECHANISM": "Flashboard Riser",
        "CULVERT_CONSTRUCTION": "Steel",
        "NUM_OF_BARRELS": "1 EA",
        "SIZE_OF_BARRELS": "36'X58'",
        "NGVD_INVERT_ELEVATION": 56,
        "SFWMD_REGION": "North Region",
        "FIELD_STATION": "St. Cloud",
        "INITIATIVE": "Federal",
        "INSTALL_REPLACE_DATE": 18000000,
        "YEAR_30": "2036",
        "REPLACE": null,
        "CAPITAL_PROJECT": null,
        "SCHEDULED_REPLACEMENT_YEAR": null,
        "SCHEDULED_REMOVAL_YEAR": null,
        "REMOVAL_YEAR": null,
        "COMMENT": null,
        "created_user": "SPEGD",
        "created_date": 1532546552000,
        "last_edited_user": "SPEGD",
        "last_edited_date": 1532546552000,
        "_source_layer": "Project Culverts"
      }
    },
    {
      "type": "Feature",
      "id": 802,
      "geometry": {
        "type": "Point",
        "coordinates": [
          -81.31777376593307,
          28.260279661541006
        ]
      },
      "properties": {
        "CONDITION": "Good",
        "OBJECTID": 802,
        "MAPID": "335",
        "CULVERT_ID": "C31_PC11",
        "LOCATION": "C31",
        "NUMBER": "PC11",
        "FUNC_LOC": "NK-200-C31    -RC1",
        "SAP_EQUIPMENT": 10010593,
        "AHED_NAME": "NA",
        "STATUS": "Operational",
        "CULVERT_TYPE": "PROJECT",
        "STRUCTURE_TYPE": "Culvert with Riser",
        "CONTROL_MECHANISM": "Flashboard Riser",
        "CULVERT_CONSTRUCTION": "Aluminum",
        "NUM_OF_BARRELS": "1 EA",
        "SIZE_OF_BARRELS": "36\"X74'",
        "NGVD_INVERT_ELEVATION": 50,
        "SFWMD_REGION": "North Region",
        "FIELD_STATION": "St. Cloud",
        "INITIATIVE": "Federal",
        "INSTALL_REPLACE_DATE": 915166800000,
        "YEAR_30": "2029",
        "REPLACE": null,
        "CAPITAL_PROJECT": null,
        "SCHEDULED_REPLACEMENT_YEAR": null,
        "SCHEDULED_REMOVAL_YEAR": null,
        "REMOVAL_YEAR": null,
        "COMMENT": null,
        "created_user": "SPEGD",
        "created_date": 1532546552000,
        "last_edited_user": "SPEGD",
        "last_edited_date": 1532546552000,
        "_source_layer": "Project Culverts"
      }
    },
    {
      "type": "Feature",
      "id": 1105,
      "geometry": {
        "type": "Point",
        "coordinates": [
          -81.3302052235167,
          28.251634781411276
        ]
      },
      "properties": {
        "CONDITION": null,
        "OBJECTID": 1105,
        "MAPID": "680",
        "CULVERT_ID": "C31_PC02A",
        "LOCATION": "C31",
        "NUMBER": "PC02A",
        "FUNC_LOC": "NK-200-C31    -RC1",
        "SAP_EQUIPMENT": 10010599,
        "AHED_NAME": "NA",
        "STATUS": "Operational",
        "CULVERT_TYPE": "PROJECT",
        "STRUCTURE_TYPE": "Culvert with Riser",
        "CONTROL_MECHANISM": "Flashboard Riser",
        "CULVERT_CONSTRUCTION": "Steel",
        "NUM_OF_BARRELS": "1 EA",
        "SIZE_OF_BARRELS": null,
        "NGVD_INVERT_ELEVATION": null,
        "SFWMD_REGION": "North Region",
        "FIELD_STATION": "St. Cloud",
        "INITIATIVE": "Federal",
        "INSTALL_REPLACE_DATE": -220906800000,
        "YEAR_30": null,
        "REPLACE": null,
        "CAPITAL_PROJECT": null,
        "SCHEDULED_REPLACEMENT_YEAR": null,
        "SCHEDULED_REMOVAL_YEAR": null,
        "REMOVAL_YEAR": null,
        "COMMENT": null,
        "created_user": "SPEGD",
        "created_date": 1532546552000,
        "last_edited_user": "SPEGD",
        "last_edited_date": 1532546552000,
        "_source_layer": "Project Culverts"
      }
    },
    {
      "type": "Feature",
      "id": 842,
      "geometry": {
        "type": "Point",
        "coordinates": [
          -81.2188211305475,
          28.351989205431817
        ]
      },
      "properties": {
        "CONDITION": "Good",
        "OBJECTID": 842,
        "MAPID": "375",
        "CULVERT_ID": "C29A_PC04",
        "LOCATION": "C29A",
        "NUMBER": "PC04",
        "FUNC_LOC": "NK-200-C29A   -RC1",
        "SAP_EQUIPMENT": 10010550,
        "AHED_NAME": "NA",
        "STATUS": "Operational",
        "CULVERT_TYPE": "PROJECT",
        "STRUCTURE_TYPE": "Culvert with Riser",
        "CONTROL_MECHANISM": "Flashboard Riser",
        "CULVERT_CONSTRUCTION": "Aluminum",
        "NUM_OF_BARRELS": "1 EA",
        "SIZE_OF_BARRELS": "42\"X84'",
        "NGVD_INVERT_ELEVATION": 52,
        "SFWMD_REGION": "North Region",
        "FIELD_STATION": "St. Cloud",
        "INITIATIVE": "Federal",
        "INSTALL_REPLACE_DATE": 1041397200000,
        "YEAR_30": "2033",
        "REPLACE": null,
        "CAPITAL_PROJECT": null,
        "SCHEDULED_REPLACEMENT_YEAR": null,
        "SCHEDULED_REMOVAL_YEAR": null,
        "REMOVAL_YEAR": null,
        "COMMENT": null,
        "created_user": "SPEGD",
        "created_date": 1532546552000,
        "last_edited_user": "SPEGD",
        "last_edited_date": 1532546552000,
        "_source_layer": "Project Culverts"
      }
    },
    {
      "type": "Feature",
      "id": 793,
      "geometry": {
        "type": "Point",
        "coordinates": [
          -81.32238134069037,
          28.25694391364725
        ]
      },
      "properties": {
        "CONDITION": "Poor",
        "OBJECTID": 793,
        "MAPID": "326",
        "CULVERT_ID": "C31_PC08",
        "LOCATION": "C31",
        "NUMBER": "PC08",
        "FUNC_LOC": "NK-200-C31    -RC1",
        "SAP_EQUIPMENT": 10010603,
        "AHED_NAME": "NA",
        "STATUS": "Operational",
        "CULVERT_TYPE": "PROJECT",
        "STRUCTURE_TYPE": "Culvert with Riser",
        "CONTROL_MECHANISM": "Flashboard Riser",
        "CULVERT_CONSTRUCTION": "Steel",
        "NUM_OF_BARRELS": "1 EA",
        "SIZE_OF_BARRELS": "36\"X90'",
        "NGVD_INVERT_ELEVATION": 50.40000153,
        "SFWMD_REGION": "North Region",
        "FIELD_STATION": "St. Cloud",
        "INITIATIVE": "Federal",
        "INSTALL_REPLACE_DATE": -220906800000,
        "YEAR_30": "1993",
        "REPLACE": null,
        "CAPITAL_PROJECT": null,
        "SCHEDULED_REPLACEMENT_YEAR": null,
        "SCHEDULED_REMOVAL_YEAR": null,
        "REMOVAL_YEAR": null,
        "COMMENT": "Contractor Project",
        "created_user": "SPEGD",
        "created_date": 1532546552000,
        "last_edited_user": "SPEGD",
        "last_edited_date": 1532546552000,
        "_source_layer": "Project Culverts"
      }
    },
    {
      "type": "Feature",
      "id": 822,
      "geometry": {
        "type": "Point",
        "coordinates": [
          -81.25429036680998,
          28.1024458645233
        ]
      },
      "properties": {
        "CONDITION": "Good",
        "OBJECTID": 822,
        "MAPID": "355",
        "CULVERT_ID": "C34_PC16",
        "LOCATION": "C34",
        "NUMBER": "PC16",
        "FUNC_LOC": "NK-200-C34    -RC1",
        "SAP_EQUIPMENT": 10010702,
        "AHED_NAME": "NA",
        "STATUS": "Operational",
        "CULVERT_TYPE": "PROJECT",
        "STRUCTURE_TYPE": "Culvert with Riser",
        "CONTROL_MECHANISM": "Flashboard Riser",
        "CULVERT_CONSTRUCTION": "Aluminum",
        "NUM_OF_BARRELS": "1 EA",
        "SIZE_OF_BARRELS": "36\"X48'",
        "NGVD_INVERT_ELEVATION": 53,
        "SFWMD_REGION": "North Region",
        "FIELD_STATION": "St. Cloud",
        "INITIATIVE": "Federal",
        "INSTALL_REPLACE_DATE": 1104555600000,
        "YEAR_30": "2034",
        "REPLACE": null,
        "CAPITAL_PROJECT": null,
        "SCHEDULED_REPLACEMENT_YEAR": null,
        "SCHEDULED_REMOVAL_YEAR": null,
        "REMOVAL_YEAR": null,
        "COMMENT": null,
        "created_user": "SPEGD",
        "created_date": 1532546552000,
        "last_edited_user": "SPEGD",
        "last_edited_date": 1532546552000,
        "_source_layer": "Project Culverts"
      }
    },
    {
      "type": "Feature",
      "id": 799,
      "geometry": {
        "type": "Point",
        "coordinates": [
          -81.31782172396794,
          28.26101669787151
        ]
      },
      "properties": {
        "CONDITION": "Good",
        "OBJECTID": 799,
        "MAPID": "332",
        "CULVERT_ID": "C31_PC12",
        "LOCATION": "C31",
        "NUMBER": "PC12",
        "FUNC_LOC": "NK-200-C31    -RC1",
        "SAP_EQUIPMENT": 10010594,
        "AHED_NAME": "NA",
        "STATUS": "Operational",
        "CULVERT_TYPE": "PROJECT",
        "STRUCTURE_TYPE": "Culvert with Riser",
        "CONTROL_MECHANISM": "Flashboard Riser",
        "CULVERT_CONSTRUCTION": "Aluminum",
        "NUM_OF_BARRELS": "1 EA",
        "SIZE_OF_BARRELS": "36'X92'",
        "NGVD_INVERT_ELEVATION": 50,
        "SFWMD_REGION": "North Region",
        "FIELD_STATION": "St. Cloud",
        "INITIATIVE": "Federal",
        "INSTALL_REPLACE_DATE": 1072933200000,
        "YEAR_30": "2034",
        "REPLACE": null,
        "CAPITAL_PROJECT": null,
        "SCHEDULED_REPLACEMENT_YEAR": null,
        "SCHEDULED_REMOVAL_YEAR": null,
        "REMOVAL_YEAR": null,
        "COMMENT": null,
        "created_user": "SPEGD",
        "created_date": 1532546552000,
        "last_edited_user": "SPEGD",
        "last_edited_date": 1532546552000,
        "_source_layer": "Project Culverts"
      }
    },
    {
      "type": "Feature",
      "id": 848,
      "geometry": {
        "type": "Point",
        "coordinates": [
          -81.16039310870804,
          28.275593256468987
        ]
      },
      "properties": {
        "CONDITION": "Good",
        "OBJECTID": 848,
        "MAPID": "383",
        "CULVERT_ID": "C32C_PC21B",
        "LOCATION": "C32C",
        "NUMBER": "PC21B",
        "FUNC_LOC": "NK-200-C32C   -RC1",
        "SAP_EQUIPMENT": 10010634,
        "AHED_NAME": "NA",
        "STATUS": "Operational",
        "CULVERT_TYPE": "PROJECT",
        "STRUCTURE_TYPE": "Culvert with Riser",
        "CONTROL_MECHANISM": "Flashboard Riser",
        "CULVERT_CONSTRUCTION": "Aluminum",
        "NUM_OF_BARRELS": "1 EA",
        "SIZE_OF_BARRELS": "35\"X54'",
        "NGVD_INVERT_ELEVATION": 56.56999969,
        "SFWMD_REGION": "North Region",
        "FIELD_STATION": "St. Cloud",
        "INITIATIVE": "Federal",
        "INSTALL_REPLACE_DATE": 978325200000,
        "YEAR_30": "2031",
        "REPLACE": null,
        "CAPITAL_PROJECT": null,
        "SCHEDULED_REPLACEMENT_YEAR": null,
        "SCHEDULED_REMOVAL_YEAR": null,
        "REMOVAL_YEAR": null,
        "COMMENT": null,
        "created_user": "SPEGD",
        "created_date": 1532546552000,
        "last_edited_user": "SPEGD",
        "last_edited_date": 1532546552000,
        "_source_layer": "Project Culverts"
      }
    },
    {
      "type": "Feature",
      "id": 836,
      "geometry": {
        "type": "Point",
        "coordinates": [
          -81.23733232254175,
          28.174465850443617
        ]
      },
      "properties": {
        "CONDITION": "Good",
        "OBJECTID": 836,
        "MAPID": "369",
        "CULVERT_ID": "C33_PC05",
        "LOCATION": "C33",
        "NUMBER": "PC05",
        "FUNC_LOC": "NK-200-C33    -RC1",
        "SAP_EQUIPMENT": 10010680,
        "AHED_NAME": "NA",
        "STATUS": "Operational",
        "CULVERT_TYPE": "PROJECT",
        "STRUCTURE_TYPE": "Culvert with Riser",
        "CONTROL_MECHANISM": "Flashboard Riser",
        "CULVERT_CONSTRUCTION": "Steel",
        "NUM_OF_BARRELS": "1 EA",
        "SIZE_OF_BARRELS": "36\"X76'",
        "NGVD_INVERT_ELEVATION": 57,
        "SFWMD_REGION": "North Region",
        "FIELD_STATION": "St. Cloud",
        "INITIATIVE": "Federal",
        "INSTALL_REPLACE_DATE": -31518000000,
        "YEAR_30": "2038",
        "REPLACE": null,
        "CAPITAL_PROJECT": null,
        "SCHEDULED_REPLACEMENT_YEAR": null,
        "SCHEDULED_REMOVAL_YEAR": null,
        "REMOVAL_YEAR": null,
        "COMMENT": null,
        "created_user": "SPEGD",
        "created_date": 1532546552000,
        "last_edited_user": "SPEGD",
        "last_edited_date": 1532546552000,
        "_source_layer": "Project Culverts"
      }
    },
    {
      "type": "Feature",
      "id": 785,
      "geometry": {
        "type": "Point",
        "coordinates": [
          -81.3517041992933,
          28.135770831434513
        ]
      },
      "properties": {
        "CONDITION": "Good",
        "OBJECTID": 785,
        "MAPID": "317",
        "CULVERT_ID": "C35_PC17",
        "LOCATION": "C35",
        "NUMBER": "PC17",
        "FUNC_LOC": "NK-200-C35    -RC1",
        "SAP_EQUIPMENT": 10010729,
        "AHED_NAME": "NA",
        "STATUS": "Operational",
        "CULVERT_TYPE": "PROJECT",
        "STRUCTURE_TYPE": "Culvert with Riser",
        "CONTROL_MECHANISM": "Flashboard Riser",
        "CULVERT_CONSTRUCTION": "Steel",
        "NUM_OF_BARRELS": "1 EA",
        "SIZE_OF_BARRELS": "36\"X75'",
        "NGVD_INVERT_ELEVATION": 46.5,
        "SFWMD_REGION": "North Region",
        "FIELD_STATION": "St. Cloud",
        "INITIATIVE": "Federal",
        "INSTALL_REPLACE_DATE": 631170000000,
        "YEAR_30": "2020",
        "REPLACE": null,
        "CAPITAL_PROJECT": null,
        "SCHEDULED_REPLACEMENT_YEAR": null,
        "SCHEDULED_REMOVAL_YEAR": null,
        "REMOVAL_YEAR": null,
        "COMMENT": null,
        "created_user": "SPEGD",
        "created_date": 1532546552000,
        "last_edited_user": "SPEGD",
        "last_edited_date": 1532546552000,
        "_source_layer": "Project Culverts"
      }
    },
    {
      "type": "Feature",
      "id": 1114,
      "geometry": {
        "type": "Point",
        "coordinates": [
          -81.21804320506898,
          28.352976711339302
        ]
      },
      "properties": {
        "CONDITION": "Good",
        "OBJECTID": 1114,
        "MAPID": "377",
        "CULVERT_ID": "C29A_PC05A",
        "LOCATION": "C29A",
        "NUMBER": "PC05A",
        "FUNC_LOC": "NK-200-C29A   -RC1",
        "SAP_EQUIPMENT": null,
        "AHED_NAME": "NA",
        "STATUS": "Operational",
        "CULVERT_TYPE": "PROJECT",
        "STRUCTURE_TYPE": "Culvert with Riser",
        "CONTROL_MECHANISM": "Flashboard Riser",
        "CULVERT_CONSTRUCTION": "Aluminum",
        "NUM_OF_BARRELS": "1 EA",
        "SIZE_OF_BARRELS": "36\"X60'",
        "NGVD_INVERT_ELEVATION": 59,
        "SFWMD_REGION": "North Region",
        "FIELD_STATION": "St. Cloud",
        "INITIATIVE": "Federal",
        "INSTALL_REPLACE_DATE": 18000000,
        "YEAR_30": "2042",
        "REPLACE": null,
        "CAPITAL_PROJECT": null,
        "SCHEDULED_REPLACEMENT_YEAR": null,
        "SCHEDULED_REMOVAL_YEAR": null,
        "REMOVAL_YEAR": null,
        "COMMENT": null,
        "created_user": "SPEGD",
        "created_date": 1532546552000,
        "last_edited_user": "SPEGD",
        "last_edited_date": 1532546552000,
        "_source_layer": "Project Culverts"
      }
    },
    {
      "type": "Feature",
      "id": 859,
      "geometry": {
        "type": "Point",
        "coordinates": [
          -81.17404743191155,
          28.336599072768763
        ]
      },
      "properties": {
        "CONDITION": "Good",
        "OBJECTID": 859,
        "MAPID": "397",
        "CULVERT_ID": "C30_PC14",
        "LOCATION": "C30",
        "NUMBER": "PC14",
        "FUNC_LOC": "NK-200-C30    -RC1",
        "SAP_EQUIPMENT": 10010578,
        "AHED_NAME": "NA",
        "STATUS": "Operational",
        "CULVERT_TYPE": "PROJECT",
        "STRUCTURE_TYPE": "Culvert with Riser",
        "CONTROL_MECHANISM": "Flashboard Riser",
        "CULVERT_CONSTRUCTION": "Steel",
        "NUM_OF_BARRELS": "1 EA",
        "SIZE_OF_BARRELS": "36\"X48'",
        "NGVD_INVERT_ELEVATION": 56,
        "SFWMD_REGION": "North Region",
        "FIELD_STATION": "St. Cloud",
        "INITIATIVE": "Federal",
        "INSTALL_REPLACE_DATE": 18000000,
        "YEAR_30": "2036",
        "REPLACE": null,
        "CAPITAL_PROJECT": null,
        "SCHEDULED_REPLACEMENT_YEAR": null,
        "SCHEDULED_REMOVAL_YEAR": null,
        "REMOVAL_YEAR": null,
        "COMMENT": null,
        "created_user": "SPEGD",
        "created_date": 1532546552000,
        "last_edited_user": "SPEGD",
        "last_edited_date": 1532546552000,
        "_source_layer": "Project Culverts"
      }
    },
    {
      "type": "Feature",
      "id": 796,
      "geometry": {
        "type": "Point",
        "coordinates": [
          -81.35099799986962,
          28.13575937471461
        ]
      },
      "properties": {
        "CONDITION": "Good",
        "OBJECTID": 796,
        "MAPID": "329",
        "CULVERT_ID": "C35_PC16",
        "LOCATION": "C35",
        "NUMBER": "PC16",
        "FUNC_LOC": "NK-200-C35    -RC1",
        "SAP_EQUIPMENT": 10010728,
        "AHED_NAME": "NA",
        "STATUS": "Operational",
        "CULVERT_TYPE": "PROJECT",
        "STRUCTURE_TYPE": "Culvert with Riser",
        "CONTROL_MECHANISM": "Flashboard Riser",
        "CULVERT_CONSTRUCTION": "Aluminum",
        "NUM_OF_BARRELS": "1 EA",
        "SIZE_OF_BARRELS": "36\"X75'",
        "NGVD_INVERT_ELEVATION": 45.79999924,
        "SFWMD_REGION": "North Region",
        "FIELD_STATION": "St. Cloud",
        "INITIATIVE": "Federal",
        "INSTALL_REPLACE_DATE": 852094800000,
        "YEAR_30": "2027",
        "REPLACE": null,
        "CAPITAL_PROJECT": null,
        "SCHEDULED_REPLACEMENT_YEAR": null,
        "SCHEDULED_REMOVAL_YEAR": null,
        "REMOVAL_YEAR": null,
        "COMMENT": null,
        "created_user": "SPEGD",
        "created_date": 1532546552000,
        "last_edited_user": "SPEGD",
        "last_edited_date": 1532546552000,
        "_source_layer": "Project Culverts"
      }
    },
    {
      "type": "Feature",
      "id": 845,
      "geometry": {
        "type": "Point",
        "coordinates": [
          -81.16338664408758,
          28.263479294247052
        ]
      },
      "properties": {
        "CONDITION": "Good",
        "OBJECTID": 845,
        "MAPID": "380",
        "CULVERT_ID": "C32C_PC19",
        "LOCATION": "C32C",
        "NUMBER": "PC19",
        "FUNC_LOC": "NK-200-C32C   -RC1",
        "SAP_EQUIPMENT": 10010630,
        "AHED_NAME": "NA",
        "STATUS": "Operational",
        "CULVERT_TYPE": "PROJECT",
        "STRUCTURE_TYPE": "Culvert with Riser",
        "CONTROL_MECHANISM": "Flashboard Riser",
        "CULVERT_CONSTRUCTION": "Steel",
        "NUM_OF_BARRELS": "1 EA",
        "SIZE_OF_BARRELS": "35\"X44'",
        "NGVD_INVERT_ELEVATION": 59.16999817,
        "SFWMD_REGION": "North Region",
        "FIELD_STATION": "St. Cloud",
        "INITIATIVE": "Federal",
        "INSTALL_REPLACE_DATE": 978325200000,
        "YEAR_30": "2031",
        "REPLACE": null,
        "CAPITAL_PROJECT": null,
        "SCHEDULED_REPLACEMENT_YEAR": null,
        "SCHEDULED_REMOVAL_YEAR": null,
        "REMOVAL_YEAR": null,
        "COMMENT": null,
        "created_user": "SPEGD",
        "created_date": 1532546552000,
        "last_edited_user": "SPEGD",
        "last_edited_date": 1532546552000,
        "_source_layer": "Project Culverts"
      }
    },
    {
      "type": "Feature",
      "id": 839,
      "geometry": {
        "type": "Point",
        "coordinates": [
          -81.18968571732586,
          28.382473792826993
        ]
      },
      "properties": {
        "CONDITION": "Poor",
        "OBJECTID": 839,
        "MAPID": "372",
        "CULVERT_ID": "C29_PC01",
        "LOCATION": "C29",
        "NUMBER": "PC01",
        "FUNC_LOC": "NK-200-C29    -RC1",
        "SAP_EQUIPMENT": 10010539,
        "AHED_NAME": "NA",
        "STATUS": "Operational",
        "CULVERT_TYPE": "PROJECT",
        "STRUCTURE_TYPE": "Culvert with Riser",
        "CONTROL_MECHANISM": "Flashboard Riser",
        "CULVERT_CONSTRUCTION": "Steel",
        "NUM_OF_BARRELS": "1 EA",
        "SIZE_OF_BARRELS": "36\"X52'",
        "NGVD_INVERT_ELEVATION": 56,
        "SFWMD_REGION": "North Region",
        "FIELD_STATION": "St. Cloud",
        "INITIATIVE": "Federal",
        "INSTALL_REPLACE_DATE": -94676400000,
        "YEAR_30": "1997",
        "REPLACE": null,
        "CAPITAL_PROJECT": "YES",
        "SCHEDULED_REPLACEMENT_YEAR": null,
        "SCHEDULED_REMOVAL_YEAR": null,
        "REMOVAL_YEAR": null,
        "COMMENT": "Capital Project",
        "created_user": "SPEGD",
        "created_date": 1532546552000,
        "last_edited_user": "SPEGD",
        "last_edited_date": 1532546552000,
        "_source_layer": "Project Culverts"
      }
    },
    {
      "type": "Feature",
      "id": 833,
      "geometry": {
        "type": "Point",
        "coordinates": [
          -81.23657024660045,
          28.17349344448827
        ]
      },
      "properties": {
        "CONDITION": "Good",
        "OBJECTID": 833,
        "MAPID": "366",
        "CULVERT_ID": "C33_PC03",
        "LOCATION": "C33",
        "NUMBER": "PC03",
        "FUNC_LOC": "NK-200-C33    -RC1",
        "SAP_EQUIPMENT": 10010678,
        "AHED_NAME": "NA",
        "STATUS": "Operational",
        "CULVERT_TYPE": "PROJECT",
        "STRUCTURE_TYPE": "Culvert with Riser",
        "CONTROL_MECHANISM": "Flashboard Riser",
        "CULVERT_CONSTRUCTION": "Steel",
        "NUM_OF_BARRELS": "1 EA",
        "SIZE_OF_BARRELS": "36\"X80'",
        "NGVD_INVERT_ELEVATION": 57,
        "SFWMD_REGION": "North Region",
        "FIELD_STATION": "St. Cloud",
        "INITIATIVE": "Federal",
        "INSTALL_REPLACE_DATE": -31518000000,
        "YEAR_30": "2038",
        "REPLACE": null,
        "CAPITAL_PROJECT": null,
        "SCHEDULED_REPLACEMENT_YEAR": null,
        "SCHEDULED_REMOVAL_YEAR": null,
        "REMOVAL_YEAR": null,
        "COMMENT": null,
        "created_user": "SPEGD",
        "created_date": 1532546552000,
        "last_edited_user": "SPEGD",
        "last_edited_date": 1532546552000,
        "_source_layer": "Project Culverts"
      }
    },
    {
      "type": "Feature",
      "id": 854,
      "geometry": {
        "type": "Point",
        "coordinates": [
          -81.16125738409544,
          28.301177809656128
        ]
      },
      "properties": {
        "CONDITION": "Good",
        "OBJECTID": 854,
        "MAPID": "391",
        "CULVERT_ID": "C32B_PC18",
        "LOCATION": "C32B",
        "NUMBER": "PC18",
        "FUNC_LOC": "NK-200-C32B   -RC1",
        "SAP_EQUIPMENT": 10010621,
        "AHED_NAME": "NA",
        "STATUS": "Operational",
        "CULVERT_TYPE": "PROJECT",
        "STRUCTURE_TYPE": "Culvert with Riser",
        "CONTROL_MECHANISM": "Flashboard Riser",
        "CULVERT_CONSTRUCTION": "Steel",
        "NUM_OF_BARRELS": "1 EA",
        "SIZE_OF_BARRELS": "36\"X54'",
        "NGVD_INVERT_ELEVATION": 56.47000122,
        "SFWMD_REGION": "North Region",
        "FIELD_STATION": "St. Cloud",
        "INITIATIVE": "Federal",
        "INSTALL_REPLACE_DATE": 18000000,
        "YEAR_30": "2036",
        "REPLACE": null,
        "CAPITAL_PROJECT": null,
        "SCHEDULED_REPLACEMENT_YEAR": null,
        "SCHEDULED_REMOVAL_YEAR": null,
        "REMOVAL_YEAR": null,
        "COMMENT": null,
        "created_user": "SPEGD",
        "created_date": 1532546552000,
        "last_edited_user": "SPEGD",
        "last_edited_date": 1532546552000,
        "_source_layer": "Project Culverts"
      }
    },
    {
      "type": "Feature",
      "id": 831,
      "geometry": {
        "type": "Point",
        "coordinates": [
          -81.23853649256273,
          28.166159235377766
        ]
      },
      "properties": {
        "CONDITION": "Good",
        "OBJECTID": 831,
        "MAPID": "364",
        "CULVERT_ID": "C33_PC01",
        "LOCATION": "C33",
        "NUMBER": "PC01",
        "FUNC_LOC": "NK-200-C33    -RC1",
        "SAP_EQUIPMENT": 10010674,
        "AHED_NAME": "NA",
        "STATUS": "Operational",
        "CULVERT_TYPE": "PROJECT",
        "STRUCTURE_TYPE": "Culvert with Riser",
        "CONTROL_MECHANISM": "Flashboard Riser",
        "CULVERT_CONSTRUCTION": "Aluminum",
        "NUM_OF_BARRELS": "1 EA",
        "SIZE_OF_BARRELS": "36\"X80'",
        "NGVD_INVERT_ELEVATION": 57.40000153,
        "SFWMD_REGION": "North Region",
        "FIELD_STATION": "St. Cloud",
        "INITIATIVE": "Federal",
        "INSTALL_REPLACE_DATE": 1104555600000,
        "YEAR_30": "2035",
        "REPLACE": null,
        "CAPITAL_PROJECT": null,
        "SCHEDULED_REPLACEMENT_YEAR": null,
        "SCHEDULED_REMOVAL_YEAR": null,
        "REMOVAL_YEAR": null,
        "COMMENT": null,
        "created_user": "SPEGD",
        "created_date": 1532546552000,
        "last_edited_user": "SPEGD",
        "last_edited_date": 1532546552000,
        "_source_layer": "Project Culverts"
      }
    },
    {
      "type": "Feature",
      "id": 860,
      "geometry": {
        "type": "Point",
        "coordinates": [
          -81.18755152313902,
          28.262485341540664
        ]
      },
      "properties": {
        "CONDITION": "Good",
        "OBJECTID": 860,
        "MAPID": "398",
        "CULVERT_ID": "C32F_PC27",
        "LOCATION": "C32F",
        "NUMBER": "PC27",
        "FUNC_LOC": "NK-200-C32F   -RC1",
        "SAP_EQUIPMENT": 10010656,
        "AHED_NAME": "NA",
        "STATUS": "Operational",
        "CULVERT_TYPE": "PROJECT",
        "STRUCTURE_TYPE": "Culvert with Riser",
        "CONTROL_MECHANISM": "Flashboard Riser",
        "CULVERT_CONSTRUCTION": "Aluminum",
        "NUM_OF_BARRELS": "1 EA",
        "SIZE_OF_BARRELS": "36\"X44'",
        "NGVD_INVERT_ELEVATION": 59,
        "SFWMD_REGION": "North Region",
        "FIELD_STATION": "St. Cloud",
        "INITIATIVE": "Federal",
        "INSTALL_REPLACE_DATE": 946702800000,
        "YEAR_30": "2030",
        "REPLACE": null,
        "CAPITAL_PROJECT": null,
        "SCHEDULED_REPLACEMENT_YEAR": null,
        "SCHEDULED_REMOVAL_YEAR": null,
        "REMOVAL_YEAR": null,
        "COMMENT": null,
        "created_user": "SPEGD",
        "created_date": 1532546552000,
        "last_edited_user": "SPEGD",
        "last_edited_date": 1532546552000,
        "_source_layer": "Project Culverts"
      }
    },
    {
      "type": "Feature",
      "id": 797,
      "geometry": {
        "type": "Point",
        "coordinates": [
          -81.3260919353688,
          28.255091052370553
        ]
      },
      "properties": {
        "CONDITION": "Good",
        "OBJECTID": 797,
        "MAPID": "330",
        "CULVERT_ID": "C31_PC06",
        "LOCATION": "C31",
        "NUMBER": "PC06",
        "FUNC_LOC": "NK-200-C31    -RC1",
        "SAP_EQUIPMENT": 10010602,
        "AHED_NAME": "NA",
        "STATUS": "Operational",
        "CULVERT_TYPE": "PROJECT",
        "STRUCTURE_TYPE": "Culvert with Riser",
        "CONTROL_MECHANISM": "Flashboard Riser",
        "CULVERT_CONSTRUCTION": "Aluminum",
        "NUM_OF_BARRELS": "1 EA",
        "SIZE_OF_BARRELS": "36\"X90'",
        "NGVD_INVERT_ELEVATION": 48.5,
        "SFWMD_REGION": "North Region",
        "FIELD_STATION": "St. Cloud",
        "INITIATIVE": "Federal",
        "INSTALL_REPLACE_DATE": 946702800000,
        "YEAR_30": "2030",
        "REPLACE": null,
        "CAPITAL_PROJECT": null,
        "SCHEDULED_REPLACEMENT_YEAR": null,
        "SCHEDULED_REMOVAL_YEAR": null,
        "REMOVAL_YEAR": null,
        "COMMENT": null,
        "created_user": "SPEGD",
        "created_date": 1532546552000,
        "last_edited_user": "SPEGD",
        "last_edited_date": 1532546552000,
        "_source_layer": "Project Culverts"
      }
    },
    {
      "type": "Feature",
      "id": 791,
      "geometry": {
        "type": "Point",
        "coordinates": [
          -81.32936486477288,
          28.251825362110992
        ]
      },
      "properties": {
        "CONDITION": "Good",
        "OBJECTID": 791,
        "MAPID": "324",
        "CULVERT_ID": "C31_PC01A",
        "LOCATION": "C31",
        "NUMBER": "PC01A",
        "FUNC_LOC": "NK-200-C31    -RC1",
        "SAP_EQUIPMENT": 10010592,
        "AHED_NAME": "NA",
        "STATUS": "Operational",
        "CULVERT_TYPE": "PROJECT",
        "STRUCTURE_TYPE": "Culvert with Riser",
        "CONTROL_MECHANISM": "Flashboard Riser",
        "CULVERT_CONSTRUCTION": "Aluminum",
        "NUM_OF_BARRELS": "1 EA",
        "SIZE_OF_BARRELS": "36\"X48'",
        "NGVD_INVERT_ELEVATION": 42.29999924,
        "SFWMD_REGION": "North Region",
        "FIELD_STATION": "St. Cloud",
        "INITIATIVE": "Federal",
        "INSTALL_REPLACE_DATE": 946702800000,
        "YEAR_30": "2030",
        "REPLACE": null,
        "CAPITAL_PROJECT": null,
        "SCHEDULED_REPLACEMENT_YEAR": null,
        "SCHEDULED_REMOVAL_YEAR": null,
        "REMOVAL_YEAR": null,
        "COMMENT": null,
        "created_user": "SPEGD",
        "created_date": 1532546552000,
        "last_edited_user": "SPEGD",
        "last_edited_date": 1532546552000,
        "_source_layer": "Project Culverts"
      }
    },
    {
      "type": "Feature",
      "id": 840,
      "geometry": {
        "type": "Point",
        "coordinates": [
          -81.21807018849793,
          28.355880106654716
        ]
      },
      "properties": {
        "CONDITION": "Good",
        "OBJECTID": 840,
        "MAPID": "373",
        "CULVERT_ID": "C29A_PC03",
        "LOCATION": "C29A",
        "NUMBER": "PC03",
        "FUNC_LOC": "NK-200-C29A   -RC1",
        "SAP_EQUIPMENT": 10010549,
        "AHED_NAME": "NA",
        "STATUS": "Operational",
        "CULVERT_TYPE": "PROJECT",
        "STRUCTURE_TYPE": "Culvert with Riser",
        "CONTROL_MECHANISM": "Flashboard Riser",
        "CULVERT_CONSTRUCTION": "Steel",
        "NUM_OF_BARRELS": "1 EA",
        "SIZE_OF_BARRELS": "36\"X60'",
        "NGVD_INVERT_ELEVATION": 52,
        "SFWMD_REGION": "North Region",
        "FIELD_STATION": "St. Cloud",
        "INITIATIVE": "Federal",
        "INSTALL_REPLACE_DATE": 694242000000,
        "YEAR_30": "2022",
        "REPLACE": null,
        "CAPITAL_PROJECT": null,
        "SCHEDULED_REPLACEMENT_YEAR": null,
        "SCHEDULED_REMOVAL_YEAR": null,
        "REMOVAL_YEAR": null,
        "COMMENT": null,
        "created_user": "SPEGD",
        "created_date": 1532546552000,
        "last_edited_user": "SPEGD",
        "last_edited_date": 1532546552000,
        "_source_layer": "Project Culverts"
      }
    },
    {
      "type": "Feature",
      "id": 834,
      "geometry": {
        "type": "Point",
        "coordinates": [
          -81.23655696280531,
          28.173939931785903
        ]
      },
      "properties": {
        "CONDITION": "Good",
        "OBJECTID": 834,
        "MAPID": "367",
        "CULVERT_ID": "C33_PC04",
        "LOCATION": "C33",
        "NUMBER": "PC04",
        "FUNC_LOC": "NK-200-C33    -RC1",
        "SAP_EQUIPMENT": 10010679,
        "AHED_NAME": "NA",
        "STATUS": "Operational",
        "CULVERT_TYPE": "PROJECT",
        "STRUCTURE_TYPE": "Culvert with Riser",
        "CONTROL_MECHANISM": "Flashboard Riser",
        "CULVERT_CONSTRUCTION": "Steel",
        "NUM_OF_BARRELS": "1 EA",
        "SIZE_OF_BARRELS": "36\"X80'",
        "NGVD_INVERT_ELEVATION": 57,
        "SFWMD_REGION": "North Region",
        "FIELD_STATION": "St. Cloud",
        "INITIATIVE": "Federal",
        "INSTALL_REPLACE_DATE": -31518000000,
        "YEAR_30": "2045",
        "REPLACE": null,
        "CAPITAL_PROJECT": null,
        "SCHEDULED_REPLACEMENT_YEAR": null,
        "SCHEDULED_REMOVAL_YEAR": null,
        "REMOVAL_YEAR": null,
        "COMMENT": null,
        "created_user": "SPEGD",
        "created_date": 1532546552000,
        "last_edited_user": "SPEGD",
        "last_edited_date": 1532546552000,
        "_source_layer": "Project Culverts"
      }
    },
    {
      "type": "Feature",
      "id": 851,
      "geometry": {
        "type": "Point",
        "coordinates": [
          -81.16026404364722,
          28.27610868254205
        ]
      },
      "properties": {
        "CONDITION": "Good",
        "OBJECTID": 851,
        "MAPID": "386",
        "CULVERT_ID": "C32C_PC23",
        "LOCATION": "C32C",
        "NUMBER": "PC23",
        "FUNC_LOC": "NK-200-C32C   -RC1",
        "SAP_EQUIPMENT": 10010636,
        "AHED_NAME": "NA",
        "STATUS": "Operational",
        "CULVERT_TYPE": "PROJECT",
        "STRUCTURE_TYPE": "Culvert with Riser",
        "CONTROL_MECHANISM": "Flashboard Riser",
        "CULVERT_CONSTRUCTION": "Aluminum",
        "NUM_OF_BARRELS": "1 EA",
        "SIZE_OF_BARRELS": "36\"X54'",
        "NGVD_INVERT_ELEVATION": 56.63000107,
        "SFWMD_REGION": "North Region",
        "FIELD_STATION": "St. Cloud",
        "INITIATIVE": "Federal",
        "INSTALL_REPLACE_DATE": 978325200000,
        "YEAR_30": "2031",
        "REPLACE": null,
        "CAPITAL_PROJECT": null,
        "SCHEDULED_REPLACEMENT_YEAR": null,
        "SCHEDULED_REMOVAL_YEAR": null,
        "REMOVAL_YEAR": null,
        "COMMENT": null,
        "created_user": "SPEGD",
        "created_date": 1532546552000,
        "last_edited_user": "SPEGD",
        "last_edited_date": 1532546552000,
        "_source_layer": "Project Culverts"
      }
    },
    {
      "type": "Feature",
      "id": 828,
      "geometry": {
        "type": "Point",
        "coordinates": [
          -81.25462834930853,
          28.117325401441597
        ]
      },
      "properties": {
        "CONDITION": "Good",
        "OBJECTID": 828,
        "MAPID": "361",
        "CULVERT_ID": "C34_PC21",
        "LOCATION": "C34",
        "NUMBER": "PC21",
        "FUNC_LOC": "NK-200-C34    -RC1",
        "SAP_EQUIPMENT": 10010708,
        "AHED_NAME": "NA",
        "STATUS": "Operational",
        "CULVERT_TYPE": "PROJECT",
        "STRUCTURE_TYPE": "Culvert with Riser",
        "CONTROL_MECHANISM": "Flashboard Riser",
        "CULVERT_CONSTRUCTION": "Aluminum",
        "NUM_OF_BARRELS": "1 EA",
        "SIZE_OF_BARRELS": "35\"X54'",
        "NGVD_INVERT_ELEVATION": 53,
        "SFWMD_REGION": "North Region",
        "FIELD_STATION": "St. Cloud",
        "INITIATIVE": "Federal",
        "INSTALL_REPLACE_DATE": 883630800000,
        "YEAR_30": "2028",
        "REPLACE": null,
        "CAPITAL_PROJECT": null,
        "SCHEDULED_REPLACEMENT_YEAR": null,
        "SCHEDULED_REMOVAL_YEAR": null,
        "REMOVAL_YEAR": null,
        "COMMENT": null,
        "created_user": "SPEGD",
        "created_date": 1532546552000,
        "last_edited_user": "SPEGD",
        "last_edited_date": 1532546552000,
        "_source_layer": "Project Culverts"
      }
    },
    {
      "type": "Feature",
      "id": 1106,
      "geometry": {
        "type": "Point",
        "coordinates": [
          -81.18927476887119,
          28.235948036043727
        ]
      },
      "properties": {
        "CONDITION": "Good",
        "OBJECTID": 1106,
        "MAPID": "681",
        "CULVERT_ID": "C32G_PC25",
        "LOCATION": "C32G",
        "NUMBER": "PC25",
        "FUNC_LOC": "NK-200-C32G   -RC1",
        "SAP_EQUIPMENT": 10010665,
        "AHED_NAME": "NA",
        "STATUS": "Operational",
        "CULVERT_TYPE": "PROJECT",
        "STRUCTURE_TYPE": "Culvert",
        "CONTROL_MECHANISM": "Unknown",
        "CULVERT_CONSTRUCTION": "Steel",
        "NUM_OF_BARRELS": "1 EA",
        "SIZE_OF_BARRELS": "36\" X 56'",
        "NGVD_INVERT_ELEVATION": 59,
        "SFWMD_REGION": "North Region",
        "FIELD_STATION": "St. Cloud",
        "INITIATIVE": "Federal",
        "INSTALL_REPLACE_DATE": 1262322000000,
        "YEAR_30": "2040",
        "REPLACE": null,
        "CAPITAL_PROJECT": null,
        "SCHEDULED_REPLACEMENT_YEAR": null,
        "SCHEDULED_REMOVAL_YEAR": null,
        "REMOVAL_YEAR": null,
        "COMMENT": null,
        "created_user": "SPEGD",
        "created_date": 1532546552000,
        "last_edited_user": "SPEGD",
        "last_edited_date": 1532546552000,
        "_source_layer": "Project Culverts"
      }
    },
    {
      "type": "Feature",
      "id": 857,
      "geometry": {
        "type": "Point",
        "coordinates": [
          -81.17447831205344,
          28.346433718315264
        ]
      },
      "properties": {
        "CONDITION": "Good",
        "OBJECTID": 857,
        "MAPID": "395",
        "CULVERT_ID": "C30_PC17",
        "LOCATION": "C30",
        "NUMBER": "PC17",
        "FUNC_LOC": "NK-200-C30    -RC1",
        "SAP_EQUIPMENT": 10010581,
        "AHED_NAME": "NA",
        "STATUS": "Operational",
        "CULVERT_TYPE": "PROJECT",
        "STRUCTURE_TYPE": "Culvert with Riser",
        "CONTROL_MECHANISM": "Flashboard Riser",
        "CULVERT_CONSTRUCTION": "Steel",
        "NUM_OF_BARRELS": "1 EA",
        "SIZE_OF_BARRELS": "42\"X44'",
        "NGVD_INVERT_ELEVATION": 55.5,
        "SFWMD_REGION": "North Region",
        "FIELD_STATION": "St. Cloud",
        "INITIATIVE": "Federal",
        "INSTALL_REPLACE_DATE": 18000000,
        "YEAR_30": "2030",
        "REPLACE": null,
        "CAPITAL_PROJECT": null,
        "SCHEDULED_REPLACEMENT_YEAR": null,
        "SCHEDULED_REMOVAL_YEAR": null,
        "REMOVAL_YEAR": null,
        "COMMENT": null,
        "created_user": "SPEGD",
        "created_date": 1532546552000,
        "last_edited_user": "SPEGD",
        "last_edited_date": 1532546552000,
        "_source_layer": "Project Culverts"
      }
    },
    {
      "type": "Feature",
      "id": 794,
      "geometry": {
        "type": "Point",
        "coordinates": [
          -81.34724038842126,
          28.108089407217854
        ]
      },
      "properties": {
        "CONDITION": "Good",
        "OBJECTID": 794,
        "MAPID": "327",
        "CULVERT_ID": "C35_PC12",
        "LOCATION": "C35",
        "NUMBER": "PC12",
        "FUNC_LOC": "NK-200-C35    -RC1",
        "SAP_EQUIPMENT": 10010724,
        "AHED_NAME": "NA",
        "STATUS": "Operational",
        "CULVERT_TYPE": "PROJECT",
        "STRUCTURE_TYPE": "Culvert with Riser",
        "CONTROL_MECHANISM": "Flashboard Riser",
        "CULVERT_CONSTRUCTION": "Aluminum",
        "NUM_OF_BARRELS": "1 EA",
        "SIZE_OF_BARRELS": "72\"X68'",
        "NGVD_INVERT_ELEVATION": 46,
        "SFWMD_REGION": "North Region",
        "FIELD_STATION": "St. Cloud",
        "INITIATIVE": "Federal",
        "INSTALL_REPLACE_DATE": 852094800000,
        "YEAR_30": "2027",
        "REPLACE": null,
        "CAPITAL_PROJECT": null,
        "SCHEDULED_REPLACEMENT_YEAR": null,
        "SCHEDULED_REMOVAL_YEAR": null,
        "REMOVAL_YEAR": null,
        "COMMENT": null,
        "created_user": "SPEGD",
        "created_date": 1532546552000,
        "last_edited_user": "SPEGD",
        "last_edited_date": 1532546552000,
        "_source_layer": "Project Culverts"
      }
    },
    {
      "type": "Feature",
      "id": 800,
      "geometry": {
        "type": "Point",
        "coordinates": [
          -81.31208264313355,
          28.265196889231877
        ]
      },
      "properties": {
        "CONDITION": "Good",
        "OBJECTID": 800,
        "MAPID": "333",
        "CULVERT_ID": "C31_PC13",
        "LOCATION": "C31",
        "NUMBER": "PC13",
        "FUNC_LOC": "NK-200-C31    -RC1",
        "SAP_EQUIPMENT": 10010596,
        "AHED_NAME": "NA",
        "STATUS": "Operational",
        "CULVERT_TYPE": "PROJECT",
        "STRUCTURE_TYPE": "Culvert with Riser",
        "CONTROL_MECHANISM": "Flashboard Riser",
        "CULVERT_CONSTRUCTION": "Steel",
        "NUM_OF_BARRELS": "1 EA",
        "SIZE_OF_BARRELS": "36\" X 70'",
        "NGVD_INVERT_ELEVATION": 49.90000153,
        "SFWMD_REGION": "North Region",
        "FIELD_STATION": "St. Cloud",
        "INITIATIVE": "Federal",
        "INSTALL_REPLACE_DATE": 694242000000,
        "YEAR_30": "2022",
        "REPLACE": null,
        "CAPITAL_PROJECT": null,
        "SCHEDULED_REPLACEMENT_YEAR": null,
        "SCHEDULED_REMOVAL_YEAR": null,
        "REMOVAL_YEAR": null,
        "COMMENT": null,
        "created_user": "SPEGD",
        "created_date": 1532546552000,
        "last_edited_user": "SPEGD",
        "last_edited_date": 1532546552000,
        "_source_layer": "Project Culverts"
      }
    },
    {
      "type": "Feature",
      "id": 788,
      "geometry": {
        "type": "Point",
        "coordinates": [
          -81.33311048553229,
          28.245972178690526
        ]
      },
      "properties": {
        "CONDITION": "Good",
        "OBJECTID": 788,
        "MAPID": "320",
        "CULVERT_ID": "C31_PC01B",
        "LOCATION": "C31",
        "NUMBER": "PC01B",
        "FUNC_LOC": "NK-200-C31    -RC1",
        "SAP_EQUIPMENT": 10052217,
        "AHED_NAME": "NA",
        "STATUS": "Operational",
        "CULVERT_TYPE": "PROJECT",
        "STRUCTURE_TYPE": "Culvert with Riser",
        "CONTROL_MECHANISM": "Flashboard Riser",
        "CULVERT_CONSTRUCTION": "Aluminum",
        "NUM_OF_BARRELS": "1 EA",
        "SIZE_OF_BARRELS": "36\" X 80'",
        "NGVD_INVERT_ELEVATION": 48,
        "SFWMD_REGION": "North Region",
        "FIELD_STATION": "St. Cloud",
        "INITIATIVE": "Federal",
        "INSTALL_REPLACE_DATE": 1072933200000,
        "YEAR_30": "2034",
        "REPLACE": null,
        "CAPITAL_PROJECT": null,
        "SCHEDULED_REPLACEMENT_YEAR": null,
        "SCHEDULED_REMOVAL_YEAR": null,
        "REMOVAL_YEAR": null,
        "COMMENT": null,
        "created_user": "SPEGD",
        "created_date": 1532546552000,
        "last_edited_user": "SPEGD",
        "last_edited_date": 1532546552000,
        "_source_layer": "Project Culverts"
      }
    },
    {
      "type": "Feature",
      "id": 837,
      "geometry": {
        "type": "Point",
        "coordinates": [
          -81.22922035884541,
          28.18274160895626
        ]
      },
      "properties": {
        "CONDITION": "Good",
        "OBJECTID": 837,
        "MAPID": "370",
        "CULVERT_ID": "C33_PC07",
        "LOCATION": "C33",
        "NUMBER": "PC07",
        "FUNC_LOC": "NK-200-C33    -RC1",
        "SAP_EQUIPMENT": 10010682,
        "AHED_NAME": "NA",
        "STATUS": "Operational",
        "CULVERT_TYPE": "PROJECT",
        "STRUCTURE_TYPE": "Culvert with Riser",
        "CONTROL_MECHANISM": "Flashboard Riser",
        "CULVERT_CONSTRUCTION": "Aluminum",
        "NUM_OF_BARRELS": "1 EA",
        "SIZE_OF_BARRELS": "36\"X48'",
        "NGVD_INVERT_ELEVATION": 60,
        "SFWMD_REGION": "North Region",
        "FIELD_STATION": "St. Cloud",
        "INITIATIVE": "Federal",
        "INSTALL_REPLACE_DATE": 820472400000,
        "YEAR_30": "2026",
        "REPLACE": null,
        "CAPITAL_PROJECT": null,
        "SCHEDULED_REPLACEMENT_YEAR": null,
        "SCHEDULED_REMOVAL_YEAR": null,
        "REMOVAL_YEAR": null,
        "COMMENT": null,
        "created_user": "SPEGD",
        "created_date": 1532546552000,
        "last_edited_user": "SPEGD",
        "last_edited_date": 1532546552000,
        "_source_layer": "Project Culverts"
      }
    },
    {
      "type": "Feature",
      "id": 829,
      "geometry": {
        "type": "Point",
        "coordinates": [
          -81.2379751219378,
          28.17066570281201
        ]
      },
      "properties": {
        "CONDITION": "Good",
        "OBJECTID": 829,
        "MAPID": "362",
        "CULVERT_ID": "C33_PC02A",
        "LOCATION": "C33",
        "NUMBER": "PC02A",
        "FUNC_LOC": "NK-200-C33    -RC1",
        "SAP_EQUIPMENT": 10010677,
        "AHED_NAME": "NA",
        "STATUS": "Operational",
        "CULVERT_TYPE": "PROJECT",
        "STRUCTURE_TYPE": "Culvert with Riser",
        "CONTROL_MECHANISM": "Flashboard Riser",
        "CULVERT_CONSTRUCTION": "Steel",
        "NUM_OF_BARRELS": "1 EA",
        "SIZE_OF_BARRELS": "36\"X82'",
        "NGVD_INVERT_ELEVATION": 57.40000153,
        "SFWMD_REGION": "North Region",
        "FIELD_STATION": "St. Cloud",
        "INITIATIVE": "Federal",
        "INSTALL_REPLACE_DATE": -31518000000,
        "YEAR_30": "2038",
        "REPLACE": null,
        "CAPITAL_PROJECT": null,
        "SCHEDULED_REPLACEMENT_YEAR": null,
        "SCHEDULED_REMOVAL_YEAR": null,
        "REMOVAL_YEAR": null,
        "COMMENT": null,
        "created_user": "SPEGD",
        "created_date": 1532546552000,
        "last_edited_user": "SPEGD",
        "last_edited_date": 1532546552000,
        "_source_layer": "Project Culverts"
      }
    },
    {
      "type": "Feature",
      "id": 852,
      "geometry": {
        "type": "Point",
        "coordinates": [
          -81.15796393061031,
          28.285358310012175
        ]
      },
      "properties": {
        "CONDITION": "Good",
        "OBJECTID": 852,
        "MAPID": "387",
        "CULVERT_ID": "C32C_PC25",
        "LOCATION": "C32C",
        "NUMBER": "PC25",
        "FUNC_LOC": "NK-200-C32C   -RC1",
        "SAP_EQUIPMENT": 10010638,
        "AHED_NAME": "NA",
        "STATUS": "Operational",
        "CULVERT_TYPE": "PROJECT",
        "STRUCTURE_TYPE": "Culvert with Riser",
        "CONTROL_MECHANISM": "Flashboard Riser",
        "CULVERT_CONSTRUCTION": "Aluminum",
        "NUM_OF_BARRELS": "1 EA",
        "SIZE_OF_BARRELS": "36\"X54'",
        "NGVD_INVERT_ELEVATION": 56.77000046,
        "SFWMD_REGION": "North Region",
        "FIELD_STATION": "St. Cloud",
        "INITIATIVE": "Federal",
        "INSTALL_REPLACE_DATE": 978325200000,
        "YEAR_30": "2031",
        "REPLACE": null,
        "CAPITAL_PROJECT": null,
        "SCHEDULED_REPLACEMENT_YEAR": null,
        "SCHEDULED_REMOVAL_YEAR": null,
        "REMOVAL_YEAR": null,
        "COMMENT": null,
        "created_user": "SPEGD",
        "created_date": 1532546552000,
        "last_edited_user": "SPEGD",
        "last_edited_date": 1532546552000,
        "_source_layer": "Project Culverts"
      }
    },
    {
      "type": "Feature",
      "id": 858,
      "geometry": {
        "type": "Point",
        "coordinates": [
          -81.17408215962311,
          28.34639701328306
        ]
      },
      "properties": {
        "CONDITION": "Good",
        "OBJECTID": 858,
        "MAPID": "396",
        "CULVERT_ID": "C30_PC16",
        "LOCATION": "C30",
        "NUMBER": "PC16",
        "FUNC_LOC": "NK-200-C30    -RC1",
        "SAP_EQUIPMENT": 10010580,
        "AHED_NAME": "NA",
        "STATUS": "Operational",
        "CULVERT_TYPE": "PROJECT",
        "STRUCTURE_TYPE": "Culvert with Riser",
        "CONTROL_MECHANISM": "Flashboard Riser",
        "CULVERT_CONSTRUCTION": "Steel",
        "NUM_OF_BARRELS": "1 EA",
        "SIZE_OF_BARRELS": "36\"X46'",
        "NGVD_INVERT_ELEVATION": 55,
        "SFWMD_REGION": "North Region",
        "FIELD_STATION": "St. Cloud",
        "INITIATIVE": "Federal",
        "INSTALL_REPLACE_DATE": 18000000,
        "YEAR_30": "2036",
        "REPLACE": null,
        "CAPITAL_PROJECT": null,
        "SCHEDULED_REPLACEMENT_YEAR": null,
        "SCHEDULED_REMOVAL_YEAR": null,
        "REMOVAL_YEAR": null,
        "COMMENT": null,
        "created_user": "SPEGD",
        "created_date": 1532546552000,
        "last_edited_user": "SPEGD",
        "last_edited_date": 1532546552000,
        "_source_layer": "Project Culverts"
      }
    },
    {
      "type": "Feature",
      "id": 795,
      "geometry": {
        "type": "Point",
        "coordinates": [
          -81.34963613626918,
          28.126368236897417
        ]
      },
      "properties": {
        "CONDITION": "Good",
        "OBJECTID": 795,
        "MAPID": "328",
        "CULVERT_ID": "C35_PC14",
        "LOCATION": "C35",
        "NUMBER": "PC14",
        "FUNC_LOC": "NK-200-C35    -RC1",
        "SAP_EQUIPMENT": 10010726,
        "AHED_NAME": "NA",
        "STATUS": "Operational",
        "CULVERT_TYPE": "PROJECT",
        "STRUCTURE_TYPE": "Culvert with Riser",
        "CONTROL_MECHANISM": "Flashboard Riser",
        "CULVERT_CONSTRUCTION": "Aluminum",
        "NUM_OF_BARRELS": "1 EA",
        "SIZE_OF_BARRELS": "72\"X70'",
        "NGVD_INVERT_ELEVATION": 46,
        "SFWMD_REGION": "North Region",
        "FIELD_STATION": "St. Cloud",
        "INITIATIVE": "Federal",
        "INSTALL_REPLACE_DATE": 852094800000,
        "YEAR_30": "2027",
        "REPLACE": null,
        "CAPITAL_PROJECT": null,
        "SCHEDULED_REPLACEMENT_YEAR": null,
        "SCHEDULED_REMOVAL_YEAR": null,
        "REMOVAL_YEAR": null,
        "COMMENT": null,
        "created_user": "SPEGD",
        "created_date": 1532546552000,
        "last_edited_user": "SPEGD",
        "last_edited_date": 1532546552000,
        "_source_layer": "Project Culverts"
      }
    },
    {
      "type": "Feature",
      "id": 846,
      "geometry": {
        "type": "Point",
        "coordinates": [
          -81.16081132448478,
          28.27250919363793
        ]
      },
      "properties": {
        "CONDITION": "Good",
        "OBJECTID": 846,
        "MAPID": "381",
        "CULVERT_ID": "C32C_PC20",
        "LOCATION": "C32C",
        "NUMBER": "PC20",
        "FUNC_LOC": "NK-200-C32C   -RC1",
        "SAP_EQUIPMENT": 10010631,
        "AHED_NAME": "NA",
        "STATUS": "Operational",
        "CULVERT_TYPE": "PROJECT",
        "STRUCTURE_TYPE": "Culvert with Riser",
        "CONTROL_MECHANISM": "Flashboard Riser",
        "CULVERT_CONSTRUCTION": "Steel",
        "NUM_OF_BARRELS": "2 EA",
        "SIZE_OF_BARRELS": "42\"X46'",
        "NGVD_INVERT_ELEVATION": 56.04000092,
        "SFWMD_REGION": "North Region",
        "FIELD_STATION": "St. Cloud",
        "INITIATIVE": "Federal",
        "INSTALL_REPLACE_DATE": 18000000,
        "YEAR_30": "2037",
        "REPLACE": null,
        "CAPITAL_PROJECT": null,
        "SCHEDULED_REPLACEMENT_YEAR": null,
        "SCHEDULED_REMOVAL_YEAR": null,
        "REMOVAL_YEAR": null,
        "COMMENT": null,
        "created_user": "SPEGD",
        "created_date": 1532546552000,
        "last_edited_user": "SPEGD",
        "last_edited_date": 1532546552000,
        "_source_layer": "Project Culverts"
      }
    },
    {
      "type": "Feature",
      "id": 789,
      "geometry": {
        "type": "Point",
        "coordinates": [
          -81.32945978369763,
          28.25267288823258
        ]
      },
      "properties": {
        "CONDITION": "Good",
        "OBJECTID": 789,
        "MAPID": "321",
        "CULVERT_ID": "C31_PC02",
        "LOCATION": "C31",
        "NUMBER": "PC02",
        "FUNC_LOC": "NK-200-C31    -RC1",
        "SAP_EQUIPMENT": 10010598,
        "AHED_NAME": "NA",
        "STATUS": "Operational",
        "CULVERT_TYPE": "PROJECT",
        "STRUCTURE_TYPE": "Culvert with Riser",
        "CONTROL_MECHANISM": "Flashboard Riser",
        "CULVERT_CONSTRUCTION": "Aluminum",
        "NUM_OF_BARRELS": "1 EA",
        "SIZE_OF_BARRELS": "36\"X60'",
        "NGVD_INVERT_ELEVATION": 49.59999847,
        "SFWMD_REGION": "North Region",
        "FIELD_STATION": "St. Cloud",
        "INITIATIVE": "Federal",
        "INSTALL_REPLACE_DATE": 946702800000,
        "YEAR_30": null,
        "REPLACE": null,
        "CAPITAL_PROJECT": null,
        "SCHEDULED_REPLACEMENT_YEAR": null,
        "SCHEDULED_REMOVAL_YEAR": null,
        "REMOVAL_YEAR": null,
        "COMMENT": null,
        "created_user": "SPEGD",
        "created_date": 1532546552000,
        "last_edited_user": "SPEGD",
        "last_edited_date": 1532546552000,
        "_source_layer": "Project Culverts"
      }
    },
    {
      "type": "Feature",
      "id": 832,
      "geometry": {
        "type": "Point",
        "coordinates": [
          -81.23732641408567,
          28.169561652373297
        ]
      },
      "properties": {
        "CONDITION": "Good",
        "OBJECTID": 832,
        "MAPID": "365",
        "CULVERT_ID": "C33_PC02",
        "LOCATION": "C33",
        "NUMBER": "PC02",
        "FUNC_LOC": "NK-200-C33    -RC1",
        "SAP_EQUIPMENT": 10010676,
        "AHED_NAME": "NA",
        "STATUS": "Operational",
        "CULVERT_TYPE": "PROJECT",
        "STRUCTURE_TYPE": "Culvert with Riser",
        "CONTROL_MECHANISM": "Flashboard Riser",
        "CULVERT_CONSTRUCTION": "Steel",
        "NUM_OF_BARRELS": "1 EA",
        "SIZE_OF_BARRELS": "36\"X80'",
        "NGVD_INVERT_ELEVATION": 57.5,
        "SFWMD_REGION": "North Region",
        "FIELD_STATION": "St. Cloud",
        "INITIATIVE": "Federal",
        "INSTALL_REPLACE_DATE": -31518000000,
        "YEAR_30": "2040",
        "REPLACE": null,
        "CAPITAL_PROJECT": null,
        "SCHEDULED_REPLACEMENT_YEAR": null,
        "SCHEDULED_REMOVAL_YEAR": null,
        "REMOVAL_YEAR": null,
        "COMMENT": null,
        "created_user": "SPEGD",
        "created_date": 1532546552000,
        "last_edited_user": "SPEGD",
        "last_edited_date": 1532546552000,
        "_source_layer": "Project Culverts"
      }
    },
    {
      "type": "Feature",
      "id": 855,
      "geometry": {
        "type": "Point",
        "coordinates": [
          -81.16897342948216,
          28.326469706756964
        ]
      },
      "properties": {
        "CONDITION": "Good",
        "OBJECTID": 855,
        "MAPID": "393",
        "CULVERT_ID": "C30_PC13A",
        "LOCATION": "C30",
        "NUMBER": "PC13A",
        "FUNC_LOC": "NK-200-C30    -RC1",
        "SAP_EQUIPMENT": 10010577,
        "AHED_NAME": "NA",
        "STATUS": "Operational",
        "CULVERT_TYPE": "PROJECT",
        "STRUCTURE_TYPE": "Culvert with Riser",
        "CONTROL_MECHANISM": "Flashboard Riser",
        "CULVERT_CONSTRUCTION": "Steel",
        "NUM_OF_BARRELS": "1 EA",
        "SIZE_OF_BARRELS": "36\"X58'",
        "NGVD_INVERT_ELEVATION": 56,
        "SFWMD_REGION": "North Region",
        "FIELD_STATION": "St. Cloud",
        "INITIATIVE": "Federal",
        "INSTALL_REPLACE_DATE": 18000000,
        "YEAR_30": "2036",
        "REPLACE": null,
        "CAPITAL_PROJECT": null,
        "SCHEDULED_REPLACEMENT_YEAR": null,
        "SCHEDULED_REMOVAL_YEAR": null,
        "REMOVAL_YEAR": null,
        "COMMENT": null,
        "created_user": "SPEGD",
        "created_date": 1532546552000,
        "last_edited_user": "SPEGD",
        "last_edited_date": 1532546552000,
        "_source_layer": "Project Culverts"
      }
    },
    {
      "type": "Feature",
      "id": 803,
      "geometry": {
        "type": "Point",
        "coordinates": [
          -81.32141067395868,
          28.25763544397246
        ]
      },
      "properties": {
        "CONDITION": "Good",
        "OBJECTID": 803,
        "MAPID": "336",
        "CULVERT_ID": "C31_PC10",
        "LOCATION": "C31",
        "NUMBER": "PC10",
        "FUNC_LOC": "NK-200-C31    -RC1",
        "SAP_EQUIPMENT": 10010591,
        "AHED_NAME": "NA",
        "STATUS": "Operational",
        "CULVERT_TYPE": "PROJECT",
        "STRUCTURE_TYPE": "Culvert with Riser",
        "CONTROL_MECHANISM": "Flashboard Riser",
        "CULVERT_CONSTRUCTION": "Aluminum",
        "NUM_OF_BARRELS": "1 EA",
        "SIZE_OF_BARRELS": "36\"X106'",
        "NGVD_INVERT_ELEVATION": 50.09999847,
        "SFWMD_REGION": "North Region",
        "FIELD_STATION": "St. Cloud",
        "INITIATIVE": "Federal",
        "INSTALL_REPLACE_DATE": 978325200000,
        "YEAR_30": "2030",
        "REPLACE": null,
        "CAPITAL_PROJECT": null,
        "SCHEDULED_REPLACEMENT_YEAR": null,
        "SCHEDULED_REMOVAL_YEAR": null,
        "REMOVAL_YEAR": null,
        "COMMENT": null,
        "created_user": "SPEGD",
        "created_date": 1532546552000,
        "last_edited_user": "SPEGD",
        "last_edited_date": 1532546552000,
        "_source_layer": "Project Culverts"
      }
    },
    {
      "type": "Feature",
      "id": 826,
      "geometry": {
        "type": "Point",
        "coordinates": [
          -81.25562650786961,
          28.10312084868217
        ]
      },
      "properties": {
        "CONDITION": "Good",
        "OBJECTID": 826,
        "MAPID": "359",
        "CULVERT_ID": "C34_PC17",
        "LOCATION": "C34",
        "NUMBER": "PC17",
        "FUNC_LOC": "NK-200-C34    -RC1",
        "SAP_EQUIPMENT": 10010703,
        "AHED_NAME": "NA",
        "STATUS": "Operational",
        "CULVERT_TYPE": "PROJECT",
        "STRUCTURE_TYPE": "Culvert with Riser",
        "CONTROL_MECHANISM": "Flashboard Riser",
        "CULVERT_CONSTRUCTION": "Aluminum",
        "NUM_OF_BARRELS": "2 EA",
        "SIZE_OF_BARRELS": "60\"X54'",
        "NGVD_INVERT_ELEVATION": 52,
        "SFWMD_REGION": "North Region",
        "FIELD_STATION": "St. Cloud",
        "INITIATIVE": "Federal",
        "INSTALL_REPLACE_DATE": 852094800000,
        "YEAR_30": "2027",
        "REPLACE": null,
        "CAPITAL_PROJECT": null,
        "SCHEDULED_REPLACEMENT_YEAR": null,
        "SCHEDULED_REMOVAL_YEAR": null,
        "REMOVAL_YEAR": null,
        "COMMENT": null,
        "created_user": "SPEGD",
        "created_date": 1532546552000,
        "last_edited_user": "SPEGD",
        "last_edited_date": 1532546552000,
        "_source_layer": "Project Culverts"
      }
    },
    {
      "type": "Feature",
      "id": 849,
      "geometry": {
        "type": "Point",
        "coordinates": [
          -81.15998253105505,
          28.275662296465963
        ]
      },
      "properties": {
        "CONDITION": "Good",
        "OBJECTID": 849,
        "MAPID": "384",
        "CULVERT_ID": "C32C_PC21A",
        "LOCATION": "C32C",
        "NUMBER": "PC21A",
        "FUNC_LOC": "NK-200-C32C   -RC1",
        "SAP_EQUIPMENT": 10010633,
        "AHED_NAME": "NA",
        "STATUS": "Operational",
        "CULVERT_TYPE": "PROJECT",
        "STRUCTURE_TYPE": "Culvert with Riser",
        "CONTROL_MECHANISM": "Flashboard Riser",
        "CULVERT_CONSTRUCTION": "Steel",
        "NUM_OF_BARRELS": "1 EA",
        "SIZE_OF_BARRELS": "36\"X52'",
        "NGVD_INVERT_ELEVATION": 56.52000046,
        "SFWMD_REGION": "North Region",
        "FIELD_STATION": "St. Cloud",
        "INITIATIVE": "Federal",
        "INSTALL_REPLACE_DATE": 18000000,
        "YEAR_30": "2036",
        "REPLACE": null,
        "CAPITAL_PROJECT": null,
        "SCHEDULED_REPLACEMENT_YEAR": null,
        "SCHEDULED_REMOVAL_YEAR": null,
        "REMOVAL_YEAR": null,
        "COMMENT": null,
        "created_user": "SPEGD",
        "created_date": 1532546552000,
        "last_edited_user": "SPEGD",
        "last_edited_date": 1532546552000,
        "_source_layer": "Project Culverts"
      }
    },
    {
      "type": "Feature",
      "id": 843,
      "geometry": {
        "type": "Point",
        "coordinates": [
          -81.21864898741003,
          28.35091887398952
        ]
      },
      "properties": {
        "CONDITION": "Good",
        "OBJECTID": 843,
        "MAPID": "376",
        "CULVERT_ID": "C29A_PC07",
        "LOCATION": "C29A",
        "NUMBER": "PC07",
        "FUNC_LOC": "NK-200-C29A   -RC1",
        "SAP_EQUIPMENT": 10010554,
        "AHED_NAME": "NA",
        "STATUS": "Operational",
        "CULVERT_TYPE": "PROJECT",
        "STRUCTURE_TYPE": "Culvert with Riser",
        "CONTROL_MECHANISM": "Flashboard Riser",
        "CULVERT_CONSTRUCTION": "Steel",
        "NUM_OF_BARRELS": "1 EA",
        "SIZE_OF_BARRELS": "36\"X64'",
        "NGVD_INVERT_ELEVATION": 52,
        "SFWMD_REGION": "North Region",
        "FIELD_STATION": "St. Cloud",
        "INITIATIVE": "Federal",
        "INSTALL_REPLACE_DATE": 18000000,
        "YEAR_30": "2037",
        "REPLACE": null,
        "CAPITAL_PROJECT": null,
        "SCHEDULED_REPLACEMENT_YEAR": null,
        "SCHEDULED_REMOVAL_YEAR": null,
        "REMOVAL_YEAR": null,
        "COMMENT": null,
        "created_user": "SPEGD",
        "created_date": 1532546552000,
        "last_edited_user": "SPEGD",
        "last_edited_date": 1532546552000,
        "_source_layer": "Project Culverts"
      }
    },
    {
      "type": "Feature",
      "id": 823,
      "geometry": {
        "type": "Point",
        "coordinates": [
          -81.25473834436222,
          28.11138756651992
        ]
      },
      "properties": {
        "CONDITION": "Good",
        "OBJECTID": 823,
        "MAPID": "356",
        "CULVERT_ID": "C34_PC18",
        "LOCATION": "C34",
        "NUMBER": "PC18",
        "FUNC_LOC": "NK-200-C34    -RC1",
        "SAP_EQUIPMENT": 10010704,
        "AHED_NAME": "NA",
        "STATUS": "Operational",
        "CULVERT_TYPE": "PROJECT",
        "STRUCTURE_TYPE": "Culvert with Riser",
        "CONTROL_MECHANISM": "Flashboard Riser",
        "CULVERT_CONSTRUCTION": "Aluminum",
        "NUM_OF_BARRELS": "1 EA",
        "SIZE_OF_BARRELS": "48\"X52",
        "NGVD_INVERT_ELEVATION": 53,
        "SFWMD_REGION": "North Region",
        "FIELD_STATION": "St. Cloud",
        "INITIATIVE": "Federal",
        "INSTALL_REPLACE_DATE": 1104555600000,
        "YEAR_30": "2035",
        "REPLACE": null,
        "CAPITAL_PROJECT": null,
        "SCHEDULED_REPLACEMENT_YEAR": null,
        "SCHEDULED_REMOVAL_YEAR": null,
        "REMOVAL_YEAR": null,
        "COMMENT": null,
        "created_user": "SPEGD",
        "created_date": 1532546552000,
        "last_edited_user": "SPEGD",
        "last_edited_date": 1532546552000,
        "_source_layer": "Project Culverts"
      }
    },
    {
      "type": "Feature",
      "id": 792,
      "geometry": {
        "type": "Point",
        "coordinates": [
          -81.33177891960035,
          28.247229975376474
        ]
      },
      "properties": {
        "CONDITION": "Good",
        "OBJECTID": 792,
        "MAPID": "325",
        "CULVERT_ID": "C31_PC01",
        "LOCATION": "C31",
        "NUMBER": "PC01",
        "FUNC_LOC": "NK-200-C31    -RC1",
        "SAP_EQUIPMENT": 10010590,
        "AHED_NAME": "NA",
        "STATUS": "Operational",
        "CULVERT_TYPE": "PROJECT",
        "STRUCTURE_TYPE": "Culvert with Riser",
        "CONTROL_MECHANISM": "Flashboard Riser",
        "CULVERT_CONSTRUCTION": "Aluminum",
        "NUM_OF_BARRELS": "1 EA",
        "SIZE_OF_BARRELS": "36\"X68'",
        "NGVD_INVERT_ELEVATION": 50.13000107,
        "SFWMD_REGION": "North Region",
        "FIELD_STATION": "St. Cloud",
        "INITIATIVE": "Federal",
        "INSTALL_REPLACE_DATE": 1072933200000,
        "YEAR_30": "2034",
        "REPLACE": null,
        "CAPITAL_PROJECT": null,
        "SCHEDULED_REPLACEMENT_YEAR": null,
        "SCHEDULED_REMOVAL_YEAR": null,
        "REMOVAL_YEAR": null,
        "COMMENT": null,
        "created_user": "SPEGD",
        "created_date": 1532546552000,
        "last_edited_user": "SPEGD",
        "last_edited_date": 1532546552000,
        "_source_layer": "Project Culverts"
      }
    },
    {
      "type": "Feature",
      "id": 786,
      "geometry": {
        "type": "Point",
        "coordinates": [
          -81.35037732523676,
          28.126292686534704
        ]
      },
      "properties": {
        "CONDITION": "Good",
        "OBJECTID": 786,
        "MAPID": "318",
        "CULVERT_ID": "C35_PC15",
        "LOCATION": "C35",
        "NUMBER": "PC15",
        "FUNC_LOC": "NK-200-C35    -RC1",
        "SAP_EQUIPMENT": 10010727,
        "AHED_NAME": "NA",
        "STATUS": "Operational",
        "CULVERT_TYPE": "PROJECT",
        "STRUCTURE_TYPE": "Culvert with Riser",
        "CONTROL_MECHANISM": "Flashboard Riser",
        "CULVERT_CONSTRUCTION": "Aluminum",
        "NUM_OF_BARRELS": "1 EA",
        "SIZE_OF_BARRELS": "72\"X70'",
        "NGVD_INVERT_ELEVATION": 46,
        "SFWMD_REGION": "North Region",
        "FIELD_STATION": "St. Cloud",
        "INITIATIVE": "Federal",
        "INSTALL_REPLACE_DATE": 883630800000,
        "YEAR_30": "2028",
        "REPLACE": null,
        "CAPITAL_PROJECT": null,
        "SCHEDULED_REPLACEMENT_YEAR": null,
        "SCHEDULED_REMOVAL_YEAR": null,
        "REMOVAL_YEAR": null,
        "COMMENT": null,
        "created_user": "SPEGD",
        "created_date": 1532546552000,
        "last_edited_user": "SPEGD",
        "last_edited_date": 1532546552000,
        "_source_layer": "Project Culverts"
      }
    },
    {
      "type": "Feature",
      "id": 835,
      "geometry": {
        "type": "Point",
        "coordinates": [
          -81.22862247088696,
          28.18200197869913
        ]
      },
      "properties": {
        "CONDITION": "Good",
        "OBJECTID": 835,
        "MAPID": "368",
        "CULVERT_ID": "C33_PC06",
        "LOCATION": "C33",
        "NUMBER": "PC06",
        "FUNC_LOC": "NK-200-C33    -RC1",
        "SAP_EQUIPMENT": 10010681,
        "AHED_NAME": "NA",
        "STATUS": "Operational",
        "CULVERT_TYPE": "PROJECT",
        "STRUCTURE_TYPE": "Culvert with Riser",
        "CONTROL_MECHANISM": "Flashboard Riser",
        "CULVERT_CONSTRUCTION": "Aluminum",
        "NUM_OF_BARRELS": "1 EA",
        "SIZE_OF_BARRELS": "36\"X48'",
        "NGVD_INVERT_ELEVATION": 60,
        "SFWMD_REGION": "North Region",
        "FIELD_STATION": "St. Cloud",
        "INITIATIVE": "Federal",
        "INSTALL_REPLACE_DATE": 915166800000,
        "YEAR_30": "2029",
        "REPLACE": null,
        "CAPITAL_PROJECT": null,
        "SCHEDULED_REPLACEMENT_YEAR": null,
        "SCHEDULED_REMOVAL_YEAR": null,
        "REMOVAL_YEAR": null,
        "COMMENT": null,
        "created_user": "SPEGD",
        "created_date": 1532546552000,
        "last_edited_user": "SPEGD",
        "last_edited_date": 1532546552000,
        "_source_layer": "Project Culverts"
      }
    },
    {
      "type": "Feature",
      "id": 1113,
      "geometry": {
        "type": "Point",
        "coordinates": [
          -81.32761343762861,
          28.254025022844978
        ]
      },
      "properties": {
        "CONDITION": null,
        "OBJECTID": 1113,
        "MAPID": "322",
        "CULVERT_ID": "C31_PC04",
        "LOCATION": "C31",
        "NUMBER": "PC04",
        "FUNC_LOC": "NK-200-C31    -RC1",
        "SAP_EQUIPMENT": 10052218,
        "AHED_NAME": "NA",
        "STATUS": "Operational",
        "CULVERT_TYPE": "PROJECT",
        "STRUCTURE_TYPE": "Culvert with Riser",
        "CONTROL_MECHANISM": "Flashboard Riser",
        "CULVERT_CONSTRUCTION": "Aluminum",
        "NUM_OF_BARRELS": "1 EA",
        "SIZE_OF_BARRELS": "36\" X 68'",
        "NGVD_INVERT_ELEVATION": 49,
        "SFWMD_REGION": "North Region",
        "FIELD_STATION": "St. Cloud",
        "INITIATIVE": "Federal",
        "INSTALL_REPLACE_DATE": null,
        "YEAR_30": null,
        "REPLACE": null,
        "CAPITAL_PROJECT": null,
        "SCHEDULED_REPLACEMENT_YEAR": null,
        "SCHEDULED_REMOVAL_YEAR": null,
        "REMOVAL_YEAR": null,
        "COMMENT": null,
        "created_user": "SPEGD",
        "created_date": 1532546552000,
        "last_edited_user": "SPEGD",
        "last_edited_date": 1532546552000,
        "_source_layer": "Project Culverts"
      }
    },
    {
      "type": "Feature",
      "id": 804,
      "geometry": {
        "type": "Point",
        "coordinates": [
          -81.32734989381812,
          28.254264831049362
        ]
      },
      "properties": {
        "CONDITION": "Good",
        "OBJECTID": 804,
        "MAPID": "337",
        "CULVERT_ID": "C31_PC05",
        "LOCATION": "C31",
        "NUMBER": "PC05",
        "FUNC_LOC": "NK-200-C31    -RC1",
        "SAP_EQUIPMENT": 10010601,
        "AHED_NAME": "NA",
        "STATUS": "Operational",
        "CULVERT_TYPE": "PROJECT",
        "STRUCTURE_TYPE": "Culvert with Riser",
        "CONTROL_MECHANISM": "Flashboard Riser",
        "CULVERT_CONSTRUCTION": "Steel",
        "NUM_OF_BARRELS": "2 EA",
        "SIZE_OF_BARRELS": "36\"X74'",
        "NGVD_INVERT_ELEVATION": null,
        "SFWMD_REGION": "North Region",
        "FIELD_STATION": "St. Cloud",
        "INITIATIVE": "Federal",
        "INSTALL_REPLACE_DATE": -220906800000,
        "YEAR_30": "2032",
        "REPLACE": null,
        "CAPITAL_PROJECT": null,
        "SCHEDULED_REPLACEMENT_YEAR": null,
        "SCHEDULED_REMOVAL_YEAR": null,
        "REMOVAL_YEAR": null,
        "COMMENT": null,
        "created_user": "SPEGD",
        "created_date": 1532546552000,
        "last_edited_user": "SPEGD",
        "last_edited_date": 1532546552000,
        "_source_layer": "Project Culverts"
      }
    },
    {
      "type": "Feature",
      "id": 827,
      "geometry": {
        "type": "Point",
        "coordinates": [
          -81.25542965690053,
          28.112021664819444
        ]
      },
      "properties": {
        "CONDITION": "Good",
        "OBJECTID": 827,
        "MAPID": "360",
        "CULVERT_ID": "C34_PC19",
        "LOCATION": "C34",
        "NUMBER": "PC19",
        "FUNC_LOC": "NK-200-C34    -RC1",
        "SAP_EQUIPMENT": 10010705,
        "AHED_NAME": "NA",
        "STATUS": "Operational",
        "CULVERT_TYPE": "PROJECT",
        "STRUCTURE_TYPE": "Culvert with Riser",
        "CONTROL_MECHANISM": "Flashboard Riser",
        "CULVERT_CONSTRUCTION": "Aluminum",
        "NUM_OF_BARRELS": "1 EA",
        "SIZE_OF_BARRELS": "36\"X56'",
        "NGVD_INVERT_ELEVATION": 53,
        "SFWMD_REGION": "North Region",
        "FIELD_STATION": "St. Cloud",
        "INITIATIVE": "Federal",
        "INSTALL_REPLACE_DATE": 883630800000,
        "YEAR_30": "2028",
        "REPLACE": null,
        "CAPITAL_PROJECT": null,
        "SCHEDULED_REPLACEMENT_YEAR": null,
        "SCHEDULED_REMOVAL_YEAR": null,
        "REMOVAL_YEAR": null,
        "COMMENT": null,
        "created_user": "SPEGD",
        "created_date": 1532546552000,
        "last_edited_user": "SPEGD",
        "last_edited_date": 1532546552000,
        "_source_layer": "Project Culverts"
      }
    },
    {
      "type": "Feature",
      "id": 850,
      "geometry": {
        "type": "Point",
        "coordinates": [
          -81.1598374083409,
          28.276102448754877
        ]
      },
      "properties": {
        "CONDITION": "Good",
        "OBJECTID": 850,
        "MAPID": "385",
        "CULVERT_ID": "C32C_PC22",
        "LOCATION": "C32C",
        "NUMBER": "PC22",
        "FUNC_LOC": "NK-200-C32C   -RC1",
        "SAP_EQUIPMENT": 10010635,
        "AHED_NAME": "NA",
        "STATUS": "Operational",
        "CULVERT_TYPE": "PROJECT",
        "STRUCTURE_TYPE": "Culvert with Riser",
        "CONTROL_MECHANISM": "Flashboard Riser",
        "CULVERT_CONSTRUCTION": "Steel",
        "NUM_OF_BARRELS": "1 EA",
        "SIZE_OF_BARRELS": "36\"X44'",
        "NGVD_INVERT_ELEVATION": 56.65000153,
        "SFWMD_REGION": "North Region",
        "FIELD_STATION": "St. Cloud",
        "INITIATIVE": "Federal",
        "INSTALL_REPLACE_DATE": 18000000,
        "YEAR_30": "2041",
        "REPLACE": null,
        "CAPITAL_PROJECT": null,
        "SCHEDULED_REPLACEMENT_YEAR": null,
        "SCHEDULED_REMOVAL_YEAR": null,
        "REMOVAL_YEAR": null,
        "COMMENT": null,
        "created_user": "SPEGD",
        "created_date": 1532546552000,
        "last_edited_user": "SPEGD",
        "last_edited_date": 1532546552000,
        "_source_layer": "Project Culverts"
      }
    },
    {
      "type": "Feature",
      "id": 844,
      "geometry": {
        "type": "Point",
        "coordinates": [
          -81.21947146725692,
          28.35007563346728
        ]
      },
      "properties": {
        "CONDITION": "Good",
        "OBJECTID": 844,
        "MAPID": "378",
        "CULVERT_ID": "C29A_PC08",
        "LOCATION": "C29A",
        "NUMBER": "PC08",
        "FUNC_LOC": "NK-200-C29A   -RC1",
        "SAP_EQUIPMENT": 10010555,
        "AHED_NAME": "NA",
        "STATUS": "Operational",
        "CULVERT_TYPE": "PROJECT",
        "STRUCTURE_TYPE": "Culvert with Riser",
        "CONTROL_MECHANISM": "Flashboard Riser",
        "CULVERT_CONSTRUCTION": "Steel",
        "NUM_OF_BARRELS": "1 EA",
        "SIZE_OF_BARRELS": "36\"X64'",
        "NGVD_INVERT_ELEVATION": 52,
        "SFWMD_REGION": "North Region",
        "FIELD_STATION": "St. Cloud",
        "INITIATIVE": "Federal",
        "INSTALL_REPLACE_DATE": 18000000,
        "YEAR_30": "2037",
        "REPLACE": null,
        "CAPITAL_PROJECT": null,
        "SCHEDULED_REPLACEMENT_YEAR": null,
        "SCHEDULED_REMOVAL_YEAR": null,
        "REMOVAL_YEAR": null,
        "COMMENT": null,
        "created_user": "SPEGD",
        "created_date": 1532546552000,
        "last_edited_user": "SPEGD",
        "last_edited_date": 1532546552000,
        "_source_layer": "Project Culverts"
      }
    },
    {
      "type": "Feature",
      "id": 824,
      "geometry": {
        "type": "Point",
        "coordinates": [
          -81.25409042622752,
          28.116416640356004
        ]
      },
      "properties": {
        "CONDITION": "Good",
        "OBJECTID": 824,
        "MAPID": "357",
        "CULVERT_ID": "C34_PC20",
        "LOCATION": "C34",
        "NUMBER": "PC20",
        "FUNC_LOC": "NK-200-C34    -RC1",
        "SAP_EQUIPMENT": 10010707,
        "AHED_NAME": "NA",
        "STATUS": "Operational",
        "CULVERT_TYPE": "PROJECT",
        "STRUCTURE_TYPE": "Culvert with Riser",
        "CONTROL_MECHANISM": "Flashboard Riser",
        "CULVERT_CONSTRUCTION": "Aluminum",
        "NUM_OF_BARRELS": "1 EA",
        "SIZE_OF_BARRELS": "36\"X70'",
        "NGVD_INVERT_ELEVATION": 53,
        "SFWMD_REGION": "North Region",
        "FIELD_STATION": "St. Cloud",
        "INITIATIVE": "Federal",
        "INSTALL_REPLACE_DATE": 662706000000,
        "YEAR_30": "2021",
        "REPLACE": null,
        "CAPITAL_PROJECT": null,
        "SCHEDULED_REPLACEMENT_YEAR": null,
        "SCHEDULED_REMOVAL_YEAR": null,
        "REMOVAL_YEAR": null,
        "COMMENT": null,
        "created_user": "SPEGD",
        "created_date": 1532546552000,
        "last_edited_user": "SPEGD",
        "last_edited_date": 1532546552000,
        "_source_layer": "Project Culverts"
      }
    },
    {
      "type": "Feature",
      "id": 838,
      "geometry": {
        "type": "Point",
        "coordinates": [
          -81.1899410412384,
          28.38239020273371
        ]
      },
      "properties": {
        "CONDITION": "Poor",
        "OBJECTID": 838,
        "MAPID": "371",
        "CULVERT_ID": "C29_PC02",
        "LOCATION": "C29",
        "NUMBER": "PC02",
        "FUNC_LOC": "NK-200-C29    -RC1",
        "SAP_EQUIPMENT": 10010540,
        "AHED_NAME": "NA",
        "STATUS": "Operational",
        "CULVERT_TYPE": "PROJECT",
        "STRUCTURE_TYPE": "Culvert with Riser",
        "CONTROL_MECHANISM": "Flashboard Riser",
        "CULVERT_CONSTRUCTION": "Steel",
        "NUM_OF_BARRELS": "1 EA",
        "SIZE_OF_BARRELS": "36\"X52'",
        "NGVD_INVERT_ELEVATION": 56,
        "SFWMD_REGION": "North Region",
        "FIELD_STATION": "St. Cloud",
        "INITIATIVE": "Federal",
        "INSTALL_REPLACE_DATE": -94676400000,
        "YEAR_30": "1997",
        "REPLACE": null,
        "CAPITAL_PROJECT": "YES",
        "SCHEDULED_REPLACEMENT_YEAR": null,
        "SCHEDULED_REMOVAL_YEAR": null,
        "REMOVAL_YEAR": null,
        "COMMENT": "Capital Project",
        "created_user": "SPEGD",
        "created_date": 1532546552000,
        "last_edited_user": "SPEGD",
        "last_edited_date": 1532546552000,
        "_source_layer": "Project Culverts"
      }
    },
    {
      "type": "Feature",
      "id": 787,
      "geometry": {
        "type": "Point",
        "coordinates": [
          -81.34798668083829,
          28.108012970393684
        ]
      },
      "properties": {
        "CONDITION": "Good",
        "OBJECTID": 787,
        "MAPID": "319",
        "CULVERT_ID": "C35_PC13",
        "LOCATION": "C35",
        "NUMBER": "PC13",
        "FUNC_LOC": "NK-200-C35    -RC1",
        "SAP_EQUIPMENT": 10010725,
        "AHED_NAME": "NA",
        "STATUS": "Operational",
        "CULVERT_TYPE": "PROJECT",
        "STRUCTURE_TYPE": "Culvert with Riser",
        "CONTROL_MECHANISM": "Flashboard Riser",
        "CULVERT_CONSTRUCTION": "Steel",
        "NUM_OF_BARRELS": "1 EA",
        "SIZE_OF_BARRELS": "72\"X60'",
        "NGVD_INVERT_ELEVATION": 46,
        "SFWMD_REGION": "North Region",
        "FIELD_STATION": "St. Cloud",
        "INITIATIVE": "Federal",
        "INSTALL_REPLACE_DATE": 725864400000,
        "YEAR_30": "2023",
        "REPLACE": null,
        "CAPITAL_PROJECT": null,
        "SCHEDULED_REPLACEMENT_YEAR": null,
        "SCHEDULED_REMOVAL_YEAR": null,
        "REMOVAL_YEAR": null,
        "COMMENT": null,
        "created_user": "SPEGD",
        "created_date": 1532546552000,
        "last_edited_user": "SPEGD",
        "last_edited_date": 1532546552000,
        "_source_layer": "Project Culverts"
      }
    },
    {
      "type": "Feature",
      "id": 853,
      "geometry": {
        "type": "Point",
        "coordinates": [
          -81.15760250558432,
          28.28529579535393
        ]
      },
      "properties": {
        "CONDITION": "Good",
        "OBJECTID": 853,
        "MAPID": "388",
        "CULVERT_ID": "C32C_PC24",
        "LOCATION": "C32C",
        "NUMBER": "PC24",
        "FUNC_LOC": "NK-200-C32C   -RC1",
        "SAP_EQUIPMENT": 10010637,
        "AHED_NAME": "NA",
        "STATUS": "Operational",
        "CULVERT_TYPE": "PROJECT",
        "STRUCTURE_TYPE": "Culvert with Riser",
        "CONTROL_MECHANISM": "Flashboard Riser",
        "CULVERT_CONSTRUCTION": "Steel",
        "NUM_OF_BARRELS": "1 EA",
        "SIZE_OF_BARRELS": "36\"X44'",
        "NGVD_INVERT_ELEVATION": 56.70000076,
        "SFWMD_REGION": "North Region",
        "FIELD_STATION": "St. Cloud",
        "INITIATIVE": "Federal",
        "INSTALL_REPLACE_DATE": 18000000,
        "YEAR_30": "2036",
        "REPLACE": null,
        "CAPITAL_PROJECT": null,
        "SCHEDULED_REPLACEMENT_YEAR": null,
        "SCHEDULED_REMOVAL_YEAR": null,
        "REMOVAL_YEAR": null,
        "COMMENT": null,
        "created_user": "SPEGD",
        "created_date": 1532546552000,
        "last_edited_user": "SPEGD",
        "last_edited_date": 1532546552000,
        "_source_layer": "Project Culverts"
      }
    },
    {
      "type": "Feature",
      "id": 830,
      "geometry": {
        "type": "Point",
        "coordinates": [
          -81.24224911374435,
          28.15364525753093
        ]
      },
      "properties": {
        "CONDITION": "Good",
        "OBJECTID": 830,
        "MAPID": "363",
        "CULVERT_ID": "C33_PC01A",
        "LOCATION": "C33",
        "NUMBER": "PC01A",
        "FUNC_LOC": "NK-200-C33    -RC1",
        "SAP_EQUIPMENT": 10010675,
        "AHED_NAME": "NA",
        "STATUS": "Operational",
        "CULVERT_TYPE": "PROJECT",
        "STRUCTURE_TYPE": "Culvert with Riser",
        "CONTROL_MECHANISM": "Flashboard Riser",
        "CULVERT_CONSTRUCTION": "Aluminum",
        "NUM_OF_BARRELS": "1 EA",
        "SIZE_OF_BARRELS": "36\"X54'",
        "NGVD_INVERT_ELEVATION": 57.5,
        "SFWMD_REGION": "North Region",
        "FIELD_STATION": "St. Cloud",
        "INITIATIVE": "Federal",
        "INSTALL_REPLACE_DATE": 1104555600000,
        "YEAR_30": "2035",
        "REPLACE": null,
        "CAPITAL_PROJECT": null,
        "SCHEDULED_REPLACEMENT_YEAR": null,
        "SCHEDULED_REMOVAL_YEAR": null,
        "REMOVAL_YEAR": null,
        "COMMENT": null,
        "created_user": "SPEGD",
        "created_date": 1532546552000,
        "last_edited_user": "SPEGD",
        "last_edited_date": 1532546552000,
        "_source_layer": "Project Culverts"
      }
    },
    {
      "type": "Feature",
      "id": 801,
      "geometry": {
        "type": "Point",
        "coordinates": [
          -81.3123474966312,
          28.264270609536283
        ]
      },
      "properties": {
        "CONDITION": "Good",
        "OBJECTID": 801,
        "MAPID": "334",
        "CULVERT_ID": "C31_PC12A",
        "LOCATION": "C31",
        "NUMBER": "PC12A",
        "FUNC_LOC": "NK-200-C31    -RC1",
        "SAP_EQUIPMENT": 10010595,
        "AHED_NAME": "NA",
        "STATUS": "Operational",
        "CULVERT_TYPE": "PROJECT",
        "STRUCTURE_TYPE": "Culvert with Riser",
        "CONTROL_MECHANISM": "Flashboard Riser",
        "CULVERT_CONSTRUCTION": "Steel",
        "NUM_OF_BARRELS": "1 EA",
        "SIZE_OF_BARRELS": "36\"X68'",
        "NGVD_INVERT_ELEVATION": null,
        "SFWMD_REGION": "North Region",
        "FIELD_STATION": "St. Cloud",
        "INITIATIVE": "Federal",
        "INSTALL_REPLACE_DATE": -220906800000,
        "YEAR_30": "2022",
        "REPLACE": null,
        "CAPITAL_PROJECT": null,
        "SCHEDULED_REPLACEMENT_YEAR": null,
        "SCHEDULED_REMOVAL_YEAR": null,
        "REMOVAL_YEAR": null,
        "COMMENT": null,
        "created_user": "SPEGD",
        "created_date": 1532546552000,
        "last_edited_user": "SPEGD",
        "last_edited_date": 1532546552000,
        "_source_layer": "Project Culverts"
      }
    },
    {
      "type": "Feature",
      "id": 841,
      "geometry": {
        "type": "Point",
        "coordinates": [
          -81.21830698644982,
          28.3519621921089
        ]
      },
      "properties": {
        "CONDITION": "Good",
        "OBJECTID": 841,
        "MAPID": "374",
        "CULVERT_ID": "C29A_PC05",
        "LOCATION": "C29A",
        "NUMBER": "PC05",
        "FUNC_LOC": "NK-200-C29A   -RC1",
        "SAP_EQUIPMENT": 10010551,
        "AHED_NAME": "NA",
        "STATUS": "Operational",
        "CULVERT_TYPE": "PROJECT",
        "STRUCTURE_TYPE": "Culvert with Riser",
        "CONTROL_MECHANISM": "Flashboard Riser",
        "CULVERT_CONSTRUCTION": "Steel",
        "NUM_OF_BARRELS": "1 EA",
        "SIZE_OF_BARRELS": "36\"X60'",
        "NGVD_INVERT_ELEVATION": 52,
        "SFWMD_REGION": "North Region",
        "FIELD_STATION": "St. Cloud",
        "INITIATIVE": "Federal",
        "INSTALL_REPLACE_DATE": 18000000,
        "YEAR_30": "2036",
        "REPLACE": null,
        "CAPITAL_PROJECT": null,
        "SCHEDULED_REPLACEMENT_YEAR": null,
        "SCHEDULED_REMOVAL_YEAR": null,
        "REMOVAL_YEAR": null,
        "COMMENT": null,
        "created_user": "SPEGD",
        "created_date": 1532546552000,
        "last_edited_user": "SPEGD",
        "last_edited_date": 1532546552000,
        "_source_layer": "Project Culverts"
      }
    },
    {
      "type": "Feature",
      "id": 798,
      "geometry": {
        "type": "Point",
        "coordinates": [
          -81.321785315953,
          28.25809434316603
        ]
      },
      "properties": {
        "CONDITION": "Good",
        "OBJECTID": 798,
        "MAPID": "331",
        "CULVERT_ID": "C31_PC09",
        "LOCATION": "C31",
        "NUMBER": "PC09",
        "FUNC_LOC": "NK-200-C31    -RC1",
        "SAP_EQUIPMENT": 10010604,
        "AHED_NAME": "NA",
        "STATUS": "Operational",
        "CULVERT_TYPE": "PROJECT",
        "STRUCTURE_TYPE": "Culvert with Riser",
        "CONTROL_MECHANISM": "Flashboard Riser",
        "CULVERT_CONSTRUCTION": "Aluminum",
        "NUM_OF_BARRELS": "1 EA",
        "SIZE_OF_BARRELS": "36\"X88'",
        "NGVD_INVERT_ELEVATION": 49.90000153,
        "SFWMD_REGION": "North Region",
        "FIELD_STATION": "St. Cloud",
        "INITIATIVE": "Federal",
        "INSTALL_REPLACE_DATE": 946702800000,
        "YEAR_30": "2030",
        "REPLACE": null,
        "CAPITAL_PROJECT": null,
        "SCHEDULED_REPLACEMENT_YEAR": null,
        "SCHEDULED_REMOVAL_YEAR": null,
        "REMOVAL_YEAR": null,
        "COMMENT": null,
        "created_user": "SPEGD",
        "created_date": 1532546552000,
        "last_edited_user": "SPEGD",
        "last_edited_date": 1532546552000,
        "_source_layer": "Project Culverts"
      }
    },
    {
      "type": "Feature",
      "id": 847,
      "geometry": {
        "type": "Point",
        "coordinates": [
          -81.16095223018611,
          28.273349704039788
        ]
      },
      "properties": {
        "CONDITION": "Good",
        "OBJECTID": 847,
        "MAPID": "382",
        "CULVERT_ID": "C32C_PC21",
        "LOCATION": "C32C",
        "NUMBER": "PC21 ",
        "FUNC_LOC": "NK-200-C32C   -RC1",
        "SAP_EQUIPMENT": 10010632,
        "AHED_NAME": "NA",
        "STATUS": "Operational",
        "CULVERT_TYPE": "PROJECT",
        "STRUCTURE_TYPE": "Culvert with Riser",
        "CONTROL_MECHANISM": "Flashboard Riser",
        "CULVERT_CONSTRUCTION": "Aluminum",
        "NUM_OF_BARRELS": "1 EA",
        "SIZE_OF_BARRELS": "36\"X52'",
        "NGVD_INVERT_ELEVATION": 55.06999969,
        "SFWMD_REGION": "North Region",
        "FIELD_STATION": "St. Cloud",
        "INITIATIVE": "Federal",
        "INSTALL_REPLACE_DATE": 978325200000,
        "YEAR_30": "2031",
        "REPLACE": null,
        "CAPITAL_PROJECT": null,
        "SCHEDULED_REPLACEMENT_YEAR": null,
        "SCHEDULED_REMOVAL_YEAR": null,
        "REMOVAL_YEAR": null,
        "COMMENT": null,
        "created_user": "SPEGD",
        "created_date": 1532546552000,
        "last_edited_user": "SPEGD",
        "last_edited_date": 1532546552000,
        "_source_layer": "Project Culverts"
      }
    },
    {
      "type": "Feature",
      "id": 790,
      "geometry": {
        "type": "Point",
        "coordinates": [
          -81.32708538949755,
          28.253606296147275
        ]
      },
      "properties": {
        "CONDITION": "Good",
        "OBJECTID": 790,
        "MAPID": "323",
        "CULVERT_ID": "C31_PC03",
        "LOCATION": "C31",
        "NUMBER": "PC03",
        "FUNC_LOC": "NK-200-C31    -RC1",
        "SAP_EQUIPMENT": 10010600,
        "AHED_NAME": "NA",
        "STATUS": "Operational",
        "CULVERT_TYPE": "PROJECT",
        "STRUCTURE_TYPE": "Culvert with Riser",
        "CONTROL_MECHANISM": "Flashboard Riser",
        "CULVERT_CONSTRUCTION": "Aluminum",
        "NUM_OF_BARRELS": "1 EA",
        "SIZE_OF_BARRELS": "36\"X74'",
        "NGVD_INVERT_ELEVATION": 49.59999847,
        "SFWMD_REGION": "North Region",
        "FIELD_STATION": "St. Cloud",
        "INITIATIVE": "Federal",
        "INSTALL_REPLACE_DATE": 1072933200000,
        "YEAR_30": "2034",
        "REPLACE": null,
        "CAPITAL_PROJECT": null,
        "SCHEDULED_REPLACEMENT_YEAR": null,
        "SCHEDULED_REMOVAL_YEAR": null,
        "REMOVAL_YEAR": null,
        "COMMENT": null,
        "created_user": "SPEGD",
        "created_date": 1532546552000,
        "last_edited_user": "SPEGD",
        "last_edited_date": 1532546552000,
        "_source_layer": "Project Culverts"
      }
    }
  ]
}